{
"type": "FeatureCollection",
"name": "ghana_borders",
"crs": { "type": "name", "properties": { "name": "urn:ogc:def:crs:OGC:1.3:CRS84" } },
"bbox": [ -3.26208496099997, 4.74072265600006, 1.20031738300003, 11.174682617 ],                                                   
"features": [
{ "type": "Feature", "properties": { "Shape_Leng": 25.2558984104, "Shape_Area": 19.647888262799999, "ADM0_EN": "Ghana", "ADM0_PCODE": "GH", "ADM0_REF": null, "ADM0ALT1EN": null, "ADM0ALT2EN": null, "date": "2018-10-26", "validOn": "2021-03-08", "validTo": null }, "bbox": [ -3.2621, 4.7407, 1.2003, 11.1747 ], "geometry": { "type": "MultiLineString", "coordinates": [ [ [ -0.2259, 11.1633 ], [ -0.2187, 11.1597 ], [ -0.2126, 11.1601 ], [ -0.1978, 11.1567 ], [ -0.1852, 11.1531 ], [ -0.1809, 11.1521 ], [ -0.1773, 11.1513 ], [ -0.1742, 11.1503 ], [ -0.1663, 11.1483 ], [ -0.1616, 11.1471 ], [ -0.1531, 11.1429 ], [ -0.149, 11.1419 ], [ -0.1361, 11.1391 ], [ -0.1345, 11.1353 ], [ -0.1342, 11.1305 ], [ -0.1368, 11.1267 ], [ -0.1401, 11.1245 ], [ -0.1422, 11.1225 ], [ -0.1435, 11.1189 ], [ -0.1435, 11.1151 ], [ -0.1426, 11.1107 ], [ -0.1425, 11.1063 ], [ -0.1386, 11.1063 ], [ -0.1336, 11.1059 ], [ -0.1294, 11.1057 ], [ -0.1248, 11.1049 ], [ -0.1217, 11.1023 ], [ -0.1197, 11.1001 ], [ -0.1159, 11.0991 ], [ -0.1129, 11.0975 ], [ -0.1099, 11.0961 ], [ -0.1056, 11.0951 ], [ -0.1025, 11.0925 ], [ -0.1001, 11.0889 ], [ -0.0976, 11.0871 ], [ -0.0946, 11.0861 ], [ -0.0909, 11.0861 ], [ -0.088, 11.0869 ], [ -0.0847, 11.0861 ], [ -0.0801, 11.0845 ], [ -0.075, 11.0853 ], [ -0.0708, 11.0859 ], [ -0.0676, 11.0849 ], [ -0.0645, 11.0865 ], [ -0.0606, 11.0863 ], [ -0.0575, 11.0859 ], [ -0.0545, 11.0869 ], [ -0.053, 11.0901 ], [ -0.0505, 11.0927 ], [ -0.0481, 11.0961 ], [ -0.0458, 11.0995 ], [ -0.0426, 11.1023 ], [ -0.0396, 11.1049 ], [ -0.0354, 11.1073 ], [ -0.032, 11.1095 ], [ -0.0288, 11.1107 ], [ -0.0249, 11.1115 ], [ -0.0206, 11.1129 ], [ -0.0169, 11.1137 ], [ -0.0134, 11.1107 ], [ -0.0089, 11.1095 ], [ -0.0051, 11.1075 ], [ -0.0044, 11.1039 ], [ -0.0049, 11.1009 ], [ -0.0014, 11.0989 ], [ 0.0017, 11.0953 ], [ 0.0021, 11.0897 ], [ 0.0029, 11.0855 ], [ 0.0047, 11.0825 ], [ 0.0067, 11.0799 ], [ 0.0091, 11.0769 ], [ 0.0129, 11.0735 ], [ 0.0159, 11.0707 ], [ 0.0191, 11.0677 ], [ 0.0221, 11.0653 ], [ 0.0243, 11.0623 ], [ 0.0243, 11.0581 ], [ 0.0251, 11.0495 ], [ 0.0261, 11.0355 ], [ 0.0271, 11.0223 ], [ 0.0287, 11.0035 ], [ 0.0331, 10.9955 ], [ 0.0339, 10.9927 ], [ 0.0327, 10.9893 ], [ 0.0325, 10.9863 ], [ 0.0305, 10.9819 ], [ 0.0283, 10.9793 ], [ 0.0249, 10.9725 ], [ 0.0105, 10.9685 ], [ 0.0049, 10.9665 ], [ -0.001, 10.9653 ], [ -0.0041, 10.9647 ], [ -0.0058, 10.9611 ], [ -0.0057, 10.9553 ], [ -0.0071, 10.9519 ], [ -0.0072, 10.9487 ], [ -0.0086, 10.9453 ], [ -0.0114, 10.9437 ], [ -0.0115, 10.9403 ], [ -0.0122, 10.9375 ], [ -0.0114, 10.9339 ], [ -0.0102, 10.9281 ], [ -0.0108, 10.9235 ], [ -0.0078, 10.9205 ], [ -0.008, 10.9167 ], [ -0.0106, 10.9117 ], [ -0.0132, 10.9071 ], [ -0.0138, 10.9021 ], [ -0.0155, 10.8993 ], [ -0.0157, 10.8959 ], [ -0.0175, 10.8919 ], [ -0.0198, 10.8873 ], [ -0.023, 10.8837 ], [ -0.0251, 10.8809 ], [ -0.026, 10.8777 ], [ -0.0255, 10.8745 ], [ -0.0254, 10.8701 ], [ -0.0253, 10.8667 ], [ -0.0269, 10.8637 ], [ -0.0284, 10.8609 ], [ -0.0292, 10.8581 ], [ -0.0299, 10.8545 ], [ -0.0293, 10.8511 ], [ -0.0288, 10.8477 ], [ -0.0285, 10.8431 ], [ -0.0258, 10.8377 ], [ -0.0237, 10.8343 ], [ -0.0232, 10.8305 ], [ -0.0236, 10.8257 ], [ -0.023, 10.8227 ], [ -0.0225, 10.8195 ], [ -0.0251, 10.8177 ], [ -0.0287, 10.8153 ], [ -0.0302, 10.8109 ], [ -0.0321, 10.8071 ], [ -0.0358, 10.8061 ], [ -0.0387, 10.8047 ], [ -0.0411, 10.8019 ], [ -0.0442, 10.7983 ], [ -0.0449, 10.7939 ], [ -0.0479, 10.7919 ], [ -0.052, 10.7897 ], [ -0.0558, 10.7871 ], [ -0.0584, 10.7841 ], [ -0.0607, 10.7799 ], [ -0.0628, 10.7765 ], [ -0.0645, 10.7733 ], [ -0.0682, 10.7727 ], [ -0.0721, 10.7703 ], [ -0.0718, 10.7673 ], [ -0.0711, 10.7631 ], [ -0.0739, 10.7589 ], [ -0.0741, 10.7533 ], [ -0.0736, 10.7491 ], [ -0.0724, 10.7443 ], [ -0.0717, 10.7411 ], [ -0.0725, 10.7375 ], [ -0.0741, 10.7331 ], [ -0.0748, 10.7295 ], [ -0.0735, 10.7259 ], [ -0.0731, 10.7207 ], [ -0.077, 10.7181 ], [ -0.0816, 10.7175 ], [ -0.086, 10.7165 ], [ -0.089, 10.7147 ], [ -0.0909, 10.7103 ], [ -0.0885, 10.7063 ], [ -0.0833, 10.6983 ], [ -0.0783, 10.6907 ], [ -0.0763, 10.6853 ], [ -0.0739, 10.6793 ], [ -0.0725, 10.6761 ], [ -0.0717, 10.6729 ], [ -0.0703, 10.6697 ], [ -0.0701, 10.6663 ], [ -0.07, 10.6613 ], [ -0.0687, 10.6573 ], [ -0.0673, 10.6525 ], [ -0.0656, 10.6489 ], [ -0.0637, 10.6451 ], [ -0.0624, 10.6407 ], [ -0.0613, 10.6375 ], [ -0.0598, 10.6333 ], [ -0.0543, 10.6313 ], [ -0.041, 10.6285 ], [ -0.0266, 10.6257 ], [ -0.0219, 10.6247 ], [ -0.0154, 10.6221 ], [ -0.0134, 10.6181 ], [ -0.0104, 10.6163 ], [ -0.0064, 10.6155 ], [ -0.0031, 10.6147 ], [ 0.0005, 10.6133 ], [ 0.0091, 10.6107 ], [ 0.0301, 10.6047 ], [ 0.0343, 10.6035 ], [ 0.0415, 10.6011 ], [ 0.0417, 10.5979 ], [ 0.0429, 10.5951 ], [ 0.0449, 10.5929 ], [ 0.0475, 10.5913 ], [ 0.0499, 10.5889 ], [ 0.0523, 10.5869 ], [ 0.0553, 10.5843 ], [ 0.0575, 10.5793 ], [ 0.0587, 10.5753 ], [ 0.0599, 10.5715 ], [ 0.0601, 10.5685 ], [ 0.0607, 10.5653 ], [ 0.0605, 10.5621 ], [ 0.0807, 10.5539 ], [ 0.1177, 10.5413 ], [ 0.1279, 10.5301 ], [ 0.1431, 10.5259 ], [ 0.1445, 10.5219 ], [ 0.1451, 10.5189 ], [ 0.1451, 10.5153 ], [ 0.1471, 10.5131 ], [ 0.1459, 10.5103 ], [ 0.1471, 10.5063 ], [ 0.1479, 10.5017 ], [ 0.1503, 10.4977 ], [ 0.1505, 10.4947 ], [ 0.1517, 10.4917 ], [ 0.1511, 10.4887 ], [ 0.1529, 10.4855 ], [ 0.1543, 10.4821 ], [ 0.1557, 10.4781 ], [ 0.1589, 10.4745 ], [ 0.1581, 10.4713 ], [ 0.1561, 10.4673 ], [ 0.1565, 10.4631 ], [ 0.1615, 10.4601 ], [ 0.1625, 10.4569 ], [ 0.1645, 10.4543 ], [ 0.1677, 10.4519 ], [ 0.1711, 10.4517 ], [ 0.1719, 10.4479 ], [ 0.1695, 10.4439 ], [ 0.1673, 10.4415 ], [ 0.1685, 10.4383 ], [ 0.1699, 10.4345 ], [ 0.1699, 10.4299 ], [ 0.1731, 10.4271 ], [ 0.1761, 10.4247 ], [ 0.1795, 10.4245 ], [ 0.1821, 10.4231 ], [ 0.1839, 10.4203 ], [ 0.1859, 10.4177 ], [ 0.1893, 10.4169 ], [ 0.1899, 10.4121 ], [ 0.1909, 10.4069 ], [ 0.1939, 10.4031 ], [ 0.1989, 10.4059 ], [ 0.2027, 10.4069 ], [ 0.2077, 10.4063 ], [ 0.2071, 10.4107 ], [ 0.2063, 10.4143 ], [ 0.2057, 10.4175 ], [ 0.2099, 10.4179 ], [ 0.2105, 10.4207 ], [ 0.2149, 10.4231 ], [ 0.2169, 10.4259 ], [ 0.2213, 10.4241 ], [ 0.2263, 10.4215 ], [ 0.2293, 10.4193 ], [ 0.2321, 10.4161 ], [ 0.2357, 10.4131 ], [ 0.2375, 10.4155 ], [ 0.2407, 10.4153 ], [ 0.2441, 10.4153 ], [ 0.2461, 10.4135 ], [ 0.2495, 10.4127 ], [ 0.2509, 10.4095 ], [ 0.2549, 10.4093 ], [ 0.2587, 10.4091 ], [ 0.2633, 10.4097 ], [ 0.2679, 10.4115 ], [ 0.2679, 10.4157 ], [ 0.2709, 10.4163 ], [ 0.2725, 10.4201 ], [ 0.2759, 10.4195 ], [ 0.2803, 10.4203 ], [ 0.2851, 10.4213 ], [ 0.2877, 10.4181 ], [ 0.2881, 10.4145 ], [ 0.2883, 10.4115 ], [ 0.2903, 10.4095 ], [ 0.2945, 10.4099 ], [ 0.2983, 10.4089 ], [ 0.2989, 10.4051 ], [ 0.2997, 10.4001 ], [ 0.2997, 10.3971 ], [ 0.3001, 10.3939 ], [ 0.2983, 10.3891 ], [ 0.2959, 10.3855 ], [ 0.2929, 10.3833 ], [ 0.2917, 10.3799 ], [ 0.2911, 10.3761 ], [ 0.2945, 10.3743 ], [ 0.2973, 10.3735 ], [ 0.3007, 10.3727 ], [ 0.3027, 10.3701 ], [ 0.3067, 10.3711 ], [ 0.3091, 10.3675 ], [ 0.3123, 10.3645 ], [ 0.3137, 10.3611 ], [ 0.3145, 10.3569 ], [ 0.3145, 10.3533 ], [ 0.3161, 10.3491 ], [ 0.3161, 10.3449 ], [ 0.3161, 10.3417 ], [ 0.3157, 10.3383 ], [ 0.3187, 10.3349 ], [ 0.3223, 10.3351 ], [ 0.3241, 10.3385 ], [ 0.3271, 10.3399 ], [ 0.3297, 10.3377 ], [ 0.3337, 10.3357 ], [ 0.3343, 10.3325 ], [ 0.3365, 10.3289 ], [ 0.3369, 10.3247 ], [ 0.3309, 10.3235 ], [ 0.3267, 10.3215 ], [ 0.3233, 10.3193 ], [ 0.3225, 10.3147 ], [ 0.3197, 10.3127 ], [ 0.3171, 10.3107 ], [ 0.3209, 10.3087 ], [ 0.3251, 10.3071 ], [ 0.3293, 10.3093 ], [ 0.3327, 10.3113 ], [ 0.3357, 10.3095 ], [ 0.3407, 10.3081 ], [ 0.3441, 10.3083 ], [ 0.3477, 10.3079 ], [ 0.3511, 10.3113 ], [ 0.3543, 10.3133 ], [ 0.3583, 10.3115 ], [ 0.3619, 10.3111 ], [ 0.3671, 10.3109 ], [ 0.3711, 10.3123 ], [ 0.3747, 10.3133 ], [ 0.3799, 10.3139 ], [ 0.3841, 10.3151 ], [ 0.3879, 10.3159 ], [ 0.3921, 10.3153 ], [ 0.3963, 10.3135 ], [ 0.3977, 10.3095 ], [ 0.3975, 10.3057 ], [ 0.3947, 10.3035 ], [ 0.3917, 10.3029 ], [ 0.3881, 10.3037 ], [ 0.3847, 10.3007 ], [ 0.3829, 10.2967 ], [ 0.3793, 10.2943 ], [ 0.3771, 10.2911 ], [ 0.3769, 10.2877 ], [ 0.3729, 10.2867 ], [ 0.3697, 10.2847 ], [ 0.3723, 10.2833 ], [ 0.3747, 10.2797 ], [ 0.3789, 10.2785 ], [ 0.3813, 10.2753 ], [ 0.3785, 10.2725 ], [ 0.3765, 10.2703 ], [ 0.3731, 10.2671 ], [ 0.3683, 10.2655 ], [ 0.3649, 10.2653 ], [ 0.3627, 10.2633 ], [ 0.3617, 10.2603 ], [ 0.3611, 10.2571 ], [ 0.3609, 10.2529 ], [ 0.3609, 10.2485 ], [ 0.3607, 10.2443 ], [ 0.3599, 10.2403 ], [ 0.3597, 10.2365 ], [ 0.3599, 10.2331 ], [ 0.3605, 10.2299 ], [ 0.3607, 10.2265 ], [ 0.3607, 10.2205 ], [ 0.3579, 10.2171 ], [ 0.3555, 10.2145 ], [ 0.3551, 10.2109 ], [ 0.3555, 10.2073 ], [ 0.3557, 10.2025 ], [ 0.3545, 10.1983 ], [ 0.3523, 10.1945 ], [ 0.3511, 10.1911 ], [ 0.3519, 10.1873 ], [ 0.3531, 10.1841 ], [ 0.3531, 10.1809 ], [ 0.3529, 10.1777 ], [ 0.3529, 10.1747 ], [ 0.3515, 10.1709 ], [ 0.3507, 10.1671 ], [ 0.3519, 10.1629 ], [ 0.3535, 10.1591 ], [ 0.3553, 10.1563 ], [ 0.3569, 10.1537 ], [ 0.3589, 10.1507 ], [ 0.3611, 10.1477 ], [ 0.3623, 10.1449 ], [ 0.3629, 10.1417 ], [ 0.3629, 10.1381 ], [ 0.3617, 10.1339 ], [ 0.3589, 10.1303 ], [ 0.3577, 10.1277 ], [ 0.3575, 10.1233 ], [ 0.3565, 10.1197 ], [ 0.3555, 10.1169 ], [ 0.3531, 10.1133 ], [ 0.3521, 10.1085 ], [ 0.3523, 10.1049 ], [ 0.3523, 10.1011 ], [ 0.3535, 10.0963 ], [ 0.3555, 10.0919 ], [ 0.3589, 10.0889 ], [ 0.3621, 10.0865 ], [ 0.3655, 10.0853 ], [ 0.3689, 10.0855 ], [ 0.3733, 10.0853 ], [ 0.3785, 10.0847 ], [ 0.3829, 10.0837 ], [ 0.3859, 10.0825 ], [ 0.3895, 10.0817 ], [ 0.3945, 10.0809 ], [ 0.3987, 10.0773 ], [ 0.4025, 10.0741 ], [ 0.4061, 10.0715 ], [ 0.4085, 10.0691 ], [ 0.4105, 10.0671 ], [ 0.4129, 10.0645 ], [ 0.4159, 10.0617 ], [ 0.4173, 10.0577 ], [ 0.4163, 10.0547 ], [ 0.4147, 10.0519 ], [ 0.4135, 10.0473 ], [ 0.4127, 10.0429 ], [ 0.4129, 10.0391 ], [ 0.4139, 10.0359 ], [ 0.4139, 10.0329 ], [ 0.4125, 10.0301 ], [ 0.4119, 10.0269 ], [ 0.4111, 10.0227 ], [ 0.4063, 10.0211 ], [ 0.4025, 10.0205 ], [ 0.3995, 10.0217 ], [ 0.3971, 10.0243 ], [ 0.3945, 10.0259 ], [ 0.3917, 10.0267 ], [ 0.3877, 10.0269 ], [ 0.3837, 10.0265 ], [ 0.3807, 10.0269 ], [ 0.3775, 10.0269 ], [ 0.3745, 10.0277 ], [ 0.3717, 10.0299 ], [ 0.3687, 10.0327 ], [ 0.3643, 10.0343 ], [ 0.3607, 10.0305 ], [ 0.3603, 10.0267 ], [ 0.3623, 10.0209 ], [ 0.3637, 10.0167 ], [ 0.3639, 10.0125 ], [ 0.3629, 10.0087 ], [ 0.3615, 10.0051 ], [ 0.3587, 10.0001 ], [ 0.3571, 9.9965 ], [ 0.3577, 9.9925 ], [ 0.3587, 9.9891 ], [ 0.3595, 9.9861 ], [ 0.3609, 9.9829 ], [ 0.3625, 9.9785 ], [ 0.3643, 9.9755 ], [ 0.3657, 9.9727 ], [ 0.3671, 9.9695 ], [ 0.3689, 9.9655 ], [ 0.3715, 9.9621 ], [ 0.3737, 9.9595 ], [ 0.3777, 9.9563 ], [ 0.3809, 9.9543 ], [ 0.3837, 9.9523 ], [ 0.3861, 9.9483 ], [ 0.3857, 9.9437 ], [ 0.3863, 9.9393 ], [ 0.3833, 9.9371 ], [ 0.3801, 9.9359 ], [ 0.3771, 9.9349 ], [ 0.3727, 9.9337 ], [ 0.3689, 9.9327 ], [ 0.3645, 9.9321 ], [ 0.3599, 9.9297 ], [ 0.3563, 9.9247 ], [ 0.3547, 9.9205 ], [ 0.3529, 9.9137 ], [ 0.3521, 9.9091 ], [ 0.3515, 9.9043 ], [ 0.3513, 9.9009 ], [ 0.3513, 9.8967 ], [ 0.3529, 9.8897 ], [ 0.3521, 9.8861 ], [ 0.3515, 9.8831 ], [ 0.3521, 9.8797 ], [ 0.3535, 9.8771 ], [ 0.3545, 9.8709 ], [ 0.3559, 9.8613 ], [ 0.3567, 9.8577 ], [ 0.3581, 9.8485 ], [ 0.3561, 9.8441 ], [ 0.3529, 9.8387 ], [ 0.3517, 9.8319 ], [ 0.3489, 9.8257 ], [ 0.3435, 9.8211 ], [ 0.3403, 9.8167 ], [ 0.3397, 9.8137 ], [ 0.3399, 9.8101 ], [ 0.3403, 9.8073 ], [ 0.3371, 9.8031 ], [ 0.3331, 9.7997 ], [ 0.3309, 9.7931 ], [ 0.3337, 9.7857 ], [ 0.3353, 9.7811 ], [ 0.3347, 9.7773 ], [ 0.3317, 9.7751 ], [ 0.3261, 9.7745 ], [ 0.3265, 9.7699 ], [ 0.3299, 9.7649 ], [ 0.3299, 9.7589 ], [ 0.3271, 9.7477 ], [ 0.3263, 9.7449 ], [ 0.3255, 9.7417 ], [ 0.3241, 9.7387 ], [ 0.3213, 9.7327 ], [ 0.3195, 9.7303 ], [ 0.3195, 9.7265 ], [ 0.3219, 9.7237 ], [ 0.3259, 9.7225 ], [ 0.3299, 9.7227 ], [ 0.3329, 9.7223 ], [ 0.3361, 9.7219 ], [ 0.3389, 9.7205 ], [ 0.3429, 9.7179 ], [ 0.3465, 9.7129 ], [ 0.3471, 9.7089 ], [ 0.3481, 9.7019 ], [ 0.3493, 9.6987 ], [ 0.3507, 9.6951 ], [ 0.3511, 9.6899 ], [ 0.3505, 9.6857 ], [ 0.3503, 9.6807 ], [ 0.3519, 9.6767 ], [ 0.3567, 9.6759 ], [ 0.3613, 9.6747 ], [ 0.3629, 9.6725 ], [ 0.3631, 9.6693 ], [ 0.3663, 9.6677 ], [ 0.3677, 9.6647 ], [ 0.3663, 9.6609 ], [ 0.3679, 9.6569 ], [ 0.3713, 9.6539 ], [ 0.3755, 9.6523 ], [ 0.3763, 9.6489 ], [ 0.3783, 9.6445 ], [ 0.3815, 9.6443 ], [ 0.3813, 9.6407 ], [ 0.3805, 9.6361 ], [ 0.3799, 9.6319 ], [ 0.3789, 9.6281 ], [ 0.3779, 9.6245 ], [ 0.3767, 9.6201 ], [ 0.3757, 9.6171 ], [ 0.3745, 9.6131 ], [ 0.3731, 9.6073 ], [ 0.3747, 9.6045 ], [ 0.3775, 9.6009 ], [ 0.3799, 9.5977 ], [ 0.3823, 9.5923 ], [ 0.3813, 9.5889 ], [ 0.3793, 9.5861 ], [ 0.3765, 9.5837 ], [ 0.3741, 9.5821 ], [ 0.3713, 9.5803 ], [ 0.3691, 9.5779 ], [ 0.3657, 9.5763 ], [ 0.3611, 9.5747 ], [ 0.3559, 9.5733 ], [ 0.3523, 9.5729 ], [ 0.3479, 9.5733 ], [ 0.3439, 9.5749 ], [ 0.3405, 9.5779 ], [ 0.3375, 9.5789 ], [ 0.3335, 9.5793 ], [ 0.3271, 9.5793 ], [ 0.3229, 9.5777 ], [ 0.3201, 9.5763 ], [ 0.3159, 9.5763 ], [ 0.3107, 9.5775 ], [ 0.3057, 9.5775 ], [ 0.3011, 9.5763 ], [ 0.2959, 9.5761 ], [ 0.2929, 9.5767 ], [ 0.2887, 9.5767 ], [ 0.2839, 9.5751 ], [ 0.2761, 9.5731 ], [ 0.2735, 9.5711 ], [ 0.2697, 9.5685 ], [ 0.2649, 9.5677 ], [ 0.2609, 9.5699 ], [ 0.2579, 9.5723 ], [ 0.2533, 9.5745 ], [ 0.2479, 9.5759 ], [ 0.2439, 9.5763 ], [ 0.2403, 9.5745 ], [ 0.2387, 9.5711 ], [ 0.2395, 9.5673 ], [ 0.2391, 9.5635 ], [ 0.2383, 9.5607 ], [ 0.2373, 9.5571 ], [ 0.2365, 9.5533 ], [ 0.2349, 9.5499 ], [ 0.2349, 9.5469 ], [ 0.2355, 9.5429 ], [ 0.2357, 9.5395 ], [ 0.2369, 9.5347 ], [ 0.2397, 9.5283 ], [ 0.2429, 9.5245 ], [ 0.2471, 9.5215 ], [ 0.2505, 9.5203 ], [ 0.2533, 9.5191 ], [ 0.2567, 9.5189 ], [ 0.2597, 9.5195 ], [ 0.2639, 9.5201 ], [ 0.2683, 9.5207 ], [ 0.2719, 9.5215 ], [ 0.2755, 9.5223 ], [ 0.2799, 9.5239 ], [ 0.2839, 9.5249 ], [ 0.2877, 9.5241 ], [ 0.2905, 9.5235 ], [ 0.2959, 9.5211 ], [ 0.3003, 9.5183 ], [ 0.3065, 9.5149 ], [ 0.3093, 9.5119 ], [ 0.3105, 9.5083 ], [ 0.3105, 9.5049 ], [ 0.3063, 9.5007 ], [ 0.3025, 9.4989 ], [ 0.2989, 9.4971 ], [ 0.2953, 9.4943 ], [ 0.2917, 9.4931 ], [ 0.2897, 9.4903 ], [ 0.2831, 9.4885 ], [ 0.2769, 9.4885 ], [ 0.2731, 9.4849 ], [ 0.2721, 9.4819 ], [ 0.2701, 9.4797 ], [ 0.2653, 9.4789 ], [ 0.2617, 9.4783 ], [ 0.2577, 9.4781 ], [ 0.2547, 9.4783 ], [ 0.2479, 9.4811 ], [ 0.2445, 9.4833 ], [ 0.2389, 9.4861 ], [ 0.2351, 9.4881 ], [ 0.2305, 9.4875 ], [ 0.2277, 9.4841 ], [ 0.2271, 9.4809 ], [ 0.2269, 9.4777 ], [ 0.2275, 9.4747 ], [ 0.2279, 9.4715 ], [ 0.2281, 9.4687 ], [ 0.2291, 9.4633 ], [ 0.2313, 9.4601 ], [ 0.2341, 9.4569 ], [ 0.2375, 9.4533 ], [ 0.2397, 9.4513 ], [ 0.2425, 9.4491 ], [ 0.2447, 9.4461 ], [ 0.2475, 9.4417 ], [ 0.2481, 9.4377 ], [ 0.2519, 9.4363 ], [ 0.2553, 9.4349 ], [ 0.2593, 9.4335 ], [ 0.2605, 9.4297 ], [ 0.2665, 9.4299 ], [ 0.2697, 9.4299 ], [ 0.2727, 9.4285 ], [ 0.2767, 9.4287 ], [ 0.2811, 9.4297 ], [ 0.2857, 9.4309 ], [ 0.2893, 9.4333 ], [ 0.2921, 9.4349 ], [ 0.2951, 9.4357 ], [ 0.2985, 9.4367 ], [ 0.3015, 9.4385 ], [ 0.3049, 9.4399 ], [ 0.3087, 9.4435 ], [ 0.3119, 9.4453 ], [ 0.3163, 9.4459 ], [ 0.3201, 9.4463 ], [ 0.3235, 9.4481 ], [ 0.3279, 9.4483 ], [ 0.3319, 9.4499 ], [ 0.3347, 9.4517 ], [ 0.3375, 9.4529 ], [ 0.3391, 9.4557 ], [ 0.3411, 9.4593 ], [ 0.3425, 9.4625 ], [ 0.3433, 9.4657 ], [ 0.3451, 9.4703 ], [ 0.3467, 9.4745 ], [ 0.3477, 9.4797 ], [ 0.3455, 9.4839 ], [ 0.3445, 9.4871 ], [ 0.3477, 9.4893 ], [ 0.3509, 9.4921 ], [ 0.3543, 9.4941 ], [ 0.3567, 9.4961 ], [ 0.3593, 9.4983 ], [ 0.3631, 9.4987 ], [ 0.3669, 9.4969 ], [ 0.3715, 9.4953 ], [ 0.3767, 9.4937 ], [ 0.3815, 9.4925 ], [ 0.3857, 9.4927 ], [ 0.3899, 9.4921 ], [ 0.3945, 9.4925 ], [ 0.3987, 9.4935 ], [ 0.4023, 9.4949 ], [ 0.4065, 9.4943 ], [ 0.4097, 9.4971 ], [ 0.4129, 9.4995 ], [ 0.4165, 9.5017 ], [ 0.4201, 9.5003 ], [ 0.4237, 9.5001 ], [ 0.4265, 9.4995 ], [ 0.4307, 9.4989 ], [ 0.4353, 9.4991 ], [ 0.4397, 9.5005 ], [ 0.4441, 9.5011 ], [ 0.4471, 9.5011 ], [ 0.4527, 9.4987 ], [ 0.4577, 9.4971 ], [ 0.4609, 9.4939 ], [ 0.4635, 9.4913 ], [ 0.4675, 9.4905 ], [ 0.4719, 9.4897 ], [ 0.4761, 9.4887 ], [ 0.4809, 9.4863 ], [ 0.4859, 9.4861 ], [ 0.4897, 9.4863 ], [ 0.4919, 9.4837 ], [ 0.4951, 9.4809 ], [ 0.4983, 9.4783 ], [ 0.5021, 9.4741 ], [ 0.5029, 9.4695 ], [ 0.5053, 9.4661 ], [ 0.5041, 9.4617 ], [ 0.5035, 9.4583 ], [ 0.4999, 9.4565 ], [ 0.4975, 9.4539 ], [ 0.4963, 9.4495 ], [ 0.4969, 9.4453 ], [ 0.4995, 9.4431 ], [ 0.5007, 9.4393 ], [ 0.5045, 9.4391 ], [ 0.5083, 9.4371 ], [ 0.5127, 9.4379 ], [ 0.5169, 9.4393 ], [ 0.5215, 9.4385 ], [ 0.5235, 9.4345 ], [ 0.5253, 9.4313 ], [ 0.5293, 9.4307 ], [ 0.5331, 9.4293 ], [ 0.5363, 9.4285 ], [ 0.5387, 9.4261 ], [ 0.5419, 9.4249 ], [ 0.5451, 9.4241 ], [ 0.5483, 9.4229 ], [ 0.5517, 9.4237 ], [ 0.5551, 9.4219 ], [ 0.5563, 9.4181 ], [ 0.5561, 9.4147 ], [ 0.5573, 9.4117 ], [ 0.5601, 9.4097 ], [ 0.5647, 9.4071 ], [ 0.5631, 9.3545 ], [ 0.5555, 9.3479 ], [ 0.5531, 9.3445 ], [ 0.5541, 9.3409 ], [ 0.5561, 9.3371 ], [ 0.5563, 9.3339 ], [ 0.5579, 9.3307 ], [ 0.5599, 9.3275 ], [ 0.5631, 9.3245 ], [ 0.5637, 9.3173 ], [ 0.5603, 9.3095 ], [ 0.5599, 9.3057 ], [ 0.5539, 9.3055 ], [ 0.5405, 9.3065 ], [ 0.5375, 9.3019 ], [ 0.5407, 9.3013 ], [ 0.5343, 9.2949 ], [ 0.5159, 9.2729 ], [ 0.5085, 9.2581 ], [ 0.5081, 9.2547 ], [ 0.5163, 9.2367 ], [ 0.5181, 9.2319 ], [ 0.5205, 9.2279 ], [ 0.5223, 9.2257 ], [ 0.5247, 9.2241 ], [ 0.5265, 9.2215 ], [ 0.5391, 9.2135 ], [ 0.5329, 9.2065 ], [ 0.5265, 9.1979 ], [ 0.5241, 9.1951 ], [ 0.5223, 9.1915 ], [ 0.5219, 9.1883 ], [ 0.5205, 9.1843 ], [ 0.5187, 9.1809 ], [ 0.5167, 9.1787 ], [ 0.5153, 9.1749 ], [ 0.5145, 9.1713 ], [ 0.5137, 9.1681 ], [ 0.5121, 9.1651 ], [ 0.5087, 9.1627 ], [ 0.5049, 9.1601 ], [ 0.5041, 9.1571 ], [ 0.5019, 9.1543 ], [ 0.4979, 9.1553 ], [ 0.4937, 9.1549 ], [ 0.4905, 9.1531 ], [ 0.4871, 9.1509 ], [ 0.4839, 9.1491 ], [ 0.4809, 9.1469 ], [ 0.4781, 9.1441 ], [ 0.4809, 9.1409 ], [ 0.4811, 9.1367 ], [ 0.4821, 9.1325 ], [ 0.4827, 9.1291 ], [ 0.4839, 9.1261 ], [ 0.4853, 9.1225 ], [ 0.4839, 9.1187 ], [ 0.4853, 9.1145 ], [ 0.4869, 9.1103 ], [ 0.4855, 9.1065 ], [ 0.4855, 9.1035 ], [ 0.4839, 9.0999 ], [ 0.4797, 9.0993 ], [ 0.4595, 9.0725 ], [ 0.4643, 9.0721 ], [ 0.4627, 9.0553 ], [ 0.4563, 9.0551 ], [ 0.4555, 9.0357 ], [ 0.4631, 9.0335 ], [ 0.4631, 9.0305 ], [ 0.4643, 9.0265 ], [ 0.4655, 9.0231 ], [ 0.4689, 9.0211 ], [ 0.4705, 9.0173 ], [ 0.4703, 9.0119 ], [ 0.4699, 9.0085 ], [ 0.4781, 8.9901 ], [ 0.4943, 8.9573 ], [ 0.5005, 8.9541 ], [ 0.5035, 8.9525 ], [ 0.5067, 8.9501 ], [ 0.5093, 8.9459 ], [ 0.5095, 8.9427 ], [ 0.5119, 8.9393 ], [ 0.5141, 8.9353 ], [ 0.5133, 8.9307 ], [ 0.5135, 8.9271 ], [ 0.5123, 8.9233 ], [ 0.5101, 8.9207 ], [ 0.5097, 8.9175 ], [ 0.5115, 8.9149 ], [ 0.5129, 8.9119 ], [ 0.5127, 8.9089 ], [ 0.5127, 8.9053 ], [ 0.5141, 8.9013 ], [ 0.5171, 8.8969 ], [ 0.5193, 8.8935 ], [ 0.5215, 8.8893 ], [ 0.5233, 8.8845 ], [ 0.5263, 8.8809 ], [ 0.5269, 8.8767 ], [ 0.5243, 8.8751 ], [ 0.5207, 8.8723 ], [ 0.5193, 8.8675 ], [ 0.5181, 8.8631 ], [ 0.5205, 8.8607 ], [ 0.5211, 8.8563 ], [ 0.5187, 8.8531 ], [ 0.5143, 8.8545 ], [ 0.5101, 8.8555 ], [ 0.5075, 8.8521 ], [ 0.5073, 8.8483 ], [ 0.5035, 8.8471 ], [ 0.5005, 8.8445 ], [ 0.4981, 8.8415 ], [ 0.4963, 8.8387 ], [ 0.4971, 8.8353 ], [ 0.4985, 8.8327 ], [ 0.5009, 8.8297 ], [ 0.4977, 8.8277 ], [ 0.4963, 8.8233 ], [ 0.4959, 8.8201 ], [ 0.4983, 8.8175 ], [ 0.5001, 8.8147 ], [ 0.4983, 8.8117 ], [ 0.4955, 8.8077 ], [ 0.4929, 8.8043 ], [ 0.4911, 8.8009 ], [ 0.4871, 8.7993 ], [ 0.4839, 8.7989 ], [ 0.4799, 8.7983 ], [ 0.4765, 8.7989 ], [ 0.4721, 8.7989 ], [ 0.4709, 8.7947 ], [ 0.4683, 8.7929 ], [ 0.4659, 8.7963 ], [ 0.4647, 8.7993 ], [ 0.4627, 8.8013 ], [ 0.4593, 8.8029 ], [ 0.4591, 8.8063 ], [ 0.4589, 8.8099 ], [ 0.4559, 8.8111 ], [ 0.4511, 8.8111 ], [ 0.4469, 8.8101 ], [ 0.4451, 8.8057 ], [ 0.4431, 8.8021 ], [ 0.4401, 8.8003 ], [ 0.4365, 8.7997 ], [ 0.4331, 8.7993 ], [ 0.4307, 8.7973 ], [ 0.4313, 8.7923 ], [ 0.4367, 8.7941 ], [ 0.4395, 8.7929 ], [ 0.4409, 8.7889 ], [ 0.4387, 8.7847 ], [ 0.4349, 8.7851 ], [ 0.4321, 8.7837 ], [ 0.4295, 8.7811 ], [ 0.4259, 8.7803 ], [ 0.4237, 8.7827 ], [ 0.4241, 8.7885 ], [ 0.4215, 8.7909 ], [ 0.4183, 8.7915 ], [ 0.4139, 8.7933 ], [ 0.4099, 8.7935 ], [ 0.4063, 8.7937 ], [ 0.4021, 8.7927 ], [ 0.3985, 8.7905 ], [ 0.3961, 8.7941 ], [ 0.3929, 8.7955 ], [ 0.3901, 8.7919 ], [ 0.3853, 8.7913 ], [ 0.3823, 8.7953 ], [ 0.3801, 8.7915 ], [ 0.3801, 8.7857 ], [ 0.3813, 8.7809 ], [ 0.3813, 8.7765 ], [ 0.3791, 8.7733 ], [ 0.3807, 8.7693 ], [ 0.3841, 8.7659 ], [ 0.3869, 8.7637 ], [ 0.3897, 8.7617 ], [ 0.3939, 8.7619 ], [ 0.3975, 8.7601 ], [ 0.4009, 8.7581 ], [ 0.3983, 8.7545 ], [ 0.3945, 8.7539 ], [ 0.3907, 8.7541 ], [ 0.3861, 8.7541 ], [ 0.3809, 8.7535 ], [ 0.3757, 8.7541 ], [ 0.3783, 8.7511 ], [ 0.3815, 8.7481 ], [ 0.3845, 8.7457 ], [ 0.3843, 8.7425 ], [ 0.3823, 8.7397 ], [ 0.4167, 8.6877 ], [ 0.4411, 8.6483 ], [ 0.4695, 8.6003 ], [ 0.4767, 8.5953 ], [ 0.4799, 8.5953 ], [ 0.4835, 8.5979 ], [ 0.4877, 8.5977 ], [ 0.4931, 8.5961 ], [ 0.4959, 8.5927 ], [ 0.4969, 8.5875 ], [ 0.4979, 8.5841 ], [ 0.5007, 8.5815 ], [ 0.5015, 8.5783 ], [ 0.5017, 8.5749 ], [ 0.5069, 8.5739 ], [ 0.5099, 8.5717 ], [ 0.5119, 8.5683 ], [ 0.5149, 8.5655 ], [ 0.5197, 8.5659 ], [ 0.5239, 8.5663 ], [ 0.5267, 8.5677 ], [ 0.5299, 8.5697 ], [ 0.5345, 8.5669 ], [ 0.5343, 8.5637 ], [ 0.5373, 8.5603 ], [ 0.5409, 8.5573 ], [ 0.5451, 8.5551 ], [ 0.5479, 8.5535 ], [ 0.5511, 8.5537 ], [ 0.5547, 8.5525 ], [ 0.5591, 8.5501 ], [ 0.5623, 8.5473 ], [ 0.5645, 8.5449 ], [ 0.5651, 8.5413 ], [ 0.5663, 8.5379 ], [ 0.5705, 8.5335 ], [ 0.5709, 8.5299 ], [ 0.5721, 8.5267 ], [ 0.5747, 8.5283 ], [ 0.5789, 8.5289 ], [ 0.5833, 8.5287 ], [ 0.5853, 8.5261 ], [ 0.5873, 8.5235 ], [ 0.5889, 8.5199 ], [ 0.5913, 8.5167 ], [ 0.5943, 8.5169 ], [ 0.5977, 8.5175 ], [ 0.6019, 8.5181 ], [ 0.6049, 8.5161 ], [ 0.6093, 8.5141 ], [ 0.6139, 8.5125 ], [ 0.6181, 8.5131 ], [ 0.6217, 8.5119 ], [ 0.6249, 8.5105 ], [ 0.6287, 8.5083 ], [ 0.6277, 8.5045 ], [ 0.6273, 8.4999 ], [ 0.6299, 8.4973 ], [ 0.6375, 8.4971 ], [ 0.6405, 8.4975 ], [ 0.6433, 8.4957 ], [ 0.6455, 8.4933 ], [ 0.6471, 8.4905 ], [ 0.6459, 8.4867 ], [ 0.6457, 8.4819 ], [ 0.6453, 8.4761 ], [ 0.6481, 8.4729 ], [ 0.6489, 8.4685 ], [ 0.6509, 8.4627 ], [ 0.6521, 8.4595 ], [ 0.6549, 8.4569 ], [ 0.6553, 8.4527 ], [ 0.6525, 8.4523 ], [ 0.6525, 8.4467 ], [ 0.6537, 8.4435 ], [ 0.6523, 8.4403 ], [ 0.6529, 8.4371 ], [ 0.6517, 8.4343 ], [ 0.6529, 8.4273 ], [ 0.6523, 8.4215 ], [ 0.6555, 8.4203 ], [ 0.6629, 8.4195 ], [ 0.6673, 8.4181 ], [ 0.6717, 8.4161 ], [ 0.6749, 8.4131 ], [ 0.6813, 8.4109 ], [ 0.6855, 8.4111 ], [ 0.6871, 8.4077 ], [ 0.6889, 8.4053 ], [ 0.6921, 8.4039 ], [ 0.6953, 8.4035 ], [ 0.6945, 8.3993 ], [ 0.6933, 8.3955 ], [ 0.6965, 8.3943 ], [ 0.7005, 8.3943 ], [ 0.7049, 8.3935 ], [ 0.7021, 8.3913 ], [ 0.6997, 8.3891 ], [ 0.7041, 8.3869 ], [ 0.7085, 8.3847 ], [ 0.7091, 8.3817 ], [ 0.7099, 8.3787 ], [ 0.7107, 8.3759 ], [ 0.7095, 8.3715 ], [ 0.7101, 8.3681 ], [ 0.7105, 8.3641 ], [ 0.7105, 8.3593 ], [ 0.7115, 8.3559 ], [ 0.7103, 8.3525 ], [ 0.7133, 8.3507 ], [ 0.7169, 8.3507 ], [ 0.7193, 8.3481 ], [ 0.7179, 8.3447 ], [ 0.7223, 8.3447 ], [ 0.7273, 8.3435 ], [ 0.7289, 8.3409 ], [ 0.7273, 8.3379 ], [ 0.7285, 8.3343 ], [ 0.7291, 8.3303 ], [ 0.7293, 8.3273 ], [ 0.7291, 8.3231 ], [ 0.7295, 8.3201 ], [ 0.7297, 8.3167 ], [ 0.7305, 8.3133 ], [ 0.7297, 8.3091 ], [ 0.7303, 8.3041 ], [ 0.7305, 8.2989 ], [ 0.7309, 8.2945 ], [ 0.7303, 8.2901 ], [ 0.7289, 8.2867 ], [ 0.7263, 8.2821 ], [ 0.7233, 8.2815 ], [ 0.7189, 8.2807 ], [ 0.7141, 8.2807 ], [ 0.7037, 8.2809 ], [ 0.6887, 8.2819 ], [ 0.6829, 8.2797 ], [ 0.6823, 8.2757 ], [ 0.6833, 8.2709 ], [ 0.6819, 8.2663 ], [ 0.6777, 8.2621 ], [ 0.6735, 8.2591 ], [ 0.6667, 8.2607 ], [ 0.6613, 8.2609 ], [ 0.6577, 8.2597 ], [ 0.6545, 8.2599 ], [ 0.6477, 8.2595 ], [ 0.6421, 8.2603 ], [ 0.6389, 8.2607 ], [ 0.6367, 8.2549 ], [ 0.6385, 8.2513 ], [ 0.6381, 8.2463 ], [ 0.6339, 8.2443 ], [ 0.6315, 8.2417 ], [ 0.6277, 8.2383 ], [ 0.6251, 8.2343 ], [ 0.6265, 8.2311 ], [ 0.6251, 8.2279 ], [ 0.6255, 8.2249 ], [ 0.6199, 8.2207 ], [ 0.6189, 8.2155 ], [ 0.6157, 8.2157 ], [ 0.6131, 8.2143 ], [ 0.6107, 8.2163 ], [ 0.6087, 8.2141 ], [ 0.6039, 8.2139 ], [ 0.5999, 8.2125 ], [ 0.5953, 8.2103 ], [ 0.5903, 8.2071 ], [ 0.5897, 8.2019 ], [ 0.5897, 8.1981 ], [ 0.5907, 8.1947 ], [ 0.5925, 8.1925 ], [ 0.5965, 8.1901 ], [ 0.6009, 8.1859 ], [ 0.6033, 8.1815 ], [ 0.6069, 8.1811 ], [ 0.6133, 8.1843 ], [ 0.6139, 8.1801 ], [ 0.6133, 8.1767 ], [ 0.6111, 8.1743 ], [ 0.6077, 8.1725 ], [ 0.6095, 8.1673 ], [ 0.6107, 8.1621 ], [ 0.6113, 8.1541 ], [ 0.6093, 8.1467 ], [ 0.6077, 8.1439 ], [ 0.6069, 8.1389 ], [ 0.6013, 8.1395 ], [ 0.5933, 8.1391 ], [ 0.5915, 8.1363 ], [ 0.5943, 8.1275 ], [ 0.5917, 8.1163 ], [ 0.5923, 8.1069 ], [ 0.5919, 8.1033 ], [ 0.5883, 8.1027 ], [ 0.5857, 8.1011 ], [ 0.5851, 8.0933 ], [ 0.5883, 8.0845 ], [ 0.5899, 8.0801 ], [ 0.5905, 8.0749 ], [ 0.5919, 8.0703 ], [ 0.5913, 8.0671 ], [ 0.5931, 8.0617 ], [ 0.5975, 8.0615 ], [ 0.5987, 8.0573 ], [ 0.5989, 8.0537 ], [ 0.5967, 8.0497 ], [ 0.5975, 8.0455 ], [ 0.5969, 8.0425 ], [ 0.5947, 8.0389 ], [ 0.5987, 8.0307 ], [ 0.6005, 8.0261 ], [ 0.6061, 8.0269 ], [ 0.6097, 8.0271 ], [ 0.6111, 8.0245 ], [ 0.6135, 8.0205 ], [ 0.6161, 8.0173 ], [ 0.6201, 8.0161 ], [ 0.6223, 8.0125 ], [ 0.6207, 8.0079 ], [ 0.6167, 8.0065 ], [ 0.6131, 8.0047 ], [ 0.6141, 7.9985 ], [ 0.6155, 7.9937 ], [ 0.6165, 7.9891 ], [ 0.6167, 7.9841 ], [ 0.6157, 7.9801 ], [ 0.6165, 7.9757 ], [ 0.6175, 7.9711 ], [ 0.6177, 7.9659 ], [ 0.6205, 7.9647 ], [ 0.6233, 7.9617 ], [ 0.6237, 7.9569 ], [ 0.6223, 7.9543 ], [ 0.6227, 7.9507 ], [ 0.6231, 7.9455 ], [ 0.6225, 7.9399 ], [ 0.6213, 7.9367 ], [ 0.6239, 7.9339 ], [ 0.6269, 7.9311 ], [ 0.6263, 7.9277 ], [ 0.6277, 7.9239 ], [ 0.6305, 7.9201 ], [ 0.6281, 7.9179 ], [ 0.6317, 7.9139 ], [ 0.6289, 7.9099 ], [ 0.6261, 7.9015 ], [ 0.6207, 7.9009 ], [ 0.6239, 7.8839 ], [ 0.6221, 7.8781 ], [ 0.6233, 7.8715 ], [ 0.6275, 7.8683 ], [ 0.6271, 7.8597 ], [ 0.6263, 7.8505 ], [ 0.6241, 7.8423 ], [ 0.6209, 7.8419 ], [ 0.6209, 7.8367 ], [ 0.6197, 7.8317 ], [ 0.6197, 7.8239 ], [ 0.6183, 7.8161 ], [ 0.6175, 7.8067 ], [ 0.6179, 7.8031 ], [ 0.6205, 7.7989 ], [ 0.6177, 7.7963 ], [ 0.6227, 7.7943 ], [ 0.6281, 7.7935 ], [ 0.6275, 7.7895 ], [ 0.6295, 7.7853 ], [ 0.6301, 7.7813 ], [ 0.6307, 7.7777 ], [ 0.6305, 7.7743 ], [ 0.6309, 7.7707 ], [ 0.6305, 7.7675 ], [ 0.6267, 7.7649 ], [ 0.6199, 7.7637 ], [ 0.6187, 7.7577 ], [ 0.6141, 7.7567 ], [ 0.6115, 7.7541 ], [ 0.6149, 7.7479 ], [ 0.6167, 7.7437 ], [ 0.6165, 7.7389 ], [ 0.6177, 7.7359 ], [ 0.6193, 7.7311 ], [ 0.6201, 7.7263 ], [ 0.6217, 7.7233 ], [ 0.6223, 7.7197 ], [ 0.6235, 7.7153 ], [ 0.6247, 7.7115 ], [ 0.6277, 7.7091 ], [ 0.6291, 7.7057 ], [ 0.6255, 7.7043 ], [ 0.6205, 7.7035 ], [ 0.6177, 7.7043 ], [ 0.6155, 7.7067 ], [ 0.6127, 7.7081 ], [ 0.6103, 7.7103 ], [ 0.6067, 7.7099 ], [ 0.6029, 7.7101 ], [ 0.5991, 7.7087 ], [ 0.5955, 7.7069 ], [ 0.5925, 7.7041 ], [ 0.5897, 7.6931 ], [ 0.5893, 7.6885 ], [ 0.5877, 7.6779 ], [ 0.5865, 7.6709 ], [ 0.5859, 7.6673 ], [ 0.5843, 7.6639 ], [ 0.5839, 7.6595 ], [ 0.5831, 7.6559 ], [ 0.5835, 7.6519 ], [ 0.5837, 7.6471 ], [ 0.5847, 7.6403 ], [ 0.5849, 7.6355 ], [ 0.5857, 7.6301 ], [ 0.5863, 7.6251 ], [ 0.5835, 7.6227 ], [ 0.5679, 7.6159 ], [ 0.5609, 7.6129 ], [ 0.5565, 7.6099 ], [ 0.5539, 7.6079 ], [ 0.5459, 7.6077 ], [ 0.5419, 7.6069 ], [ 0.5361, 7.6033 ], [ 0.5335, 7.6003 ], [ 0.5305, 7.5973 ], [ 0.5265, 7.5953 ], [ 0.5221, 7.5939 ], [ 0.5193, 7.5929 ], [ 0.5207, 7.5903 ], [ 0.5237, 7.5901 ], [ 0.5279, 7.5883 ], [ 0.5291, 7.5831 ], [ 0.5285, 7.5765 ], [ 0.5277, 7.5703 ], [ 0.5263, 7.5587 ], [ 0.5249, 7.5477 ], [ 0.5215, 7.5201 ], [ 0.5191, 7.5131 ], [ 0.5209, 7.5103 ], [ 0.5217, 7.5059 ], [ 0.5237, 7.5015 ], [ 0.5243, 7.4975 ], [ 0.5239, 7.4931 ], [ 0.5273, 7.4913 ], [ 0.5267, 7.4877 ], [ 0.5291, 7.4863 ], [ 0.5265, 7.4835 ], [ 0.5281, 7.4797 ], [ 0.5251, 7.4757 ], [ 0.5219, 7.4735 ], [ 0.5205, 7.4699 ], [ 0.5229, 7.4681 ], [ 0.5235, 7.4637 ], [ 0.5195, 7.4613 ], [ 0.5219, 7.4587 ], [ 0.5217, 7.4555 ], [ 0.5247, 7.4571 ], [ 0.5283, 7.4581 ], [ 0.5323, 7.4549 ], [ 0.5331, 7.4507 ], [ 0.5327, 7.4475 ], [ 0.5327, 7.4439 ], [ 0.5347, 7.4399 ], [ 0.5367, 7.4365 ], [ 0.5373, 7.4335 ], [ 0.5375, 7.4297 ], [ 0.5369, 7.4265 ], [ 0.5403, 7.4223 ], [ 0.5439, 7.4193 ], [ 0.5461, 7.4147 ], [ 0.5493, 7.4119 ], [ 0.5509, 7.4087 ], [ 0.5527, 7.4063 ], [ 0.5557, 7.4037 ], [ 0.5597, 7.4011 ], [ 0.5635, 7.3989 ], [ 0.5675, 7.3987 ], [ 0.5709, 7.3969 ], [ 0.5731, 7.3947 ], [ 0.5841, 7.3971 ], [ 0.5987, 7.4003 ], [ 0.6021, 7.4079 ], [ 0.6053, 7.4061 ], [ 0.6079, 7.4077 ], [ 0.6103, 7.4103 ], [ 0.6161, 7.4113 ], [ 0.6197, 7.4133 ], [ 0.6253, 7.4113 ], [ 0.6287, 7.4047 ], [ 0.6313, 7.4031 ], [ 0.6341, 7.4037 ], [ 0.6417, 7.4013 ], [ 0.6447, 7.3979 ], [ 0.6453, 7.3867 ], [ 0.6473, 7.3807 ], [ 0.6457, 7.3769 ], [ 0.6433, 7.3751 ], [ 0.6449, 7.3699 ], [ 0.6453, 7.3655 ], [ 0.6477, 7.3595 ], [ 0.6493, 7.3543 ], [ 0.6507, 7.3457 ], [ 0.6537, 7.3317 ], [ 0.6559, 7.3241 ], [ 0.6589, 7.3167 ], [ 0.6579, 7.3109 ], [ 0.6565, 7.3067 ], [ 0.6539, 7.3013 ], [ 0.6523, 7.2983 ], [ 0.6503, 7.2913 ], [ 0.6467, 7.2909 ], [ 0.6457, 7.2875 ], [ 0.6431, 7.2787 ], [ 0.6431, 7.2733 ], [ 0.6435, 7.2695 ], [ 0.6443, 7.2631 ], [ 0.6441, 7.2573 ], [ 0.6427, 7.2527 ], [ 0.6405, 7.2491 ], [ 0.6403, 7.2437 ], [ 0.6387, 7.2373 ], [ 0.6393, 7.2329 ], [ 0.6391, 7.2261 ], [ 0.6345, 7.2205 ], [ 0.6327, 7.2015 ], [ 0.6313, 7.1965 ], [ 0.6263, 7.1861 ], [ 0.6249, 7.1829 ], [ 0.6219, 7.1843 ], [ 0.6177, 7.1831 ], [ 0.6159, 7.1771 ], [ 0.6181, 7.1685 ], [ 0.6169, 7.1623 ], [ 0.6125, 7.1573 ], [ 0.6075, 7.1583 ], [ 0.6049, 7.1557 ], [ 0.6053, 7.1523 ], [ 0.6057, 7.1493 ], [ 0.6059, 7.1455 ], [ 0.6055, 7.1421 ], [ 0.6039, 7.1377 ], [ 0.6007, 7.1361 ], [ 0.5969, 7.1331 ], [ 0.5951, 7.1239 ], [ 0.5939, 7.1179 ], [ 0.5931, 7.1137 ], [ 0.5975, 7.1145 ], [ 0.6009, 7.1127 ], [ 0.6023, 7.1091 ], [ 0.6069, 7.1071 ], [ 0.6115, 7.1055 ], [ 0.6137, 7.1009 ], [ 0.6121, 7.0981 ], [ 0.6143, 7.0957 ], [ 0.6143, 7.0925 ], [ 0.6129, 7.0899 ], [ 0.6121, 7.0869 ], [ 0.6111, 7.0841 ], [ 0.6095, 7.0815 ], [ 0.6081, 7.0789 ], [ 0.6065, 7.0757 ], [ 0.6043, 7.0725 ], [ 0.6023, 7.0685 ], [ 0.5995, 7.0645 ], [ 0.5975, 7.0607 ], [ 0.5981, 7.0555 ], [ 0.5995, 7.0497 ], [ 0.6011, 7.0415 ], [ 0.6023, 7.0339 ], [ 0.6011, 7.0311 ], [ 0.6013, 7.0277 ], [ 0.6025, 7.0237 ], [ 0.6013, 7.0189 ], [ 0.5995, 7.0157 ], [ 0.5971, 7.0129 ], [ 0.5947, 7.0097 ], [ 0.5961, 7.0063 ], [ 0.5945, 7.0031 ], [ 0.5895, 7.0023 ], [ 0.5861, 7.0021 ], [ 0.5833, 7.0005 ], [ 0.5799, 6.9979 ], [ 0.5749, 6.9979 ], [ 0.5709, 6.9997 ], [ 0.5659, 6.9983 ], [ 0.5591, 6.9957 ], [ 0.5545, 6.9949 ], [ 0.5495, 6.9937 ], [ 0.5461, 6.9921 ], [ 0.5425, 6.9897 ], [ 0.5393, 6.9869 ], [ 0.5371, 6.9843 ], [ 0.5359, 6.9805 ], [ 0.5345, 6.9777 ], [ 0.5305, 6.9757 ], [ 0.5273, 6.9737 ], [ 0.5225, 6.9719 ], [ 0.5237, 6.9665 ], [ 0.5255, 6.9635 ], [ 0.5239, 6.9611 ], [ 0.5249, 6.9583 ], [ 0.5261, 6.9551 ], [ 0.5241, 6.9499 ], [ 0.5231, 6.9473 ], [ 0.5251, 6.9411 ], [ 0.5319, 6.9405 ], [ 0.5355, 6.9395 ], [ 0.5385, 6.9385 ], [ 0.5441, 6.9365 ], [ 0.5479, 6.9371 ], [ 0.5497, 6.9333 ], [ 0.5521, 6.9305 ], [ 0.5595, 6.9285 ], [ 0.5659, 6.9215 ], [ 0.5635, 6.9161 ], [ 0.5625, 6.9133 ], [ 0.5623, 6.9053 ], [ 0.5599, 6.8977 ], [ 0.5587, 6.8907 ], [ 0.5563, 6.8863 ], [ 0.5513, 6.8827 ], [ 0.5473, 6.8809 ], [ 0.5421, 6.8795 ], [ 0.5377, 6.8789 ], [ 0.5345, 6.8765 ], [ 0.5369, 6.8733 ], [ 0.5429, 6.8649 ], [ 0.5411, 6.8623 ], [ 0.5351, 6.8591 ], [ 0.5319, 6.8557 ], [ 0.5319, 6.8487 ], [ 0.5319, 6.8439 ], [ 0.5335, 6.8341 ], [ 0.5329, 6.8311 ], [ 0.5325, 6.8281 ], [ 0.5357, 6.8267 ], [ 0.5389, 6.8249 ], [ 0.5409, 6.8269 ], [ 0.5437, 6.8273 ], [ 0.5457, 6.8299 ], [ 0.5473, 6.8341 ], [ 0.5501, 6.8321 ], [ 0.5531, 6.8305 ], [ 0.5563, 6.8289 ], [ 0.5585, 6.8265 ], [ 0.5617, 6.8247 ], [ 0.5653, 6.8239 ], [ 0.5671, 6.8197 ], [ 0.5683, 6.8137 ], [ 0.5695, 6.8105 ], [ 0.5733, 6.8093 ], [ 0.5769, 6.8083 ], [ 0.5795, 6.8065 ], [ 0.5773, 6.8031 ], [ 0.5761, 6.7995 ], [ 0.5733, 6.8001 ], [ 0.5689, 6.8011 ], [ 0.5693, 6.7969 ], [ 0.5691, 6.7921 ], [ 0.5671, 6.7883 ], [ 0.5677, 6.7839 ], [ 0.5705, 6.7805 ], [ 0.5743, 6.7775 ], [ 0.5765, 6.7743 ], [ 0.5733, 6.7743 ], [ 0.5741, 6.7715 ], [ 0.5761, 6.7687 ], [ 0.5779, 6.7653 ], [ 0.5799, 6.7633 ], [ 0.5825, 6.7617 ], [ 0.5855, 6.7615 ], [ 0.5907, 6.7601 ], [ 0.5951, 6.7585 ], [ 0.5979, 6.7565 ], [ 0.6013, 6.7559 ], [ 0.6047, 6.7515 ], [ 0.6091, 6.7485 ], [ 0.6127, 6.7507 ], [ 0.6151, 6.7523 ], [ 0.6187, 6.7539 ], [ 0.6227, 6.7505 ], [ 0.6245, 6.7483 ], [ 0.6293, 6.7487 ], [ 0.6331, 6.7483 ], [ 0.6369, 6.7455 ], [ 0.6437, 6.7429 ], [ 0.6477, 6.7405 ], [ 0.6495, 6.7383 ], [ 0.6487, 6.7345 ], [ 0.6457, 6.7313 ], [ 0.6453, 6.7275 ], [ 0.6443, 6.7227 ], [ 0.6447, 6.7181 ], [ 0.6471, 6.7159 ], [ 0.6489, 6.7125 ], [ 0.6475, 6.7097 ], [ 0.6479, 6.7053 ], [ 0.6471, 6.7015 ], [ 0.6447, 6.6983 ], [ 0.6441, 6.6929 ], [ 0.6441, 6.6887 ], [ 0.6459, 6.6851 ], [ 0.6437, 6.6829 ], [ 0.6435, 6.6783 ], [ 0.6431, 6.6725 ], [ 0.6441, 6.6681 ], [ 0.6435, 6.6653 ], [ 0.6423, 6.6609 ], [ 0.6411, 6.6575 ], [ 0.6393, 6.6533 ], [ 0.6393, 6.6501 ], [ 0.6373, 6.6457 ], [ 0.6357, 6.6409 ], [ 0.6385, 6.6385 ], [ 0.6371, 6.6357 ], [ 0.6377, 6.6301 ], [ 0.6405, 6.6313 ], [ 0.6435, 6.6311 ], [ 0.6463, 6.6273 ], [ 0.6483, 6.6251 ], [ 0.6495, 6.6215 ], [ 0.6521, 6.6185 ], [ 0.6523, 6.6147 ], [ 0.6547, 6.6111 ], [ 0.6595, 6.6075 ], [ 0.6637, 6.6055 ], [ 0.6675, 6.6065 ], [ 0.6699, 6.6081 ], [ 0.6707, 6.6113 ], [ 0.6729, 6.6137 ], [ 0.6763, 6.6109 ], [ 0.6821, 6.6065 ], [ 0.6857, 6.6029 ], [ 0.6889, 6.6005 ], [ 0.6897, 6.5975 ], [ 0.6917, 6.5917 ], [ 0.6979, 6.5885 ], [ 0.7117, 6.5851 ], [ 0.7237, 6.5899 ], [ 0.7317, 6.5897 ], [ 0.7425, 6.5891 ], [ 0.7473, 6.5775 ], [ 0.7487, 6.5731 ], [ 0.7493, 6.5689 ], [ 0.7489, 6.5631 ], [ 0.7463, 6.5595 ], [ 0.7413, 6.5549 ], [ 0.7283, 6.5433 ], [ 0.7191, 6.5349 ], [ 0.7175, 6.5275 ], [ 0.7179, 6.5227 ], [ 0.7187, 6.5121 ], [ 0.7203, 6.5065 ], [ 0.7217, 6.5021 ], [ 0.7235, 6.4993 ], [ 0.7259, 6.4953 ], [ 0.7283, 6.4915 ], [ 0.7323, 6.4849 ], [ 0.7465, 6.4839 ], [ 0.7449, 6.4585 ], [ 0.7489, 6.4471 ], [ 0.7543, 6.4457 ], [ 0.7605, 6.4431 ], [ 0.7731, 6.4381 ], [ 0.7821, 6.4345 ], [ 0.7875, 6.4135 ], [ 0.8025, 6.4089 ], [ 0.8155, 6.4065 ], [ 0.8261, 6.4041 ], [ 0.8399, 6.3965 ], [ 0.8559, 6.3837 ], [ 0.8619, 6.3793 ], [ 0.8647, 6.3743 ], [ 0.8723, 6.3687 ], [ 0.8745, 6.3669 ], [ 0.8757, 6.3635 ], [ 0.8789, 6.3591 ], [ 0.8827, 6.3561 ], [ 0.8849, 6.3531 ], [ 0.8873, 6.3491 ], [ 0.8881, 6.3433 ], [ 0.8907, 6.3391 ], [ 0.8923, 6.3363 ], [ 0.9073, 6.3359 ], [ 0.9223, 6.3359 ], [ 0.9361, 6.3359 ], [ 0.9519, 6.3357 ], [ 0.9641, 6.3351 ], [ 1.0041, 6.3349 ], [ 1.0057, 6.3323 ], [ 1.0069, 6.3273 ], [ 1.0079, 6.3225 ], [ 1.0069, 6.3143 ], [ 1.0053, 6.3111 ], [ 1.0067, 6.3045 ], [ 1.0069, 6.3003 ], [ 1.0079, 6.2955 ], [ 1.0109, 6.2911 ], [ 1.0141, 6.2893 ], [ 1.0159, 6.2865 ], [ 1.0159, 6.2829 ], [ 1.0167, 6.2797 ], [ 1.0167, 6.2765 ], [ 1.0175, 6.2717 ], [ 1.0193, 6.2671 ], [ 1.0205, 6.2645 ], [ 1.0219, 6.2621 ], [ 1.0229, 6.2593 ], [ 1.0245, 6.2563 ], [ 1.0267, 6.2539 ], [ 1.0295, 6.2503 ], [ 1.0321, 6.2463 ], [ 1.0337, 6.2429 ], [ 1.0359, 6.2409 ], [ 1.0373, 6.2383 ], [ 1.0407, 6.2365 ], [ 1.0443, 6.2353 ], [ 1.0475, 6.2339 ], [ 1.0511, 6.2337 ], [ 1.0543, 6.2333 ], [ 1.0573, 6.2301 ], [ 1.0605, 6.2261 ], [ 1.0631, 6.2237 ], [ 1.0651, 6.2209 ], [ 1.0665, 6.2177 ], [ 1.0667, 6.2147 ], [ 1.0679, 6.2109 ], [ 1.0699, 6.2077 ], [ 1.0737, 6.1991 ], [ 1.0751, 6.1953 ], [ 1.0729, 6.1933 ], [ 1.0753, 6.1905 ], [ 1.0771, 6.1879 ], [ 1.0803, 6.1841 ], [ 1.0787, 6.1799 ], [ 1.0755, 6.1771 ], [ 1.0765, 6.1731 ], [ 1.0797, 6.1711 ], [ 1.0845, 6.1693 ], [ 1.1275, 6.1679 ], [ 1.1643, 6.1685 ], [ 1.1823, 6.1677 ], [ 1.2003, 6.1677 ], [ 1.1987, 6.1523 ], [ 1.1997, 6.1373 ], [ 1.1997, 6.1301 ], [ 1.1995, 6.1127 ], [ 1.1845, 6.1045 ], [ 1.1563, 6.0917 ], [ 1.1261, 6.0773 ], [ 1.1051, 6.0637 ], [ 1.0819, 6.0465 ], [ 1.0637, 6.0265 ], [ 1.0417, 5.9975 ], [ 1.0315, 5.9827 ], [ 1.0289, 5.9795 ], [ 1.0271, 5.9747 ], [ 1.0245, 5.9707 ], [ 1.0229, 5.9681 ], [ 1.0191, 5.9633 ], [ 1.0169, 5.9601 ], [ 1.0109, 5.9505 ], [ 1.0081, 5.9463 ], [ 1.0049, 5.9419 ], [ 1.0023, 5.9381 ], [ 1.0009, 5.9355 ], [ 0.9987, 5.9315 ], [ 0.9971, 5.9285 ], [ 0.9951, 5.9243 ], [ 0.9937, 5.9201 ], [ 0.9927, 5.9169 ], [ 0.9919, 5.9133 ], [ 0.9909, 5.9091 ], [ 0.9903, 5.9053 ], [ 0.9937, 5.8935 ], [ 0.9939, 5.8895 ], [ 0.9939, 5.8847 ], [ 0.9935, 5.8779 ], [ 0.9927, 5.8739 ], [ 0.9921, 5.8707 ], [ 0.9911, 5.8671 ], [ 0.9903, 5.8635 ], [ 0.9891, 5.8603 ], [ 0.9883, 5.8575 ], [ 0.9871, 5.8537 ], [ 0.9853, 5.8497 ], [ 0.9815, 5.8415 ], [ 0.9795, 5.8385 ], [ 0.9763, 5.8337 ], [ 0.9735, 5.8297 ], [ 0.9709, 5.8265 ], [ 0.9679, 5.8231 ], [ 0.9635, 5.8183 ], [ 0.9597, 5.8147 ], [ 0.9561, 5.8109 ], [ 0.9525, 5.8071 ], [ 0.9491, 5.8033 ], [ 0.9471, 5.8015 ], [ 0.9437, 5.7983 ], [ 0.9415, 5.7963 ], [ 0.9385, 5.7941 ], [ 0.9361, 5.7925 ], [ 0.9331, 5.7909 ], [ 0.9295, 5.7891 ], [ 0.9255, 5.7873 ], [ 0.9217, 5.7859 ], [ 0.9181, 5.7851 ], [ 0.9137, 5.7845 ], [ 0.9087, 5.7835 ], [ 0.9041, 5.7827 ], [ 0.8999, 5.7823 ], [ 0.8967, 5.7819 ], [ 0.8927, 5.7815 ], [ 0.8895, 5.7813 ], [ 0.8861, 5.7809 ], [ 0.8815, 5.7807 ], [ 0.8781, 5.7801 ], [ 0.8735, 5.7797 ], [ 0.8669, 5.7787 ], [ 0.8623, 5.7783 ], [ 0.8585, 5.7777 ], [ 0.8547, 5.7773 ], [ 0.8509, 5.7767 ], [ 0.8463, 5.7763 ], [ 0.8415, 5.7759 ], [ 0.8375, 5.7755 ], [ 0.8333, 5.7751 ], [ 0.8275, 5.7747 ], [ 0.8165, 5.7697 ], [ 0.7877, 5.7709 ], [ 0.7687, 5.7691 ], [ 0.7435, 5.7725 ], [ 0.7357, 5.7729 ], [ 0.7279, 5.7701 ], [ 0.7221, 5.7705 ], [ 0.7183, 5.7697 ], [ 0.7141, 5.7693 ], [ 0.7155, 5.7719 ], [ 0.7111, 5.7733 ], [ 0.7063, 5.7705 ], [ 0.7017, 5.7701 ], [ 0.6965, 5.7703 ], [ 0.6929, 5.7695 ], [ 0.6935, 5.7665 ], [ 0.6893, 5.7689 ], [ 0.6843, 5.7711 ], [ 0.6797, 5.7717 ], [ 0.6779, 5.7693 ], [ 0.6747, 5.7687 ], [ 0.6701, 5.7685 ], [ 0.6663, 5.7689 ], [ 0.6613, 5.7691 ], [ 0.6563, 5.7697 ], [ 0.6509, 5.7703 ], [ 0.6459, 5.7713 ], [ 0.6419, 5.7723 ], [ 0.6373, 5.7727 ], [ 0.6333, 5.7731 ], [ 0.6265, 5.7741 ], [ 0.6235, 5.7741 ], [ 0.6197, 5.7747 ], [ 0.6059, 5.7763 ], [ 0.5991, 5.7767 ], [ 0.5951, 5.7773 ], [ 0.5887, 5.7775 ], [ 0.5857, 5.7781 ], [ 0.5797, 5.7787 ], [ 0.5757, 5.7791 ], [ 0.5715, 5.7795 ], [ 0.5647, 5.7801 ], [ 0.5597, 5.7807 ], [ 0.5545, 5.7811 ], [ 0.5513, 5.7811 ], [ 0.5413, 5.7817 ], [ 0.5363, 5.7821 ], [ 0.5289, 5.7827 ], [ 0.5255, 5.7829 ], [ 0.5209, 5.7839 ], [ 0.5163, 5.7847 ], [ 0.5127, 5.7847 ], [ 0.5077, 5.7855 ], [ 0.5039, 5.7857 ], [ 0.4999, 5.7857 ], [ 0.4949, 5.7863 ], [ 0.4893, 5.7865 ], [ 0.4825, 5.7869 ], [ 0.4795, 5.7871 ], [ 0.4751, 5.7875 ], [ 0.4717, 5.7879 ], [ 0.4677, 5.7879 ], [ 0.4629, 5.7885 ], [ 0.4585, 5.7897 ], [ 0.4503, 5.7889 ], [ 0.4431, 5.7891 ], [ 0.4375, 5.7887 ], [ 0.4347, 5.7891 ], [ 0.4267, 5.7889 ], [ 0.4205, 5.7887 ], [ 0.4145, 5.7883 ], [ 0.4105, 5.7883 ], [ 0.4037, 5.7881 ], [ 0.3909, 5.7875 ], [ 0.3813, 5.7869 ], [ 0.3783, 5.7869 ], [ 0.3717, 5.7865 ], [ 0.3645, 5.7861 ], [ 0.3595, 5.7857 ], [ 0.3547, 5.7855 ], [ 0.3507, 5.7849 ], [ 0.3465, 5.7847 ], [ 0.3433, 5.7843 ], [ 0.3403, 5.7839 ], [ 0.3363, 5.7837 ], [ 0.3325, 5.7835 ], [ 0.3285, 5.7829 ], [ 0.3211, 5.7821 ], [ 0.3153, 5.7811 ], [ 0.3079, 5.7795 ], [ 0.3045, 5.7785 ], [ 0.3011, 5.7779 ], [ 0.2961, 5.7769 ], [ 0.2917, 5.7759 ], [ 0.2887, 5.7749 ], [ 0.2853, 5.7749 ], [ 0.2813, 5.7741 ], [ 0.2753, 5.7727 ], [ 0.2723, 5.7719 ], [ 0.2695, 5.7709 ], [ 0.2659, 5.7699 ], [ 0.2625, 5.7685 ], [ 0.2579, 5.7677 ], [ 0.2521, 5.7659 ], [ 0.2497, 5.7645 ], [ 0.2465, 5.7617 ], [ 0.2433, 5.7587 ], [ 0.2399, 5.7565 ], [ 0.2369, 5.7547 ], [ 0.2341, 5.7535 ], [ 0.2301, 5.7517 ], [ 0.2267, 5.7499 ], [ 0.2223, 5.7481 ], [ 0.2187, 5.7465 ], [ 0.2155, 5.7461 ], [ 0.2115, 5.7459 ], [ 0.2067, 5.7451 ], [ 0.2023, 5.7447 ], [ 0.1985, 5.7445 ], [ 0.1939, 5.7443 ], [ 0.1903, 5.7441 ], [ 0.1855, 5.7435 ], [ 0.1823, 5.7403 ], [ 0.1793, 5.7397 ], [ 0.1765, 5.7391 ], [ 0.1727, 5.7373 ], [ 0.1691, 5.7351 ], [ 0.1651, 5.7329 ], [ 0.1609, 5.7309 ], [ 0.1549, 5.7285 ], [ 0.1507, 5.7275 ], [ 0.1469, 5.7261 ], [ 0.1437, 5.7247 ], [ 0.1405, 5.7233 ], [ 0.1375, 5.7215 ], [ 0.1343, 5.7181 ], [ 0.1321, 5.7155 ], [ 0.1307, 5.7117 ], [ 0.1287, 5.7093 ], [ 0.1259, 5.7077 ], [ 0.1225, 5.7063 ], [ 0.1193, 5.7057 ], [ 0.1163, 5.7051 ], [ 0.1129, 5.7039 ], [ 0.1077, 5.7021 ], [ 0.1043, 5.7013 ], [ 0.1009, 5.7011 ], [ 0.0971, 5.7001 ], [ 0.0921, 5.6991 ], [ 0.0855, 5.6981 ], [ 0.0811, 5.6973 ], [ 0.0779, 5.6965 ], [ 0.0739, 5.6955 ], [ 0.0679, 5.6949 ], [ 0.0641, 5.6889 ], [ 0.0613, 5.6857 ], [ 0.0589, 5.6841 ], [ 0.0567, 5.6819 ], [ 0.0533, 5.6799 ], [ 0.0497, 5.6779 ], [ 0.0459, 5.6755 ], [ 0.0437, 5.6707 ], [ 0.0433, 5.6663 ], [ 0.0433, 5.6633 ], [ 0.0377, 5.6597 ], [ 0.0341, 5.6579 ], [ 0.0319, 5.6559 ], [ 0.0299, 5.6533 ], [ 0.0281, 5.6509 ], [ 0.0271, 5.6459 ], [ 0.0239, 5.6443 ], [ 0.0211, 5.6437 ], [ 0.0173, 5.6423 ], [ 0.0107, 5.6317 ], [ 0.0053, 5.6255 ], [ 0.0001, 5.6247 ], [ -0.0031, 5.6233 ], [ -0.0066, 5.6221 ], [ -0.0134, 5.6197 ], [ -0.0156, 5.6173 ], [ -0.0202, 5.6159 ], [ -0.0255, 5.6141 ], [ -0.03, 5.6133 ], [ -0.0337, 5.6131 ], [ -0.0373, 5.6125 ], [ -0.0415, 5.6119 ], [ -0.0464, 5.6105 ], [ -0.0511, 5.6087 ], [ -0.0545, 5.6081 ], [ -0.0589, 5.6069 ], [ -0.0611, 5.6025 ], [ -0.0639, 5.5989 ], [ -0.0686, 5.5967 ], [ -0.0717, 5.5925 ], [ -0.0779, 5.5885 ], [ -0.0816, 5.5869 ], [ -0.0855, 5.5859 ], [ -0.089, 5.5851 ], [ -0.0934, 5.5849 ], [ -0.0972, 5.5803 ], [ -0.1005, 5.5771 ], [ -0.1032, 5.5747 ], [ -0.1072, 5.5727 ], [ -0.1115, 5.5713 ], [ -0.1151, 5.5701 ], [ -0.1187, 5.5681 ], [ -0.1229, 5.5663 ], [ -0.1275, 5.5647 ], [ -0.1326, 5.5637 ], [ -0.1365, 5.5627 ], [ -0.1396, 5.5617 ], [ -0.144, 5.5605 ], [ -0.1471, 5.5597 ], [ -0.1509, 5.5583 ], [ -0.1542, 5.5569 ], [ -0.1582, 5.5555 ], [ -0.1628, 5.5531 ], [ -0.1665, 5.5519 ], [ -0.1707, 5.5507 ], [ -0.1751, 5.5497 ], [ -0.1792, 5.5487 ], [ -0.1823, 5.5469 ], [ -0.1863, 5.5457 ], [ -0.1892, 5.5451 ], [ -0.1921, 5.5445 ], [ -0.197, 5.5449 ], [ -0.2019, 5.5423 ], [ -0.2056, 5.5403 ], [ -0.2085, 5.5373 ], [ -0.2089, 5.5335 ], [ -0.2123, 5.5325 ], [ -0.2156, 5.5317 ], [ -0.2206, 5.5305 ], [ -0.2259, 5.5291 ], [ -0.2299, 5.5279 ], [ -0.2329, 5.5269 ], [ -0.2363, 5.5261 ], [ -0.2401, 5.5255 ], [ -0.2434, 5.5249 ], [ -0.2464, 5.5243 ], [ -0.2505, 5.5237 ], [ -0.2541, 5.5229 ], [ -0.2582, 5.5219 ], [ -0.2636, 5.5207 ], [ -0.2667, 5.5201 ], [ -0.2713, 5.5193 ], [ -0.2816, 5.5167 ], [ -0.2917, 5.5149 ], [ -0.3069, 5.5113 ], [ -0.3232, 5.5069 ], [ -0.3374, 5.5035 ], [ -0.3445, 5.5021 ], [ -0.3525, 5.4979 ], [ -0.3584, 5.4977 ], [ -0.367, 5.4937 ], [ -0.3716, 5.4889 ], [ -0.38, 5.4859 ], [ -0.3894, 5.4787 ], [ -0.3991, 5.4749 ], [ -0.4059, 5.4697 ], [ -0.4074, 5.4647 ], [ -0.4097, 5.4619 ], [ -0.4142, 5.4571 ], [ -0.42, 5.4529 ], [ -0.4447, 5.4423 ], [ -0.4483, 5.4401 ], [ -0.4517, 5.4387 ], [ -0.4553, 5.4369 ], [ -0.4592, 5.4345 ], [ -0.4615, 5.4327 ], [ -0.4643, 5.4301 ], [ -0.4667, 5.4261 ], [ -0.4641, 5.4221 ], [ -0.4635, 5.4183 ], [ -0.4644, 5.4155 ], [ -0.4656, 5.4129 ], [ -0.4738, 5.4067 ], [ -0.4763, 5.4045 ], [ -0.4806, 5.4021 ], [ -0.4827, 5.3985 ], [ -0.4845, 5.3953 ], [ -0.4873, 5.3917 ], [ -0.4893, 5.3883 ], [ -0.4893, 5.3855 ], [ -0.4931, 5.3833 ], [ -0.4963, 5.3813 ], [ -0.4981, 5.3787 ], [ -0.5013, 5.3773 ], [ -0.5042, 5.3765 ], [ -0.5077, 5.3755 ], [ -0.5113, 5.3743 ], [ -0.5217, 5.3713 ], [ -0.5257, 5.3705 ], [ -0.5395, 5.3677 ], [ -0.5436, 5.3667 ], [ -0.5474, 5.3661 ], [ -0.5509, 5.3655 ], [ -0.5543, 5.3655 ], [ -0.5649, 5.3605 ], [ -0.5891, 5.3481 ], [ -0.5984, 5.3433 ], [ -0.6119, 5.3369 ], [ -0.6232, 5.3315 ], [ -0.6331, 5.3291 ], [ -0.6402, 5.3277 ], [ -0.643, 5.3271 ], [ -0.6463, 5.3263 ], [ -0.6505, 5.3253 ], [ -0.6538, 5.3245 ], [ -0.6656, 5.3219 ], [ -0.6689, 5.3209 ], [ -0.6737, 5.3193 ], [ -0.6781, 5.3173 ], [ -0.6823, 5.3155 ], [ -0.6852, 5.3139 ], [ -0.6884, 5.3131 ], [ -0.6919, 5.3121 ], [ -0.6962, 5.3109 ], [ -0.6999, 5.3087 ], [ -0.7039, 5.3075 ], [ -0.7088, 5.3055 ], [ -0.7136, 5.3041 ], [ -0.7167, 5.3031 ], [ -0.7196, 5.3019 ], [ -0.7234, 5.3003 ], [ -0.727, 5.2983 ], [ -0.7304, 5.2949 ], [ -0.7307, 5.2919 ], [ -0.7298, 5.2879 ], [ -0.728, 5.2851 ], [ -0.732, 5.2821 ], [ -0.7339, 5.2801 ], [ -0.7379, 5.2783 ], [ -0.743, 5.2765 ], [ -0.7462, 5.2753 ], [ -0.7488, 5.2731 ], [ -0.7519, 5.2681 ], [ -0.7549, 5.2657 ], [ -0.7566, 5.2629 ], [ -0.7561, 5.2587 ], [ -0.7584, 5.2563 ], [ -0.7604, 5.2539 ], [ -0.7665, 5.2511 ], [ -0.7705, 5.2495 ], [ -0.7747, 5.2477 ], [ -0.7775, 5.2465 ], [ -0.7792, 5.2437 ], [ -0.7808, 5.2397 ], [ -0.7842, 5.2359 ], [ -0.7894, 5.2325 ], [ -0.7907, 5.2277 ], [ -0.7947, 5.2247 ], [ -0.7993, 5.2229 ], [ -0.8035, 5.2209 ], [ -0.8055, 5.2189 ], [ -0.8071, 5.2163 ], [ -0.8101, 5.2153 ], [ -0.813, 5.2141 ], [ -0.8176, 5.2133 ], [ -0.8217, 5.2123 ], [ -0.8302, 5.2109 ], [ -0.8337, 5.2105 ], [ -0.838, 5.2099 ], [ -0.8427, 5.2095 ], [ -0.8479, 5.2091 ], [ -0.853, 5.2087 ], [ -0.8568, 5.2085 ], [ -0.8609, 5.2083 ], [ -0.8653, 5.2079 ], [ -0.8689, 5.2079 ], [ -0.8732, 5.2079 ], [ -0.8781, 5.2073 ], [ -0.8823, 5.2073 ], [ -0.8866, 5.2069 ], [ -0.8897, 5.2065 ], [ -0.8931, 5.2065 ], [ -0.8978, 5.2061 ], [ -0.9027, 5.2059 ], [ -0.9066, 5.2057 ], [ -0.9106, 5.2057 ], [ -0.9155, 5.2055 ], [ -0.9201, 5.2053 ], [ -0.9239, 5.2051 ], [ -0.9278, 5.2049 ], [ -0.9667, 5.2025 ], [ -0.9703, 5.2023 ], [ -0.9739, 5.2023 ], [ -0.9793, 5.2023 ], [ -0.9846, 5.2021 ], [ -1.0108, 5.2015 ], [ -1.0144, 5.2019 ], [ -1.0203, 5.2013 ], [ -1.0248, 5.2011 ], [ -1.0482, 5.1999 ], [ -1.0674, 5.1987 ], [ -1.0835, 5.1961 ], [ -1.0916, 5.1933 ], [ -1.0954, 5.1897 ], [ -1.0977, 5.1875 ], [ -1.1015, 5.1855 ], [ -1.1066, 5.1809 ], [ -1.1104, 5.1797 ], [ -1.1148, 5.1785 ], [ -1.1182, 5.1745 ], [ -1.1294, 5.1705 ], [ -1.1384, 5.1671 ], [ -1.1417, 5.1665 ], [ -1.1488, 5.1637 ], [ -1.1505, 5.1605 ], [ -1.1548, 5.1577 ], [ -1.1572, 5.1559 ], [ -1.1597, 5.1527 ], [ -1.162, 5.1491 ], [ -1.1661, 5.1455 ], [ -1.1691, 5.1441 ], [ -1.1776, 5.1413 ], [ -1.1816, 5.1407 ], [ -1.1865, 5.1395 ], [ -1.1903, 5.1389 ], [ -1.1944, 5.1375 ], [ -1.1967, 5.1355 ], [ -1.1998, 5.1343 ], [ -1.1978, 5.1315 ], [ -1.1986, 5.1275 ], [ -1.2047, 5.1205 ], [ -1.2077, 5.1193 ], [ -1.2121, 5.1197 ], [ -1.2172, 5.1161 ], [ -1.2246, 5.1131 ], [ -1.228, 5.1113 ], [ -1.2324, 5.1081 ], [ -1.2363, 5.1061 ], [ -1.2401, 5.1029 ], [ -1.2474, 5.1007 ], [ -1.2515, 5.1005 ], [ -1.2556, 5.0995 ], [ -1.2638, 5.0989 ], [ -1.2792, 5.0987 ], [ -1.2926, 5.0975 ], [ -1.3, 5.0987 ], [ -1.3048, 5.0983 ], [ -1.31, 5.0979 ], [ -1.3164, 5.0977 ], [ -1.3224, 5.0963 ], [ -1.3272, 5.0949 ], [ -1.333, 5.0937 ], [ -1.3373, 5.0927 ], [ -1.3413, 5.0917 ], [ -1.3456, 5.0897 ], [ -1.3482, 5.0875 ], [ -1.3472, 5.0837 ], [ -1.3501, 5.0813 ], [ -1.3542, 5.0803 ], [ -1.3596, 5.0791 ], [ -1.3657, 5.0781 ], [ -1.3703, 5.0773 ], [ -1.3737, 5.0761 ], [ -1.3775, 5.0745 ], [ -1.3836, 5.0743 ], [ -1.3875, 5.0735 ], [ -1.3908, 5.0721 ], [ -1.3942, 5.0705 ], [ -1.3991, 5.0697 ], [ -1.4036, 5.0695 ], [ -1.4074, 5.0691 ], [ -1.4103, 5.0685 ], [ -1.4151, 5.0685 ], [ -1.4182, 5.0683 ], [ -1.4231, 5.0673 ], [ -1.4261, 5.0659 ], [ -1.4289, 5.0653 ], [ -1.4329, 5.0647 ], [ -1.438, 5.0629 ], [ -1.4406, 5.0601 ], [ -1.4448, 5.0583 ], [ -1.4485, 5.0579 ], [ -1.4528, 5.0575 ], [ -1.4574, 5.0571 ], [ -1.4616, 5.0571 ], [ -1.4658, 5.0565 ], [ -1.4706, 5.0561 ], [ -1.4735, 5.0555 ], [ -1.4766, 5.0543 ], [ -1.48, 5.0529 ], [ -1.4845, 5.0519 ], [ -1.4878, 5.0493 ], [ -1.4908, 5.0485 ], [ -1.495, 5.0475 ], [ -1.5011, 5.0451 ], [ -1.5048, 5.0433 ], [ -1.5089, 5.0429 ], [ -1.5145, 5.0425 ], [ -1.5203, 5.0419 ], [ -1.5261, 5.0415 ], [ -1.5302, 5.0405 ], [ -1.5335, 5.0393 ], [ -1.5375, 5.0391 ], [ -1.5418, 5.0383 ], [ -1.5465, 5.0379 ], [ -1.5499, 5.0375 ], [ -1.5533, 5.0363 ], [ -1.5569, 5.0355 ], [ -1.5627, 5.0341 ], [ -1.5678, 5.0337 ], [ -1.5714, 5.0335 ], [ -1.5802, 5.0331 ], [ -1.5842, 5.0329 ], [ -1.5886, 5.0323 ], [ -1.5917, 5.0319 ], [ -1.5949, 5.0313 ], [ -1.5992, 5.0305 ], [ -1.6039, 5.0295 ], [ -1.6068, 5.0283 ], [ -1.6099, 5.0275 ], [ -1.6144, 5.0249 ], [ -1.6168, 5.0233 ], [ -1.6206, 5.0215 ], [ -1.623, 5.0189 ], [ -1.6256, 5.0157 ], [ -1.6273, 5.0127 ], [ -1.6286, 5.0081 ], [ -1.6303, 5.0047 ], [ -1.6322, 5.0015 ], [ -1.6335, 4.9987 ], [ -1.6331, 4.9957 ], [ -1.6317, 4.9919 ], [ -1.6342, 4.9877 ], [ -1.635, 4.9843 ], [ -1.6352, 4.9813 ], [ -1.6379, 4.9801 ], [ -1.6413, 4.9777 ], [ -1.644, 4.9721 ], [ -1.6476, 4.9703 ], [ -1.6514, 4.9695 ], [ -1.6547, 4.9691 ], [ -1.6592, 4.9681 ], [ -1.6638, 4.9671 ], [ -1.6679, 4.9665 ], [ -1.6715, 4.9657 ], [ -1.6751, 4.9655 ], [ -1.6807, 4.9647 ], [ -1.6856, 4.9635 ], [ -1.6898, 4.9621 ], [ -1.6935, 4.9597 ], [ -1.6988, 4.9575 ], [ -1.7022, 4.9555 ], [ -1.7046, 4.9531 ], [ -1.7053, 4.9497 ], [ -1.7041, 4.9469 ], [ -1.7074, 4.9453 ], [ -1.7083, 4.9401 ], [ -1.7072, 4.9337 ], [ -1.7112, 4.9329 ], [ -1.7154, 4.9317 ], [ -1.7198, 4.9301 ], [ -1.7238, 4.9287 ], [ -1.729, 4.9259 ], [ -1.7347, 4.9235 ], [ -1.7385, 4.9199 ], [ -1.7412, 4.9169 ], [ -1.7431, 4.9139 ], [ -1.7431, 4.9103 ], [ -1.7431, 4.9055 ], [ -1.7459, 4.9019 ], [ -1.7477, 4.8975 ], [ -1.7469, 4.8941 ], [ -1.7447, 4.8917 ], [ -1.7434, 4.8889 ], [ -1.7362, 4.8867 ], [ -1.7331, 4.8877 ], [ -1.7354, 4.8815 ], [ -1.74, 4.8811 ], [ -1.747, 4.8807 ], [ -1.7497, 4.8793 ], [ -1.7525, 4.8785 ], [ -1.7553, 4.8781 ], [ -1.7583, 4.8769 ], [ -1.7611, 4.8763 ], [ -1.7642, 4.8765 ], [ -1.7683, 4.8757 ], [ -1.775, 4.8757 ], [ -1.7793, 4.8755 ], [ -1.7826, 4.8751 ], [ -1.7857, 4.8747 ], [ -1.7888, 4.8733 ], [ -1.7915, 4.8723 ], [ -1.795, 4.8721 ], [ -1.7986, 4.8733 ], [ -1.8035, 4.8739 ], [ -1.8082, 4.8733 ], [ -1.8109, 4.8719 ], [ -1.8134, 4.8703 ], [ -1.8141, 4.8673 ], [ -1.8178, 4.8659 ], [ -1.8228, 4.8651 ], [ -1.8276, 4.8633 ], [ -1.8319, 4.8601 ], [ -1.8353, 4.8555 ], [ -1.8357, 4.8515 ], [ -1.8391, 4.8489 ], [ -1.8427, 4.8487 ], [ -1.8514, 4.8477 ], [ -1.8549, 4.8471 ], [ -1.8585, 4.8473 ], [ -1.8615, 4.8465 ], [ -1.8681, 4.8445 ], [ -1.8723, 4.8427 ], [ -1.8753, 4.8399 ], [ -1.879, 4.8379 ], [ -1.882, 4.8369 ], [ -1.8849, 4.8339 ], [ -1.8861, 4.8305 ], [ -1.8902, 4.8281 ], [ -1.8937, 4.8275 ], [ -1.8988, 4.8277 ], [ -1.9033, 4.8275 ], [ -1.9077, 4.8271 ], [ -1.9128, 4.8255 ], [ -1.9156, 4.8209 ], [ -1.915, 4.8181 ], [ -1.9176, 4.8141 ], [ -1.9222, 4.8133 ], [ -1.926, 4.8121 ], [ -1.9296, 4.8109 ], [ -1.9367, 4.8067 ], [ -1.9385, 4.8019 ], [ -1.939, 4.7979 ], [ -1.9414, 4.7951 ], [ -1.9453, 4.7931 ], [ -1.9488, 4.7919 ], [ -1.9471, 4.7891 ], [ -1.9502, 4.7867 ], [ -1.9542, 4.7839 ], [ -1.9577, 4.7809 ], [ -1.9605, 4.7781 ], [ -1.9643, 4.7745 ], [ -1.969, 4.7717 ], [ -1.9723, 4.7691 ], [ -1.9728, 4.7643 ], [ -1.9733, 4.7613 ], [ -1.9756, 4.7583 ], [ -1.9785, 4.7591 ], [ -1.9807, 4.7569 ], [ -1.9849, 4.7577 ], [ -1.9889, 4.7591 ], [ -1.9918, 4.7593 ], [ -1.9963, 4.7595 ], [ -2.0084, 4.7581 ], [ -2.0123, 4.7571 ], [ -2.016, 4.7573 ], [ -2.0194, 4.7575 ], [ -2.0235, 4.7575 ], [ -2.0277, 4.7571 ], [ -2.0311, 4.7563 ], [ -2.0347, 4.7555 ], [ -2.0389, 4.7543 ], [ -2.0417, 4.7537 ], [ -2.0445, 4.7531 ], [ -2.0464, 4.7501 ], [ -2.0501, 4.7469 ], [ -2.0536, 4.7441 ], [ -2.0551, 4.7407 ], [ -2.0581, 4.7435 ], [ -2.0613, 4.7445 ], [ -2.064, 4.7459 ], [ -2.0681, 4.7451 ], [ -2.0707, 4.7467 ], [ -2.0732, 4.7485 ], [ -2.0781, 4.7481 ], [ -2.0849, 4.7463 ], [ -2.0888, 4.7425 ], [ -2.092, 4.7411 ], [ -2.0915, 4.7449 ], [ -2.093, 4.7481 ], [ -2.1009, 4.7531 ], [ -2.1051, 4.7535 ], [ -2.1089, 4.7543 ], [ -2.1112, 4.7559 ], [ -2.1104, 4.7625 ], [ -2.113, 4.7643 ], [ -2.1119, 4.7669 ], [ -2.1092, 4.7691 ], [ -2.107, 4.7717 ], [ -2.1051, 4.7757 ], [ -2.1071, 4.7789 ], [ -2.1097, 4.7817 ], [ -2.1158, 4.7861 ], [ -2.1192, 4.7877 ], [ -2.1228, 4.7897 ], [ -2.1264, 4.7903 ], [ -2.1296, 4.7909 ], [ -2.1328, 4.7901 ], [ -2.1358, 4.7909 ], [ -2.1393, 4.7937 ], [ -2.1444, 4.7959 ], [ -2.148, 4.7971 ], [ -2.1514, 4.7975 ], [ -2.1554, 4.7979 ], [ -2.1606, 4.7977 ], [ -2.1648, 4.7971 ], [ -2.1684, 4.7967 ], [ -2.1701, 4.8013 ], [ -2.1712, 4.8043 ], [ -2.1696, 4.8071 ], [ -2.1737, 4.8109 ], [ -2.1805, 4.8169 ], [ -2.1845, 4.8171 ], [ -2.1989, 4.8205 ], [ -2.2035, 4.8221 ], [ -2.2031, 4.8263 ], [ -2.2041, 4.8317 ], [ -2.2068, 4.8333 ], [ -2.2081, 4.8363 ], [ -2.2109, 4.8387 ], [ -2.2138, 4.8403 ], [ -2.2215, 4.8437 ], [ -2.226, 4.8463 ], [ -2.2301, 4.8485 ], [ -2.236, 4.8497 ], [ -2.241, 4.8521 ], [ -2.2436, 4.8543 ], [ -2.2475, 4.8553 ], [ -2.2464, 4.8587 ], [ -2.2431, 4.8593 ], [ -2.2428, 4.8629 ], [ -2.2459, 4.8701 ], [ -2.2468, 4.8743 ], [ -2.247, 4.8773 ], [ -2.2477, 4.8803 ], [ -2.2504, 4.8843 ], [ -2.2541, 4.8863 ], [ -2.2576, 4.8883 ], [ -2.2604, 4.8893 ], [ -2.2694, 4.8923 ], [ -2.2679, 4.8957 ], [ -2.2694, 4.8995 ], [ -2.2729, 4.8999 ], [ -2.2764, 4.9017 ], [ -2.2794, 4.9033 ], [ -2.2822, 4.9047 ], [ -2.2848, 4.9059 ], [ -2.2882, 4.9075 ], [ -2.2923, 4.9089 ], [ -2.2963, 4.9107 ], [ -2.3018, 4.9127 ], [ -2.3062, 4.9145 ], [ -2.3125, 4.9171 ], [ -2.3182, 4.9195 ], [ -2.3223, 4.9211 ], [ -2.3278, 4.9233 ], [ -2.3327, 4.9249 ], [ -2.3383, 4.9271 ], [ -2.3435, 4.9291 ], [ -2.348, 4.9305 ], [ -2.3534, 4.9323 ], [ -2.3579, 4.9337 ], [ -2.3635, 4.9355 ], [ -2.3684, 4.9371 ], [ -2.3728, 4.9385 ], [ -2.3764, 4.9397 ], [ -2.3802, 4.9409 ], [ -2.3828, 4.9423 ], [ -2.3856, 4.9433 ], [ -2.3886, 4.9433 ], [ -2.3922, 4.9439 ], [ -2.3963, 4.9449 ], [ -2.401, 4.9459 ], [ -2.4056, 4.9469 ], [ -2.4102, 4.9483 ], [ -2.4132, 4.9491 ], [ -2.4171, 4.9501 ], [ -2.4218, 4.9511 ], [ -2.4254, 4.9521 ], [ -2.4295, 4.9531 ], [ -2.434, 4.9539 ], [ -2.4385, 4.9553 ], [ -2.443, 4.9563 ], [ -2.4458, 4.9571 ], [ -2.4488, 4.9575 ], [ -2.4518, 4.9583 ], [ -2.4555, 4.9591 ], [ -2.4583, 4.9597 ], [ -2.4611, 4.9603 ], [ -2.4651, 4.9611 ], [ -2.4692, 4.9619 ], [ -2.4724, 4.9625 ], [ -2.4763, 4.9635 ], [ -2.4807, 4.9643 ], [ -2.4854, 4.9653 ], [ -2.4901, 4.9663 ], [ -2.4946, 4.9673 ], [ -2.4984, 4.9679 ], [ -2.5122, 4.9709 ], [ -2.5229, 4.9739 ], [ -2.5353, 4.9773 ], [ -2.5454, 4.9801 ], [ -2.5537, 4.9823 ], [ -2.5558, 4.9857 ], [ -2.5599, 4.9871 ], [ -2.5618, 4.9849 ], [ -2.5642, 4.9759 ], [ -2.6034, 4.9783 ], [ -2.635, 4.9823 ], [ -2.6552, 4.9911 ], [ -2.6712, 4.9993 ], [ -2.7, 5.0043 ], [ -2.7382, 5.0083 ], [ -2.7715, 5.0191 ], [ -2.8022, 5.0251 ], [ -2.8308, 5.0311 ], [ -2.8689, 5.0381 ], [ -2.9093, 5.0485 ], [ -2.9406, 5.0537 ], [ -2.965, 5.0587 ], [ -2.9964, 5.0659 ], [ -3.013, 5.0693 ], [ -3.0348, 5.0759 ], [ -3.0416, 5.0779 ], [ -3.0454, 5.0785 ], [ -3.0499, 5.0795 ], [ -3.0536, 5.0803 ], [ -3.0597, 5.0817 ], [ -3.0651, 5.0825 ], [ -3.0718, 5.0839 ], [ -3.0757, 5.0847 ], [ -3.0793, 5.0855 ], [ -3.0827, 5.0859 ], [ -3.087, 5.0869 ], [ -3.0907, 5.0875 ], [ -3.0946, 5.0883 ], [ -3.0974, 5.0889 ], [ -3.1005, 5.0895 ], [ -3.1086, 5.0903 ], [ -3.1085, 5.0939 ], [ -3.1086, 5.1153 ], [ -3.1056, 5.1139 ], [ -3.1003, 5.1125 ], [ -3.0964, 5.1133 ], [ -3.0933, 5.1149 ], [ -3.0896, 5.1129 ], [ -3.0843, 5.1123 ], [ -3.0764, 5.1129 ], [ -3.0718, 5.1137 ], [ -3.072, 5.1171 ], [ -3.0712, 5.1199 ], [ -3.0681, 5.1215 ], [ -3.0628, 5.1219 ], [ -3.06, 5.1201 ], [ -3.0571, 5.1187 ], [ -3.0541, 5.1173 ], [ -3.0506, 5.1167 ], [ -3.0489, 5.1199 ], [ -3.0454, 5.1189 ], [ -3.042, 5.1167 ], [ -3.038, 5.1167 ], [ -3.0349, 5.1181 ], [ -3.0288, 5.1171 ], [ -3.0243, 5.1187 ], [ -3.021, 5.1189 ], [ -3.019, 5.1161 ], [ -3.0155, 5.1149 ], [ -3.0118, 5.1129 ], [ -3.0083, 5.1125 ], [ -3.0034, 5.1117 ], [ -2.9998, 5.1081 ], [ -2.9967, 5.1047 ], [ -2.9921, 5.1001 ], [ -2.9885, 5.0963 ], [ -2.9854, 5.0937 ], [ -2.9816, 5.0907 ], [ -2.9785, 5.0887 ], [ -2.9754, 5.0873 ], [ -2.9714, 5.0871 ], [ -2.9685, 5.0873 ], [ -2.9633, 5.0875 ], [ -2.9594, 5.0863 ], [ -2.9566, 5.0857 ], [ -2.9538, 5.0847 ], [ -2.95, 5.0847 ], [ -2.9462, 5.0879 ], [ -2.943, 5.0919 ], [ -2.941, 5.0941 ], [ -2.9374, 5.0947 ], [ -2.9315, 5.0959 ], [ -2.9309, 5.1003 ], [ -2.9336, 5.1037 ], [ -2.9338, 5.1071 ], [ -2.9365, 5.1103 ], [ -2.9411, 5.1121 ], [ -2.9422, 5.1163 ], [ -2.9403, 5.1213 ], [ -2.9403, 5.1243 ], [ -2.9363, 5.1253 ], [ -2.9336, 5.1223 ], [ -2.93, 5.1221 ], [ -2.9265, 5.1211 ], [ -2.9225, 5.1221 ], [ -2.9185, 5.1221 ], [ -2.9145, 5.1217 ], [ -2.9092, 5.1215 ], [ -2.9052, 5.1231 ], [ -2.9012, 5.1215 ], [ -2.898, 5.1229 ], [ -2.8952, 5.1223 ], [ -2.8922, 5.1201 ], [ -2.8911, 5.1233 ], [ -2.8905, 5.1265 ], [ -2.8859, 5.1247 ], [ -2.8822, 5.1261 ], [ -2.879, 5.1277 ], [ -2.8756, 5.1277 ], [ -2.8727, 5.1251 ], [ -2.8698, 5.1235 ], [ -2.8672, 5.1225 ], [ -2.8642, 5.1231 ], [ -2.8613, 5.1215 ], [ -2.8594, 5.1185 ], [ -2.8578, 5.1161 ], [ -2.8548, 5.1155 ], [ -2.853, 5.1117 ], [ -2.8502, 5.1095 ], [ -2.8465, 5.1081 ], [ -2.8424, 5.1077 ], [ -2.8385, 5.1105 ], [ -2.8402, 5.1137 ], [ -2.8365, 5.1159 ], [ -2.8342, 5.1207 ], [ -2.8304, 5.1211 ], [ -2.8275, 5.1201 ], [ -2.8257, 5.1177 ], [ -2.824, 5.1151 ], [ -2.8223, 5.1105 ], [ -2.8195, 5.1099 ], [ -2.818, 5.1067 ], [ -2.8151, 5.1069 ], [ -2.8162, 5.1115 ], [ -2.8133, 5.1133 ], [ -2.8115, 5.1103 ], [ -2.8122, 5.1073 ], [ -2.8094, 5.1063 ], [ -2.8068, 5.1077 ], [ -2.8064, 5.1109 ], [ -2.8024, 5.1087 ], [ -2.7977, 5.1075 ], [ -2.7941, 5.1073 ], [ -2.7902, 5.1083 ], [ -2.787, 5.1115 ], [ -2.7878, 5.1147 ], [ -2.7859, 5.1171 ], [ -2.7846, 5.1143 ], [ -2.7869, 5.1117 ], [ -2.7869, 5.1114 ], [ -2.7868, 5.1114 ], [ -2.7837, 5.1095 ], [ -2.7798, 5.1117 ], [ -2.7759, 5.1109 ], [ -2.7728, 5.1115 ], [ -2.769, 5.1091 ], [ -2.7658, 5.1087 ], [ -2.7652, 5.1049 ], [ -2.7613, 5.1035 ], [ -2.7583, 5.1007 ], [ -2.7567, 5.1035 ], [ -2.7548, 5.1085 ], [ -2.7559, 5.1113 ], [ -2.7537, 5.1153 ], [ -2.749, 5.1155 ], [ -2.7461, 5.1163 ], [ -2.7426, 5.1139 ], [ -2.7391, 5.1167 ], [ -2.7384, 5.1197 ], [ -2.74, 5.1225 ], [ -2.7391, 5.1259 ], [ -2.7358, 5.1293 ], [ -2.7323, 5.1299 ], [ -2.7329, 5.1333 ], [ -2.7292, 5.1339 ], [ -2.726, 5.1375 ], [ -2.7256, 5.1407 ], [ -2.7273, 5.1457 ], [ -2.7297, 5.1479 ], [ -2.7314, 5.1513 ], [ -2.7336, 5.1491 ], [ -2.7379, 5.1503 ], [ -2.7395, 5.1539 ], [ -2.7415, 5.1567 ], [ -2.7386, 5.1597 ], [ -2.742, 5.1625 ], [ -2.7446, 5.1677 ], [ -2.7421, 5.1729 ], [ -2.7414, 5.1759 ], [ -2.7422, 5.1787 ], [ -2.7433, 5.1823 ], [ -2.7458, 5.1853 ], [ -2.7465, 5.1887 ], [ -2.7481, 5.1921 ], [ -2.7495, 5.1953 ], [ -2.7487, 5.1995 ], [ -2.7481, 5.2023 ], [ -2.7519, 5.2021 ], [ -2.7569, 5.2011 ], [ -2.7594, 5.2061 ], [ -2.7602, 5.2107 ], [ -2.7635, 5.2139 ], [ -2.764, 5.2173 ], [ -2.7602, 5.2179 ], [ -2.7573, 5.2189 ], [ -2.7589, 5.2215 ], [ -2.7578, 5.2249 ], [ -2.76, 5.2291 ], [ -2.7596, 5.2319 ], [ -2.7563, 5.2315 ], [ -2.7589, 5.2351 ], [ -2.7639, 5.2353 ], [ -2.7653, 5.2379 ], [ -2.7642, 5.2407 ], [ -2.7611, 5.2453 ], [ -2.758, 5.2421 ], [ -2.7548, 5.2423 ], [ -2.7544, 5.2469 ], [ -2.7546, 5.2533 ], [ -2.7582, 5.2559 ], [ -2.7625, 5.2555 ], [ -2.7649, 5.2587 ], [ -2.771, 5.2581 ], [ -2.7744, 5.2611 ], [ -2.7757, 5.2639 ], [ -2.7787, 5.2639 ], [ -2.7766, 5.2671 ], [ -2.7734, 5.2679 ], [ -2.7744, 5.2709 ], [ -2.7755, 5.2741 ], [ -2.7802, 5.2763 ], [ -2.7839, 5.2815 ], [ -2.7848, 5.2851 ], [ -2.7849, 5.2891 ], [ -2.7835, 5.2931 ], [ -2.7792, 5.2945 ], [ -2.775, 5.2937 ], [ -2.7722, 5.2931 ], [ -2.7694, 5.2957 ], [ -2.7692, 5.2987 ], [ -2.7678, 5.3019 ], [ -2.7666, 5.3055 ], [ -2.7675, 5.3083 ], [ -2.7666, 5.3121 ], [ -2.7661, 5.3165 ], [ -2.7677, 5.3189 ], [ -2.7696, 5.3213 ], [ -2.7711, 5.3245 ], [ -2.7719, 5.3283 ], [ -2.7764, 5.3309 ], [ -2.7759, 5.3341 ], [ -2.7737, 5.3359 ], [ -2.7708, 5.3361 ], [ -2.7723, 5.3389 ], [ -2.7755, 5.3421 ], [ -2.7764, 5.3465 ], [ -2.773, 5.3497 ], [ -2.7699, 5.3523 ], [ -2.7686, 5.3561 ], [ -2.7647, 5.3561 ], [ -2.7624, 5.3529 ], [ -2.7592, 5.3491 ], [ -2.757, 5.3455 ], [ -2.7537, 5.3445 ], [ -2.7491, 5.3453 ], [ -2.7462, 5.3451 ], [ -2.7419, 5.3455 ], [ -2.738, 5.3467 ], [ -2.7354, 5.3439 ], [ -2.7325, 5.3423 ], [ -2.729, 5.3413 ], [ -2.7246, 5.3425 ], [ -2.7199, 5.3465 ], [ -2.7242, 5.3575 ], [ -2.7245, 5.3781 ], [ -2.7242, 5.3879 ], [ -2.7323, 5.4041 ], [ -2.739, 5.4183 ], [ -2.7456, 5.4321 ], [ -2.7478, 5.4379 ], [ -2.7515, 5.4563 ], [ -2.753, 5.4689 ], [ -2.7548, 5.4771 ], [ -2.7578, 5.4959 ], [ -2.761, 5.5135 ], [ -2.7625, 5.5249 ], [ -2.7664, 5.5457 ], [ -2.7683, 5.5545 ], [ -2.7656, 5.5711 ], [ -2.7639, 5.5813 ], [ -2.7622, 5.5939 ], [ -2.7631, 5.6001 ], [ -2.7661, 5.6025 ], [ -2.7699, 5.6023 ], [ -2.7721, 5.6043 ], [ -2.7754, 5.6037 ], [ -2.7783, 5.6067 ], [ -2.7769, 5.6097 ], [ -2.7758, 5.6143 ], [ -2.7802, 5.6145 ], [ -2.7844, 5.6149 ], [ -2.7846, 5.6191 ], [ -2.7874, 5.6205 ], [ -2.7865, 5.6235 ], [ -2.7895, 5.6251 ], [ -2.7931, 5.6269 ], [ -2.7932, 5.6237 ], [ -2.7971, 5.6227 ], [ -2.8021, 5.6207 ], [ -2.804, 5.6175 ], [ -2.8061, 5.6195 ], [ -2.8088, 5.6253 ], [ -2.8131, 5.6281 ], [ -2.8155, 5.6263 ], [ -2.8187, 5.6269 ], [ -2.8221, 5.6267 ], [ -2.8232, 5.6295 ], [ -2.8261, 5.6305 ], [ -2.8289, 5.6335 ], [ -2.8319, 5.6347 ], [ -2.8354, 5.6367 ], [ -2.8364, 5.6395 ], [ -2.8393, 5.6395 ], [ -2.8415, 5.6415 ], [ -2.8438, 5.6433 ], [ -2.8467, 5.6443 ], [ -2.8499, 5.6483 ], [ -2.8554, 5.6489 ], [ -2.8566, 5.6541 ], [ -2.8587, 5.6563 ], [ -2.8613, 5.6527 ], [ -2.8651, 5.6509 ], [ -2.8677, 5.6471 ], [ -2.8719, 5.6447 ], [ -2.8758, 5.6431 ], [ -2.8785, 5.6395 ], [ -2.883, 5.6395 ], [ -2.8839, 5.6361 ], [ -2.8867, 5.6353 ], [ -2.8907, 5.6341 ], [ -2.8938, 5.6325 ], [ -2.8967, 5.6311 ], [ -2.8999, 5.6293 ], [ -2.904, 5.6305 ], [ -2.9081, 5.6293 ], [ -2.9132, 5.6291 ], [ -2.9166, 5.6281 ], [ -2.9207, 5.6281 ], [ -2.9224, 5.6257 ], [ -2.9244, 5.6213 ], [ -2.9278, 5.6201 ], [ -2.9306, 5.6195 ], [ -2.9345, 5.6199 ], [ -2.9362, 5.6235 ], [ -2.9405, 5.6285 ], [ -2.9441, 5.6339 ], [ -2.9475, 5.6367 ], [ -2.9508, 5.6359 ], [ -2.9555, 5.6369 ], [ -2.9596, 5.6367 ], [ -2.9629, 5.6397 ], [ -2.9667, 5.6407 ], [ -2.961, 5.6697 ], [ -2.9533, 5.6739 ], [ -2.9528, 5.7021 ], [ -2.9527, 5.7161 ], [ -2.9685, 5.7141 ], [ -2.9798, 5.7129 ], [ -2.9928, 5.7117 ], [ -3.0119, 5.7103 ], [ -3.0261, 5.7097 ], [ -3.0258, 5.7353 ], [ -3.0252, 5.7535 ], [ -3.0241, 5.7737 ], [ -3.0232, 5.7961 ], [ -3.0214, 5.8285 ], [ -3.0205, 5.8571 ], [ -3.0266, 5.8719 ], [ -3.0358, 5.8937 ], [ -3.0441, 5.9135 ], [ -3.0581, 5.9465 ], [ -3.0682, 5.9719 ], [ -3.0728, 5.9825 ], [ -3.074, 5.9853 ], [ -3.0794, 6.0187 ], [ -3.0833, 6.0395 ], [ -3.0886, 6.0697 ], [ -3.0913, 6.0875 ], [ -3.0937, 6.1037 ], [ -3.0956, 6.1165 ], [ -3.0985, 6.1313 ], [ -3.1012, 6.1457 ], [ -3.1023, 6.1519 ], [ -3.1077, 6.1651 ], [ -3.1153, 6.1785 ], [ -3.1212, 6.1909 ], [ -3.13, 6.2081 ], [ -3.1353, 6.2163 ], [ -3.1413, 6.2271 ], [ -3.1472, 6.2393 ], [ -3.1548, 6.2523 ], [ -3.174, 6.2535 ], [ -3.1737, 6.2591 ], [ -3.1717, 6.2641 ], [ -3.1715, 6.2709 ], [ -3.1714, 6.2739 ], [ -3.1715, 6.2771 ], [ -3.1711, 6.2819 ], [ -3.1709, 6.2859 ], [ -3.1708, 6.2903 ], [ -3.1708, 6.2947 ], [ -3.1718, 6.2977 ], [ -3.1726, 6.3007 ], [ -3.1734, 6.3045 ], [ -3.1745, 6.3093 ], [ -3.177, 6.3129 ], [ -3.1809, 6.3159 ], [ -3.1858, 6.3261 ], [ -3.1865, 6.3427 ], [ -3.1902, 6.3487 ], [ -3.1935, 6.3605 ], [ -3.1989, 6.3827 ], [ -3.209, 6.4247 ], [ -3.2183, 6.4629 ], [ -3.2293, 6.5085 ], [ -3.2365, 6.5387 ], [ -3.2363, 6.5479 ], [ -3.234, 6.5965 ], [ -3.2443, 6.6015 ], [ -3.2549, 6.6101 ], [ -3.2555, 6.6157 ], [ -3.2589, 6.6171 ], [ -3.2621, 6.6177 ], [ -3.2604, 6.6241 ], [ -3.2597, 6.6277 ], [ -3.2589, 6.6311 ], [ -3.2571, 6.6337 ], [ -3.2563, 6.6391 ], [ -3.2567, 6.6429 ], [ -3.2548, 6.6451 ], [ -3.2517, 6.6505 ], [ -3.25, 6.6547 ], [ -3.2477, 6.6589 ], [ -3.2456, 6.6621 ], [ -3.2423, 6.6661 ], [ -3.2354, 6.6687 ], [ -3.2362, 6.6765 ], [ -3.2318, 6.6805 ], [ -3.2311, 6.6861 ], [ -3.2287, 6.6921 ], [ -3.2309, 6.6955 ], [ -3.2311, 6.7001 ], [ -3.2301, 6.7027 ], [ -3.2271, 6.7039 ], [ -3.2235, 6.7051 ], [ -3.2217, 6.7073 ], [ -3.2199, 6.7105 ], [ -3.2166, 6.7143 ], [ -3.2165, 6.7179 ], [ -3.2157, 6.7213 ], [ -3.2136, 6.7245 ], [ -3.2108, 6.7283 ], [ -3.209, 6.7317 ], [ -3.2099, 6.7353 ], [ -3.2136, 6.7403 ], [ -3.2147, 6.7443 ], [ -3.217, 6.7475 ], [ -3.2158, 6.7509 ], [ -3.2125, 6.7553 ], [ -3.2155, 6.7601 ], [ -3.2181, 6.7615 ], [ -3.2235, 6.7657 ], [ -3.2265, 6.7679 ], [ -3.2288, 6.7727 ], [ -3.2313, 6.7767 ], [ -3.2318, 6.7823 ], [ -3.2327, 6.7863 ], [ -3.2323, 6.7893 ], [ -3.2324, 6.7935 ], [ -3.2317, 6.7979 ], [ -3.2305, 6.8029 ], [ -3.2304, 6.8075 ], [ -3.2304, 6.8157 ], [ -3.2312, 6.8213 ], [ -3.2271, 6.8243 ], [ -3.1554, 6.9405 ], [ -3.1435, 6.9567 ], [ -3.1421, 6.9635 ], [ -3.1339, 6.9749 ], [ -3.1323, 6.9779 ], [ -3.1288, 6.9841 ], [ -3.1166, 7.0059 ], [ -3.109, 7.0133 ], [ -3.1068, 7.0171 ], [ -3.0829, 7.0545 ], [ -3.0749, 7.0629 ], [ -3.0584, 7.0657 ], [ -3.0478, 7.0693 ], [ -3.0321, 7.0717 ], [ -3.0291, 7.0967 ], [ -3.0276, 7.1109 ], [ -3.0271, 7.1149 ], [ -3.0245, 7.1367 ], [ -3.0238, 7.1415 ], [ -3.0001, 7.1721 ], [ -2.9827, 7.1947 ], [ -2.9594, 7.2287 ], [ -2.9533, 7.2393 ], [ -2.9555, 7.2423 ], [ -2.9597, 7.2509 ], [ -2.9782, 7.2721 ], [ -2.9693, 7.3345 ], [ -2.968, 7.3403 ], [ -2.9661, 7.3485 ], [ -2.9645, 7.3553 ], [ -2.9632, 7.3609 ], [ -2.96, 7.3753 ], [ -2.9484, 7.4301 ], [ -2.9483, 7.4355 ], [ -2.9478, 7.4405 ], [ -2.9471, 7.4471 ], [ -2.9473, 7.4509 ], [ -2.9473, 7.4565 ], [ -2.9428, 7.4679 ], [ -2.9416, 7.4715 ], [ -2.9362, 7.4795 ], [ -2.9347, 7.4865 ], [ -2.9339, 7.4953 ], [ -2.9315, 7.5215 ], [ -2.9282, 7.5567 ], [ -2.9235, 7.6087 ], [ -2.9007, 7.6573 ], [ -2.8917, 7.6771 ], [ -2.8886, 7.6837 ], [ -2.8864, 7.6901 ], [ -2.8834, 7.6985 ], [ -2.8734, 7.7187 ], [ -2.8693, 7.7323 ], [ -2.8506, 7.7619 ], [ -2.8485, 7.7803 ], [ -2.8352, 7.7937 ], [ -2.8261, 7.8057 ], [ -2.829, 7.8213 ], [ -2.8258, 7.8239 ], [ -2.8268, 7.8271 ], [ -2.8283, 7.8317 ], [ -2.8293, 7.8429 ], [ -2.8317, 7.8469 ], [ -2.8252, 7.8683 ], [ -2.824, 7.8829 ], [ -2.8217, 7.8949 ], [ -2.8214, 7.9067 ], [ -2.8221, 7.9125 ], [ -2.8187, 7.9187 ], [ -2.8103, 7.9385 ], [ -2.8099, 7.9485 ], [ -2.81, 7.9595 ], [ -2.8086, 7.9657 ], [ -2.8037, 7.9725 ], [ -2.7928, 7.9835 ], [ -2.782, 7.9915 ], [ -2.7713, 7.9973 ], [ -2.7571, 8.0003 ], [ -2.7516, 8.0019 ], [ -2.7376, 8.0075 ], [ -2.7127, 8.0173 ], [ -2.6956, 8.0297 ], [ -2.6921, 8.0297 ], [ -2.662, 8.0421 ], [ -2.6527, 8.0423 ], [ -2.6356, 8.0541 ], [ -2.6324, 8.0543 ], [ -2.6338, 8.0585 ], [ -2.635, 8.0627 ], [ -2.6359, 8.0673 ], [ -2.6344, 8.0817 ], [ -2.6341, 8.0913 ], [ -2.6327, 8.1009 ], [ -2.6306, 8.1093 ], [ -2.6302, 8.1129 ], [ -2.629, 8.1169 ], [ -2.6274, 8.1197 ], [ -2.625, 8.1251 ], [ -2.6223, 8.1279 ], [ -2.6207, 8.1315 ], [ -2.618, 8.1345 ], [ -2.615, 8.1375 ], [ -2.6122, 8.1433 ], [ -2.6108, 8.1475 ], [ -2.6087, 8.1505 ], [ -2.6032, 8.1529 ], [ -2.5976, 8.1525 ], [ -2.5946, 8.1525 ], [ -2.5906, 8.1521 ], [ -2.5865, 8.1501 ], [ -2.5825, 8.1491 ], [ -2.5796, 8.1475 ], [ -2.5767, 8.1453 ], [ -2.5729, 8.1457 ], [ -2.5696, 8.1459 ], [ -2.5642, 8.1485 ], [ -2.5617, 8.1471 ], [ -2.5593, 8.1453 ], [ -2.5541, 8.1465 ], [ -2.5448, 8.1757 ], [ -2.5273, 8.1855 ], [ -2.5208, 8.1891 ], [ -2.5179, 8.1909 ], [ -2.5089, 8.1935 ], [ -2.5028, 8.1981 ], [ -2.4967, 8.2029 ], [ -2.4948, 8.2053 ], [ -2.4959, 8.2131 ], [ -2.4966, 8.2241 ], [ -2.4977, 8.2449 ], [ -2.5, 8.2565 ], [ -2.5001, 8.2719 ], [ -2.5006, 8.2891 ], [ -2.5014, 8.3075 ], [ -2.5044, 8.3341 ], [ -2.5127, 8.3695 ], [ -2.5164, 8.3831 ], [ -2.5161, 8.3919 ], [ -2.5175, 8.4017 ], [ -2.5244, 8.4407 ], [ -2.533, 8.4809 ], [ -2.5396, 8.5005 ], [ -2.5425, 8.5155 ], [ -2.5464, 8.5287 ], [ -2.549, 8.5423 ], [ -2.562, 8.6149 ], [ -2.5624, 8.6219 ], [ -2.5626, 8.6289 ], [ -2.5654, 8.6419 ], [ -2.5671, 8.6597 ], [ -2.5739, 8.6909 ], [ -2.5734, 8.7007 ], [ -2.5757, 8.7089 ], [ -2.5776, 8.7205 ], [ -2.581, 8.7413 ], [ -2.586, 8.7715 ], [ -2.5872, 8.7787 ], [ -2.5895, 8.7825 ], [ -2.5905, 8.7863 ], [ -2.5959, 8.7883 ], [ -2.6041, 8.7885 ], [ -2.609, 8.7875 ], [ -2.6173, 8.7873 ], [ -2.6243, 8.7909 ], [ -2.6266, 8.7929 ], [ -2.6285, 8.7957 ], [ -2.6264, 8.8007 ], [ -2.6243, 8.8041 ], [ -2.6223, 8.8065 ], [ -2.6192, 8.8091 ], [ -2.6154, 8.8109 ], [ -2.6117, 8.8127 ], [ -2.6077, 8.8155 ], [ -2.6043, 8.8183 ], [ -2.601, 8.8203 ], [ -2.5985, 8.8219 ], [ -2.5968, 8.8247 ], [ -2.5963, 8.8289 ], [ -2.597, 8.8333 ], [ -2.5996, 8.8385 ], [ -2.6004, 8.8429 ], [ -2.6052, 8.8455 ], [ -2.6079, 8.8491 ], [ -2.6096, 8.8537 ], [ -2.6115, 8.8579 ], [ -2.6128, 8.8607 ], [ -2.6148, 8.8645 ], [ -2.6169, 8.8679 ], [ -2.6193, 8.8717 ], [ -2.6215, 8.8745 ], [ -2.6227, 8.8771 ], [ -2.6231, 8.8801 ], [ -2.6218, 8.8859 ], [ -2.6215, 8.8903 ], [ -2.6208, 8.8935 ], [ -2.6202, 8.8963 ], [ -2.6193, 8.8991 ], [ -2.6173, 8.9045 ], [ -2.6169, 8.9075 ], [ -2.6161, 8.9109 ], [ -2.616, 8.9143 ], [ -2.6173, 8.9173 ], [ -2.6178, 8.9205 ], [ -2.6196, 8.9239 ], [ -2.6226, 8.9257 ], [ -2.627, 8.9297 ], [ -2.632, 8.9309 ], [ -2.6367, 8.9329 ], [ -2.6396, 8.9337 ], [ -2.6426, 8.9347 ], [ -2.6457, 8.9369 ], [ -2.6482, 8.9397 ], [ -2.6502, 8.9427 ], [ -2.6516, 8.9473 ], [ -2.6521, 8.9519 ], [ -2.6529, 8.9551 ], [ -2.6534, 8.9597 ], [ -2.6544, 8.9639 ], [ -2.6555, 8.9717 ], [ -2.6565, 8.9789 ], [ -2.6577, 8.9833 ], [ -2.6569, 8.9903 ], [ -2.6558, 8.9935 ], [ -2.6552, 8.9977 ], [ -2.6546, 9.0017 ], [ -2.6541, 9.0075 ], [ -2.6603, 9.0081 ], [ -2.6619, 9.0131 ], [ -2.6639, 9.0159 ], [ -2.6678, 9.0177 ], [ -2.6718, 9.0197 ], [ -2.6749, 9.0201 ], [ -2.678, 9.0199 ], [ -2.6821, 9.0193 ], [ -2.6864, 9.0183 ], [ -2.6894, 9.0179 ], [ -2.6952, 9.0185 ], [ -2.6988, 9.0159 ], [ -2.7026, 9.0177 ], [ -2.7052, 9.0207 ], [ -2.7079, 9.0195 ], [ -2.7109, 9.0189 ], [ -2.7144, 9.0177 ], [ -2.7177, 9.0151 ], [ -2.7203, 9.0135 ], [ -2.7192, 9.0179 ], [ -2.7166, 9.0201 ], [ -2.7138, 9.0227 ], [ -2.716, 9.0251 ], [ -2.7204, 9.0253 ], [ -2.7232, 9.0259 ], [ -2.7263, 9.0269 ], [ -2.7303, 9.0271 ], [ -2.734, 9.0265 ], [ -2.7394, 9.0263 ], [ -2.7439, 9.0265 ], [ -2.7475, 9.0267 ], [ -2.7534, 9.0261 ], [ -2.758, 9.0253 ], [ -2.7611, 9.0261 ], [ -2.7644, 9.0277 ], [ -2.7687, 9.0303 ], [ -2.7719, 9.0329 ], [ -2.7732, 9.0359 ], [ -2.7738, 9.0409 ], [ -2.7738, 9.0443 ], [ -2.7754, 9.0473 ], [ -2.7775, 9.0495 ], [ -2.7799, 9.0515 ], [ -2.7818, 9.0547 ], [ -2.7829, 9.0597 ], [ -2.7823, 9.0641 ], [ -2.7801, 9.0673 ], [ -2.7779, 9.0701 ], [ -2.7755, 9.0721 ], [ -2.7728, 9.0747 ], [ -2.7705, 9.0775 ], [ -2.7683, 9.0803 ], [ -2.7661, 9.0851 ], [ -2.7655, 9.0903 ], [ -2.7658, 9.0961 ], [ -2.7668, 9.1021 ], [ -2.7671, 9.1067 ], [ -2.7675, 9.1107 ], [ -2.7696, 9.1147 ], [ -2.7683, 9.1183 ], [ -2.7694, 9.1225 ], [ -2.7718, 9.1273 ], [ -2.773, 9.1323 ], [ -2.774, 9.1357 ], [ -2.7751, 9.1389 ], [ -2.7739, 9.1427 ], [ -2.7717, 9.1457 ], [ -2.7694, 9.1475 ], [ -2.7667, 9.1495 ], [ -2.7639, 9.1509 ], [ -2.7604, 9.1521 ], [ -2.7545, 9.1533 ], [ -2.7513, 9.1543 ], [ -2.7495, 9.1567 ], [ -2.7457, 9.1561 ], [ -2.7427, 9.1563 ], [ -2.7397, 9.1575 ], [ -2.736, 9.1607 ], [ -2.7332, 9.1641 ], [ -2.7316, 9.1673 ], [ -2.7302, 9.1701 ], [ -2.7287, 9.1737 ], [ -2.7271, 9.1775 ], [ -2.7253, 9.1813 ], [ -2.7232, 9.1853 ], [ -2.7224, 9.1887 ], [ -2.7217, 9.1929 ], [ -2.724, 9.1959 ], [ -2.7239, 9.1991 ], [ -2.7205, 9.1967 ], [ -2.7183, 9.2015 ], [ -2.7159, 9.2061 ], [ -2.7135, 9.2091 ], [ -2.7068, 9.2133 ], [ -2.7022, 9.2163 ], [ -2.6979, 9.2181 ], [ -2.6956, 9.2199 ], [ -2.6947, 9.2235 ], [ -2.6921, 9.2263 ], [ -2.689, 9.2279 ], [ -2.6848, 9.2297 ], [ -2.6817, 9.2307 ], [ -2.6619, 9.2401 ], [ -2.6566, 9.2557 ], [ -2.6623, 9.2629 ], [ -2.6718, 9.2747 ], [ -2.674, 9.2771 ], [ -2.6776, 9.2809 ], [ -2.6812, 9.2835 ], [ -2.6836, 9.2855 ], [ -2.6859, 9.2873 ], [ -2.6892, 9.2857 ], [ -2.6942, 9.2847 ], [ -2.6974, 9.2855 ], [ -2.7011, 9.2857 ], [ -2.7047, 9.2871 ], [ -2.7077, 9.2887 ], [ -2.7105, 9.2913 ], [ -2.7152, 9.2963 ], [ -2.7177, 9.3015 ], [ -2.7181, 9.3059 ], [ -2.7207, 9.3117 ], [ -2.7212, 9.3157 ], [ -2.7205, 9.3191 ], [ -2.7214, 9.3245 ], [ -2.7208, 9.3303 ], [ -2.7199, 9.3337 ], [ -2.7148, 9.3375 ], [ -2.7112, 9.3389 ], [ -2.7076, 9.3395 ], [ -2.7032, 9.3401 ], [ -2.6999, 9.3435 ], [ -2.6975, 9.3461 ], [ -2.6959, 9.3493 ], [ -2.6937, 9.3521 ], [ -2.6897, 9.3547 ], [ -2.6866, 9.3563 ], [ -2.6839, 9.3585 ], [ -2.6816, 9.3609 ], [ -2.6783, 9.3665 ], [ -2.6768, 9.3705 ], [ -2.6759, 9.3737 ], [ -2.6749, 9.3777 ], [ -2.6739, 9.3833 ], [ -2.6737, 9.3885 ], [ -2.6743, 9.3917 ], [ -2.6751, 9.3969 ], [ -2.6764, 9.4035 ], [ -2.6776, 9.4085 ], [ -2.6794, 9.4135 ], [ -2.6843, 9.4203 ], [ -2.6862, 9.4241 ], [ -2.6875, 9.4275 ], [ -2.6886, 9.4325 ], [ -2.6888, 9.4355 ], [ -2.6896, 9.4433 ], [ -2.6901, 9.4481 ], [ -2.69, 9.4531 ], [ -2.6892, 9.4581 ], [ -2.6881, 9.4619 ], [ -2.6863, 9.4679 ], [ -2.6856, 9.4707 ], [ -2.6845, 9.4739 ], [ -2.6844, 9.4771 ], [ -2.6842, 9.4819 ], [ -2.6845, 9.4873 ], [ -2.6868, 9.4911 ], [ -2.6885, 9.4941 ], [ -2.6901, 9.4973 ], [ -2.6917, 9.5005 ], [ -2.6937, 9.5039 ], [ -2.6964, 9.5069 ], [ -2.7005, 9.5109 ], [ -2.7058, 9.5139 ], [ -2.708, 9.5157 ], [ -2.713, 9.5231 ], [ -2.7175, 9.5261 ], [ -2.7227, 9.5279 ], [ -2.7301, 9.5295 ], [ -2.734, 9.5325 ], [ -2.7369, 9.5359 ], [ -2.7392, 9.5385 ], [ -2.7427, 9.5421 ], [ -2.7448, 9.5443 ], [ -2.7469, 9.5465 ], [ -2.7495, 9.5481 ], [ -2.7539, 9.5493 ], [ -2.7564, 9.5515 ], [ -2.7599, 9.5547 ], [ -2.7622, 9.5577 ], [ -2.7634, 9.5607 ], [ -2.7646, 9.5635 ], [ -2.7666, 9.5663 ], [ -2.7692, 9.5709 ], [ -2.7711, 9.5765 ], [ -2.7701, 9.5807 ], [ -2.7707, 9.5857 ], [ -2.7707, 9.5893 ], [ -2.7708, 9.5929 ], [ -2.7717, 9.5959 ], [ -2.7715, 9.5997 ], [ -2.7692, 9.6033 ], [ -2.7668, 9.6051 ], [ -2.764, 9.6079 ], [ -2.7627, 9.6123 ], [ -2.7632, 9.6155 ], [ -2.7611, 9.6185 ], [ -2.7589, 9.6205 ], [ -2.7557, 9.6233 ], [ -2.7533, 9.6273 ], [ -2.751, 9.6305 ], [ -2.7472, 9.6335 ], [ -2.7459, 9.6379 ], [ -2.7425, 9.6419 ], [ -2.7466, 9.6427 ], [ -2.7487, 9.6461 ], [ -2.7522, 9.6497 ], [ -2.7542, 9.6531 ], [ -2.7545, 9.6569 ], [ -2.7553, 9.6611 ], [ -2.7561, 9.6651 ], [ -2.7564, 9.6685 ], [ -2.7572, 9.6717 ], [ -2.757, 9.6761 ], [ -2.7586, 9.6805 ], [ -2.762, 9.6829 ], [ -2.7666, 9.6833 ], [ -2.771, 9.6841 ], [ -2.7747, 9.6853 ], [ -2.7777, 9.6867 ], [ -2.781, 9.6881 ], [ -2.784, 9.6903 ], [ -2.7863, 9.6939 ], [ -2.7871, 9.6993 ], [ -2.7871, 9.7041 ], [ -2.7869, 9.7079 ], [ -2.787, 9.7109 ], [ -2.7858, 9.7147 ], [ -2.7848, 9.7183 ], [ -2.7839, 9.7211 ], [ -2.7835, 9.7257 ], [ -2.7852, 9.7291 ], [ -2.7874, 9.7335 ], [ -2.7892, 9.7383 ], [ -2.7906, 9.7425 ], [ -2.7901, 9.7469 ], [ -2.7871, 9.7501 ], [ -2.7838, 9.7525 ], [ -2.7794, 9.7559 ], [ -2.7776, 9.7593 ], [ -2.7766, 9.7625 ], [ -2.7755, 9.7669 ], [ -2.7727, 9.7709 ], [ -2.7702, 9.7739 ], [ -2.7686, 9.7773 ], [ -2.7674, 9.7815 ], [ -2.766, 9.7855 ], [ -2.763, 9.7891 ], [ -2.7613, 9.7915 ], [ -2.76, 9.7951 ], [ -2.7587, 9.8001 ], [ -2.7548, 9.8037 ], [ -2.7519, 9.8067 ], [ -2.7482, 9.8085 ], [ -2.7441, 9.8109 ], [ -2.7404, 9.8127 ], [ -2.737, 9.8145 ], [ -2.7333, 9.8149 ], [ -2.7303, 9.8181 ], [ -2.7282, 9.8221 ], [ -2.7269, 9.8283 ], [ -2.7278, 9.8331 ], [ -2.7295, 9.8367 ], [ -2.7328, 9.8405 ], [ -2.7354, 9.8429 ], [ -2.7383, 9.8463 ], [ -2.7404, 9.8485 ], [ -2.7432, 9.8507 ], [ -2.7465, 9.8537 ], [ -2.7495, 9.8589 ], [ -2.7515, 9.8623 ], [ -2.753, 9.8651 ], [ -2.7549, 9.8685 ], [ -2.7564, 9.8711 ], [ -2.758, 9.8741 ], [ -2.7591, 9.8767 ], [ -2.761, 9.8815 ], [ -2.7625, 9.8857 ], [ -2.7625, 9.8887 ], [ -2.7625, 9.8919 ], [ -2.7618, 9.8957 ], [ -2.7615, 9.8989 ], [ -2.7633, 9.9039 ], [ -2.7635, 9.9085 ], [ -2.764, 9.9115 ], [ -2.763, 9.9171 ], [ -2.7613, 9.9219 ], [ -2.76, 9.9267 ], [ -2.7564, 9.9335 ], [ -2.754, 9.9377 ], [ -2.7523, 9.9413 ], [ -2.7483, 9.9447 ], [ -2.7448, 9.9489 ], [ -2.7442, 9.9529 ], [ -2.7436, 9.9561 ], [ -2.7433, 9.9595 ], [ -2.7444, 9.9625 ], [ -2.7457, 9.9661 ], [ -2.7467, 9.9691 ], [ -2.7477, 9.9723 ], [ -2.7484, 9.9751 ], [ -2.7492, 9.9787 ], [ -2.75, 9.9815 ], [ -2.7522, 9.9841 ], [ -2.7555, 9.9867 ], [ -2.7587, 9.9889 ], [ -2.7616, 9.9915 ], [ -2.7647, 9.9957 ], [ -2.7677, 10.0001 ], [ -2.7703, 10.0029 ], [ -2.7719, 10.0055 ], [ -2.774, 10.0087 ], [ -2.7758, 10.0123 ], [ -2.7763, 10.0165 ], [ -2.7775, 10.0211 ], [ -2.7806, 10.0247 ], [ -2.7822, 10.0283 ], [ -2.7829, 10.0329 ], [ -2.7831, 10.0361 ], [ -2.783, 10.0393 ], [ -2.7826, 10.0425 ], [ -2.7829, 10.0455 ], [ -2.7844, 10.0489 ], [ -2.7855, 10.0523 ], [ -2.7866, 10.0553 ], [ -2.7882, 10.0585 ], [ -2.7888, 10.0621 ], [ -2.7898, 10.0663 ], [ -2.7907, 10.0707 ], [ -2.7904, 10.0741 ], [ -2.7907, 10.0779 ], [ -2.7907, 10.0809 ], [ -2.7899, 10.0837 ], [ -2.7893, 10.0873 ], [ -2.7885, 10.0911 ], [ -2.7885, 10.0951 ], [ -2.7894, 10.0979 ], [ -2.7907, 10.1007 ], [ -2.7913, 10.1035 ], [ -2.7921, 10.1063 ], [ -2.7923, 10.1105 ], [ -2.7932, 10.1151 ], [ -2.7938, 10.1197 ], [ -2.7939, 10.1247 ], [ -2.7927, 10.1295 ], [ -2.7907, 10.1325 ], [ -2.789, 10.1357 ], [ -2.7878, 10.1393 ], [ -2.7882, 10.1433 ], [ -2.7891, 10.1465 ], [ -2.7893, 10.1497 ], [ -2.7896, 10.1527 ], [ -2.7906, 10.1571 ], [ -2.7909, 10.1625 ], [ -2.7918, 10.1659 ], [ -2.7942, 10.1697 ], [ -2.795, 10.1739 ], [ -2.7931, 10.1767 ], [ -2.7954, 10.1793 ], [ -2.7964, 10.1833 ], [ -2.7976, 10.1873 ], [ -2.7978, 10.1905 ], [ -2.7971, 10.1935 ], [ -2.7963, 10.1965 ], [ -2.7945, 10.1993 ], [ -2.7925, 10.2013 ], [ -2.7906, 10.2039 ], [ -2.788, 10.2065 ], [ -2.784, 10.2093 ], [ -2.7797, 10.2111 ], [ -2.7762, 10.2131 ], [ -2.7726, 10.2157 ], [ -2.7702, 10.2179 ], [ -2.7678, 10.2197 ], [ -2.7657, 10.2217 ], [ -2.7638, 10.2239 ], [ -2.7607, 10.2269 ], [ -2.7583, 10.2311 ], [ -2.757, 10.2353 ], [ -2.7566, 10.2399 ], [ -2.7561, 10.2449 ], [ -2.7566, 10.2493 ], [ -2.7597, 10.2593 ], [ -2.7616, 10.2625 ], [ -2.7641, 10.2647 ], [ -2.7671, 10.2667 ], [ -2.7707, 10.2683 ], [ -2.7813, 10.2725 ], [ -2.7849, 10.2731 ], [ -2.7885, 10.2737 ], [ -2.7932, 10.2749 ], [ -2.7983, 10.2771 ], [ -2.8026, 10.2791 ], [ -2.8055, 10.2807 ], [ -2.8095, 10.2829 ], [ -2.8134, 10.2849 ], [ -2.816, 10.2863 ], [ -2.8189, 10.2883 ], [ -2.8213, 10.2901 ], [ -2.8243, 10.2917 ], [ -2.8267, 10.2933 ], [ -2.8299, 10.2949 ], [ -2.8332, 10.2963 ], [ -2.8361, 10.2989 ], [ -2.8398, 10.3021 ], [ -2.8422, 10.3055 ], [ -2.8443, 10.3107 ], [ -2.8469, 10.3137 ], [ -2.8493, 10.3163 ], [ -2.8501, 10.3199 ], [ -2.85, 10.3241 ], [ -2.849, 10.3285 ], [ -2.8469, 10.3321 ], [ -2.8449, 10.3359 ], [ -2.844, 10.3397 ], [ -2.8427, 10.3425 ], [ -2.8422, 10.3463 ], [ -2.8426, 10.3503 ], [ -2.8426, 10.3555 ], [ -2.8425, 10.3591 ], [ -2.8421, 10.3633 ], [ -2.8413, 10.3671 ], [ -2.8398, 10.3703 ], [ -2.8376, 10.3737 ], [ -2.8358, 10.3773 ], [ -2.8352, 10.3813 ], [ -2.8335, 10.3839 ], [ -2.8322, 10.3865 ], [ -2.83, 10.3897 ], [ -2.8265, 10.3927 ], [ -2.822, 10.3957 ], [ -2.8182, 10.3979 ], [ -2.8139, 10.3991 ], [ -2.8081, 10.3993 ], [ -2.8041, 10.3979 ], [ -2.7989, 10.3985 ], [ -2.7953, 10.4011 ], [ -2.7907, 10.4031 ], [ -2.7868, 10.4051 ], [ -2.7824, 10.4073 ], [ -2.7784, 10.4099 ], [ -2.7757, 10.4135 ], [ -2.7752, 10.4165 ], [ -2.7741, 10.4199 ], [ -2.7734, 10.4229 ], [ -2.7754, 10.4253 ], [ -2.7794, 10.4259 ], [ -2.7829, 10.4261 ], [ -2.7871, 10.4265 ], [ -2.7921, 10.4269 ], [ -2.7958, 10.4283 ], [ -2.8001, 10.4295 ], [ -2.8042, 10.4301 ], [ -2.807, 10.4307 ], [ -2.8098, 10.4317 ], [ -2.8134, 10.4327 ], [ -2.8171, 10.4333 ], [ -2.8199, 10.4337 ], [ -2.8236, 10.4345 ], [ -2.8282, 10.4359 ], [ -2.833, 10.4371 ], [ -2.8372, 10.4397 ], [ -2.8413, 10.4425 ], [ -2.8457, 10.4445 ], [ -2.8499, 10.4465 ], [ -2.8538, 10.4481 ], [ -2.853, 10.4519 ], [ -2.8559, 10.4517 ], [ -2.8594, 10.4539 ], [ -2.8621, 10.4557 ], [ -2.8657, 10.4591 ], [ -2.8683, 10.4637 ], [ -2.8698, 10.4681 ], [ -2.8708, 10.4713 ], [ -2.8717, 10.4747 ], [ -2.8713, 10.4777 ], [ -2.8714, 10.4817 ], [ -2.873, 10.4855 ], [ -2.8737, 10.4883 ], [ -2.875, 10.4919 ], [ -2.8767, 10.4947 ], [ -2.8783, 10.4975 ], [ -2.8799, 10.5005 ], [ -2.8827, 10.5027 ], [ -2.8857, 10.5041 ], [ -2.8882, 10.5057 ], [ -2.8896, 10.5083 ], [ -2.8918, 10.5121 ], [ -2.8953, 10.5151 ], [ -2.8967, 10.5181 ], [ -2.8985, 10.5219 ], [ -2.8997, 10.5259 ], [ -2.9004, 10.5297 ], [ -2.8991, 10.5337 ], [ -2.8982, 10.5375 ], [ -2.898, 10.5405 ], [ -2.899, 10.5443 ], [ -2.9005, 10.5479 ], [ -2.9016, 10.5509 ], [ -2.9034, 10.5541 ], [ -2.905, 10.5565 ], [ -2.9073, 10.5593 ], [ -2.9096, 10.5617 ], [ -2.9118, 10.5657 ], [ -2.913, 10.5703 ], [ -2.9143, 10.5739 ], [ -2.9157, 10.5765 ], [ -2.917, 10.5791 ], [ -2.9193, 10.5831 ], [ -2.9225, 10.5881 ], [ -2.9233, 10.5927 ], [ -2.9256, 10.5975 ], [ -2.9286, 10.6003 ], [ -2.9318, 10.6023 ], [ -2.9334, 10.6049 ], [ -2.935, 10.6089 ], [ -2.938, 10.6109 ], [ -2.9403, 10.6133 ], [ -2.941, 10.6171 ], [ -2.94, 10.6209 ], [ -2.9397, 10.6251 ], [ -2.9408, 10.6287 ], [ -2.941, 10.6329 ], [ -2.9402, 10.6373 ], [ -2.9381, 10.6413 ], [ -2.9358, 10.6453 ], [ -2.9339, 10.6477 ], [ -2.9321, 10.6505 ], [ -2.93, 10.6531 ], [ -2.9258, 10.6557 ], [ -2.9221, 10.6589 ], [ -2.9185, 10.6613 ], [ -2.9156, 10.6639 ], [ -2.9139, 10.6665 ], [ -2.9119, 10.6695 ], [ -2.9106, 10.6723 ], [ -2.9109, 10.6753 ], [ -2.9099, 10.6781 ], [ -2.9076, 10.6815 ], [ -2.9056, 10.6863 ], [ -2.9059, 10.6901 ], [ -2.907, 10.6927 ], [ -2.9085, 10.6955 ], [ -2.9104, 10.6995 ], [ -2.9144, 10.7015 ], [ -2.9182, 10.7029 ], [ -2.9215, 10.7037 ], [ -2.9249, 10.7043 ], [ -2.9291, 10.7045 ], [ -2.9327, 10.7059 ], [ -2.9359, 10.7079 ], [ -2.9394, 10.7091 ], [ -2.9397, 10.7135 ], [ -2.9386, 10.7187 ], [ -2.937, 10.7233 ], [ -2.933, 10.7261 ], [ -2.9301, 10.7283 ], [ -2.9269, 10.7303 ], [ -2.924, 10.7321 ], [ -2.9184, 10.7367 ], [ -2.9164, 10.7389 ], [ -2.9135, 10.7419 ], [ -2.9112, 10.7445 ], [ -2.9089, 10.7471 ], [ -2.9061, 10.7499 ], [ -2.9024, 10.7549 ], [ -2.8994, 10.7581 ], [ -2.8978, 10.7617 ], [ -2.8939, 10.7631 ], [ -2.8944, 10.7667 ], [ -2.8943, 10.7719 ], [ -2.892, 10.7771 ], [ -2.8911, 10.7823 ], [ -2.889, 10.7871 ], [ -2.8872, 10.7909 ], [ -2.8849, 10.7959 ], [ -2.8826, 10.8005 ], [ -2.8805, 10.8063 ], [ -2.8798, 10.8109 ], [ -2.8797, 10.8149 ], [ -2.88, 10.8211 ], [ -2.8797, 10.8255 ], [ -2.8799, 10.8287 ], [ -2.8787, 10.8327 ], [ -2.8775, 10.8353 ], [ -2.8754, 10.8387 ], [ -2.873, 10.8421 ], [ -2.8709, 10.8445 ], [ -2.8686, 10.8471 ], [ -2.8662, 10.8511 ], [ -2.865, 10.8541 ], [ -2.8637, 10.8575 ], [ -2.8634, 10.8605 ], [ -2.8634, 10.8647 ], [ -2.8641, 10.8685 ], [ -2.8661, 10.8725 ], [ -2.8662, 10.8783 ], [ -2.8658, 10.8817 ], [ -2.8651, 10.8847 ], [ -2.8636, 10.8875 ], [ -2.86, 10.8903 ], [ -2.8551, 10.8913 ], [ -2.8507, 10.8909 ], [ -2.8449, 10.8915 ], [ -2.8387, 10.8925 ], [ -2.8354, 10.8955 ], [ -2.8333, 10.8983 ], [ -2.8305, 10.9035 ], [ -2.8283, 10.9077 ], [ -2.8263, 10.9101 ], [ -2.8239, 10.9135 ], [ -2.822, 10.9163 ], [ -2.8196, 10.9193 ], [ -2.8178, 10.9227 ], [ -2.817, 10.9267 ], [ -2.817, 10.9305 ], [ -2.8175, 10.9335 ], [ -2.8178, 10.9363 ], [ -2.8183, 10.9395 ], [ -2.8203, 10.9435 ], [ -2.8225, 10.9473 ], [ -2.825, 10.9499 ], [ -2.8272, 10.9521 ], [ -2.8297, 10.9545 ], [ -2.8338, 10.9569 ], [ -2.8377, 10.9605 ], [ -2.8395, 10.9643 ], [ -2.8406, 10.9685 ], [ -2.8404, 10.9723 ], [ -2.8391, 10.9765 ], [ -2.8379, 10.9801 ], [ -2.8372, 10.9837 ], [ -2.8366, 10.9869 ], [ -2.8358, 10.9901 ], [ -2.8352, 10.9939 ], [ -2.8344, 10.9997 ], [ -2.834, 11.0041 ], [ -2.8307, 11.0041 ], [ -2.8271, 11.0041 ], [ -2.8167, 11.0037 ], [ -2.8118, 11.0037 ], [ -2.8059, 11.0039 ], [ -2.7868, 11.0043 ], [ -2.7819, 11.0045 ], [ -2.7775, 11.0045 ], [ -2.7718, 11.0047 ], [ -2.7679, 11.0043 ], [ -2.7688, 11.0085 ], [ -2.7676, 11.0125 ], [ -2.7645, 11.0149 ], [ -2.7624, 11.0169 ], [ -2.7585, 11.0189 ], [ -2.755, 11.0193 ], [ -2.751, 11.0193 ], [ -2.7396, 11.0195 ], [ -2.7245, 11.0195 ], [ -2.6839, 11.0195 ], [ -2.6803, 11.0193 ], [ -2.6531, 11.0193 ], [ -2.6374, 11.0193 ], [ -2.6325, 11.0193 ], [ -2.6267, 11.0193 ], [ -2.6229, 11.0195 ], [ -2.6189, 11.0205 ], [ -2.5829, 11.0217 ], [ -2.5554, 11.0181 ], [ -2.5377, 11.0183 ], [ -2.4977, 11.0183 ], [ -2.4522, 11.0233 ], [ -2.4104, 11.0165 ], [ -2.3776, 11.0089 ], [ -2.3602, 11.0081 ], [ -2.3505, 11.0083 ], [ -2.3368, 11.0087 ], [ -2.3153, 11.0103 ], [ -2.3001, 11.0111 ], [ -2.2724, 11.0169 ], [ -2.2502, 11.0181 ], [ -2.2202, 11.0207 ], [ -2.1866, 11.0193 ], [ -2.172, 11.0187 ], [ -2.1184, 11.0143 ], [ -2.0828, 11.0147 ], [ -2.058, 11.0175 ], [ -2.0352, 11.0113 ], [ -2.0063, 11.0041 ], [ -1.8563, 11.0061 ], [ -1.7434, 11.0081 ], [ -1.7445, 11.0381 ], [ -1.5458, 11.0403 ], [ -1.5441, 11.0103 ], [ -1.4285, 11.0125 ], [ -1.4256, 11.0145 ], [ -1.4228, 11.0167 ], [ -1.4228, 11.0203 ], [ -1.4107, 11.0051 ], [ -1.4079, 11.0017 ], [ -1.4052, 10.9993 ], [ -1.4027, 10.9971 ], [ -1.3994, 10.9939 ], [ -1.3963, 10.9909 ], [ -1.3925, 10.9897 ], [ -1.3885, 10.9895 ], [ -1.3844, 10.9889 ], [ -1.3805, 10.9873 ], [ -1.3778, 10.9865 ], [ -1.3747, 10.9873 ], [ -1.3715, 10.9883 ], [ -1.3543, 10.9889 ], [ -1.3375, 10.9885 ], [ -1.3278, 10.9893 ], [ -1.321, 10.9897 ], [ -1.3145, 10.9895 ], [ -1.3058, 10.9901 ], [ -1.3014, 10.9903 ], [ -1.277, 10.9911 ], [ -1.2649, 10.9903 ], [ -1.2567, 10.9903 ], [ -1.2505, 10.9903 ], [ -1.2058, 10.9897 ], [ -1.1881, 10.9893 ], [ -1.1839, 10.9893 ], [ -1.1809, 10.9877 ], [ -1.1757, 10.9891 ], [ -1.1671, 10.9889 ], [ -1.1578, 10.9887 ], [ -1.1538, 10.9873 ], [ -1.1469, 10.9875 ], [ -1.1386, 10.9871 ], [ -1.1352, 10.9869 ], [ -1.1191, 10.9859 ], [ -1.1146, 10.9859 ], [ -1.1148, 11.0039 ], [ -1.0902, 11.0045 ], [ -1.0864, 11.0047 ], [ -1.0833, 11.0049 ], [ -1.0802, 11.0049 ], [ -1.0719, 11.0051 ], [ -1.0639, 11.0051 ], [ -1.0548, 11.0051 ], [ -1.0504, 11.0053 ], [ -1.0354, 11.0065 ], [ -1.0158, 11.0079 ], [ -1.0069, 11.0081 ], [ -1.0003, 11.0079 ], [ -1.0002, 11.0033 ], [ -1.0001, 10.9979 ], [ -0.9925, 10.9981 ], [ -0.9872, 10.9983 ], [ -0.9815, 10.9983 ], [ -0.9769, 10.9985 ], [ -0.9727, 10.9989 ], [ -0.9679, 10.9999 ], [ -0.9614, 11.0013 ], [ -0.9571, 11.0019 ], [ -0.9521, 11.0025 ], [ -0.947, 11.0025 ], [ -0.9435, 11.0025 ], [ -0.9391, 11.0025 ], [ -0.9352, 11.0025 ], [ -0.9294, 11.0025 ], [ -0.9253, 11.0023 ], [ -0.9214, 11.0023 ], [ -0.9165, 11.0023 ], [ -0.9164, 10.9993 ], [ -0.9165, 10.9943 ], [ -0.9166, 10.9911 ], [ -0.9166, 10.9859 ], [ -0.9166, 10.9803 ], [ -0.9112, 10.9801 ], [ -0.8986, 10.9817 ], [ -0.8893, 10.9807 ], [ -0.8885, 10.9761 ], [ -0.8881, 10.9709 ], [ -0.8888, 10.9677 ], [ -0.8906, 10.9641 ], [ -0.8864, 10.9641 ], [ -0.8823, 10.9649 ], [ -0.8767, 10.9657 ], [ -0.8707, 10.9667 ], [ -0.8681, 10.9731 ], [ -0.8662, 10.9769 ], [ -0.8649, 10.9803 ], [ -0.8626, 10.9849 ], [ -0.8608, 10.9883 ], [ -0.8589, 10.9915 ], [ -0.8536, 10.9985 ], [ -0.8487, 10.9985 ], [ -0.8443, 10.9985 ], [ -0.8368, 10.9985 ], [ -0.8314, 10.9985 ], [ -0.8283, 10.9991 ], [ -0.8277, 11.0033 ], [ -0.8272, 11.0065 ], [ -0.8236, 11.0065 ], [ -0.8193, 11.0065 ], [ -0.8154, 11.0061 ], [ -0.8111, 11.0061 ], [ -0.8076, 11.0045 ], [ -0.8062, 10.9987 ], [ -0.8009, 10.9979 ], [ -0.7972, 10.9979 ], [ -0.7927, 10.9979 ], [ -0.7871, 10.9977 ], [ -0.7795, 10.9977 ], [ -0.7763, 10.9977 ], [ -0.7658, 10.9975 ], [ -0.7624, 10.9973 ], [ -0.7581, 10.9973 ], [ -0.7542, 10.9975 ], [ -0.7501, 10.9973 ], [ -0.7459, 10.9973 ], [ -0.7407, 10.9973 ], [ -0.7349, 10.9975 ], [ -0.7318, 10.9977 ], [ -0.7243, 10.9977 ], [ -0.7202, 10.9979 ], [ -0.7149, 10.9981 ], [ -0.7105, 10.9981 ], [ -0.7072, 10.9981 ], [ -0.7027, 10.9983 ], [ -0.6973, 10.9983 ], [ -0.6939, 10.9985 ], [ -0.6891, 10.9985 ], [ -0.6847, 10.9975 ], [ -0.6859, 10.9941 ], [ -0.6863, 10.9895 ], [ -0.6851, 10.9853 ], [ -0.6816, 10.9835 ], [ -0.6776, 10.9829 ], [ -0.6754, 10.9853 ], [ -0.6721, 10.9897 ], [ -0.6684, 10.9889 ], [ -0.665, 10.9885 ], [ -0.6599, 10.9889 ], [ -0.6537, 10.9871 ], [ -0.6525, 10.9825 ], [ -0.6548, 10.9777 ], [ -0.6578, 10.9749 ], [ -0.6607, 10.9755 ], [ -0.6637, 10.9745 ], [ -0.6659, 10.9713 ], [ -0.6677, 10.9685 ], [ -0.6696, 10.9651 ], [ -0.6712, 10.9619 ], [ -0.6708, 10.9587 ], [ -0.6668, 10.9575 ], [ -0.663, 10.9565 ], [ -0.6594, 10.9585 ], [ -0.6565, 10.9629 ], [ -0.653, 10.9635 ], [ -0.6515, 10.9609 ], [ -0.6491, 10.9587 ], [ -0.6463, 10.9567 ], [ -0.6455, 10.9537 ], [ -0.6482, 10.9507 ], [ -0.6419, 10.9465 ], [ -0.6389, 10.9441 ], [ -0.6361, 10.9423 ], [ -0.6327, 10.9413 ], [ -0.6298, 10.9415 ], [ -0.6267, 10.9395 ], [ -0.6245, 10.9361 ], [ -0.624, 10.9331 ], [ -0.6237, 10.9297 ], [ -0.6228, 10.9267 ], [ -0.622, 10.9221 ], [ -0.6196, 10.9181 ], [ -0.6196, 10.9135 ], [ -0.6184, 10.9099 ], [ -0.6162, 10.9123 ], [ -0.613, 10.9127 ], [ -0.6094, 10.9151 ], [ -0.6055, 10.9169 ], [ -0.6018, 10.9199 ], [ -0.5968, 10.9223 ], [ -0.5932, 10.9247 ], [ -0.5936, 10.9285 ], [ -0.593, 10.9317 ], [ -0.5913, 10.9353 ], [ -0.588, 10.9385 ], [ -0.5866, 10.9437 ], [ -0.5874, 10.9479 ], [ -0.5865, 10.9529 ], [ -0.5861, 10.9583 ], [ -0.5853, 10.9617 ], [ -0.5813, 10.9641 ], [ -0.5797, 10.9687 ], [ -0.5794, 10.9717 ], [ -0.5779, 10.9741 ], [ -0.5755, 10.9763 ], [ -0.574, 10.9795 ], [ -0.5728, 10.9833 ], [ -0.5711, 10.9863 ], [ -0.5681, 10.9909 ], [ -0.5645, 10.9927 ], [ -0.5614, 10.9911 ], [ -0.5587, 10.9897 ], [ -0.5541, 10.9905 ], [ -0.5514, 10.9873 ], [ -0.5508, 10.9831 ], [ -0.5512, 10.9797 ], [ -0.5479, 10.9777 ], [ -0.5443, 10.9765 ], [ -0.5438, 10.9815 ], [ -0.5432, 10.9849 ], [ -0.5404, 10.9875 ], [ -0.5375, 10.9903 ], [ -0.5358, 10.9939 ], [ -0.5334, 10.9975 ], [ -0.5302, 10.9995 ], [ -0.5263, 10.9987 ], [ -0.525, 10.9957 ], [ -0.5229, 10.9925 ], [ -0.5171, 10.9915 ], [ -0.5127, 10.9903 ], [ -0.5106, 10.9925 ], [ -0.5086, 10.9947 ], [ -0.5045, 10.9995 ], [ -0.5015, 11.0029 ], [ -0.5017, 11.0073 ], [ -0.5011, 11.0127 ], [ -0.5021, 11.0161 ], [ -0.4999, 11.0179 ], [ -0.497, 11.0183 ], [ -0.4946, 11.0203 ], [ -0.4899, 11.0213 ], [ -0.4854, 11.0215 ], [ -0.4811, 11.0227 ], [ -0.4806, 11.0265 ], [ -0.4792, 11.0309 ], [ -0.4773, 11.0331 ], [ -0.4748, 11.0353 ], [ -0.4719, 11.0341 ], [ -0.4688, 11.0335 ], [ -0.4666, 11.0317 ], [ -0.464, 11.0305 ], [ -0.4603, 11.0285 ], [ -0.4544, 11.0297 ], [ -0.45, 11.0303 ], [ -0.445, 11.0301 ], [ -0.4415, 11.0303 ], [ -0.4383, 11.0303 ], [ -0.4356, 11.0341 ], [ -0.4341, 11.0379 ], [ -0.4384, 11.0441 ], [ -0.4367, 11.0463 ], [ -0.4363, 11.0527 ], [ -0.4374, 11.0567 ], [ -0.4383, 11.0597 ], [ -0.4398, 11.0651 ], [ -0.4383, 11.0681 ], [ -0.434, 11.0773 ], [ -0.4333, 11.0803 ], [ -0.4326, 11.0835 ], [ -0.4319, 11.0869 ], [ -0.4316, 11.0909 ], [ -0.4306, 11.0957 ], [ -0.4316, 11.1021 ], [ -0.43, 11.1085 ], [ -0.4268, 11.1143 ], [ -0.4232, 11.1141 ], [ -0.4203, 11.1159 ], [ -0.4161, 11.1195 ], [ -0.4103, 11.1207 ], [ -0.4059, 11.1229 ], [ -0.4025, 11.1263 ], [ -0.3969, 11.1259 ], [ -0.3915, 11.1251 ], [ -0.3875, 11.1251 ], [ -0.3849, 11.1265 ], [ -0.3817, 11.1251 ], [ -0.3776, 11.1227 ], [ -0.3734, 11.1229 ], [ -0.3745, 11.1193 ], [ -0.375, 11.1145 ], [ -0.3749, 11.1109 ], [ -0.3756, 11.1077 ], [ -0.3747, 11.1035 ], [ -0.3716, 11.0995 ], [ -0.3718, 11.0945 ], [ -0.3718, 11.0901 ], [ -0.3704, 11.0865 ], [ -0.3683, 11.0837 ], [ -0.3664, 11.0815 ], [ -0.3639, 11.0799 ], [ -0.3604, 11.0775 ], [ -0.3608, 11.0737 ], [ -0.3598, 11.0701 ], [ -0.3557, 11.0719 ], [ -0.3542, 11.0777 ], [ -0.3543, 11.0815 ], [ -0.3532, 11.0843 ], [ -0.3493, 11.0845 ], [ -0.3463, 11.0845 ], [ -0.3419, 11.0859 ], [ -0.3396, 11.0883 ], [ -0.3373, 11.0927 ], [ -0.3365, 11.0967 ], [ -0.3355, 11.1005 ], [ -0.3368, 11.1063 ], [ -0.3339, 11.1083 ], [ -0.3294, 11.1097 ], [ -0.3214, 11.1149 ], [ -0.3091, 11.1159 ], [ -0.3041, 11.1189 ], [ -0.2999, 11.1191 ], [ -0.2958, 11.1187 ], [ -0.2859, 11.1213 ], [ -0.2817, 11.1219 ], [ -0.2783, 11.1231 ], [ -0.2737, 11.1235 ], [ -0.2718, 11.1261 ], [ -0.2704, 11.1289 ], [ -0.2707, 11.1321 ], [ -0.2716, 11.1347 ], [ -0.2729, 11.1387 ], [ -0.2766, 11.1399 ], [ -0.2802, 11.1411 ], [ -0.2838, 11.1425 ], [ -0.2862, 11.1441 ], [ -0.2884, 11.1461 ], [ -0.2893, 11.1491 ], [ -0.288, 11.1517 ], [ -0.2846, 11.1541 ], [ -0.2845, 11.1585 ], [ -0.2844, 11.1631 ], [ -0.2837, 11.1667 ], [ -0.282, 11.1697 ], [ -0.2792, 11.1727 ], [ -0.2763, 11.1747 ], [ -0.2513, 11.1695 ], [ -0.2392, 11.1665 ], [ -0.2259, 11.1633 ] ] ] } }
]
}
