{
"type": "FeatureCollection",
"name": "togo_borders",
"crs": { "type": "name", "properties": { "name": "urn:ogc:def:crs:OGC:1.3:CRS84" } },
"features": [
{ "type": "Feature", "properties": { "ADM0_FR": "Togo" }, "geometry": { "type": "MultiLineString", "coordinates": [ [ [ -0.093511, 11.129291 ], [ -0.085415, 11.128785 ], [ -0.085588, 11.1292 ], [ -0.07621, 11.12832 ], [ -0.054657, 11.125489 ], [ -0.036135, 11.122104 ], [ -0.030737, 11.120796 ], [ -0.006473, 11.115713 ], [ 0.001746, 11.114539 ], [ 0.012119, 11.113762 ], [ 0.016745, 11.113277 ], [ 0.03551, 11.111309 ], [ 0.04211, 11.10911 ], [ 0.043083, 11.108786 ], [ 0.071539, 11.100744 ], [ 0.074451, 11.09958 ], [ 0.074632, 11.100126 ], [ 0.096686, 11.094297 ], [ 0.100767, 11.092949 ], [ 0.146084, 11.084483 ], [ 0.169802, 11.078431 ], [ 0.190313, 11.072288 ], [ 0.191302, 11.071582 ], [ 0.265602, 11.057005 ], [ 0.26654, 11.056578 ], [ 0.266627, 11.0568 ], [ 0.291228, 11.05065 ], [ 0.291528, 11.050425 ], [ 0.296353, 11.05024 ], [ 0.303119, 11.04983 ], [ 0.3144, 11.04866 ], [ 0.33264, 11.047575 ], [ 0.359261, 11.044742 ], [ 0.362, 11.044244 ], [ 0.392362, 11.037539 ], [ 0.399621, 11.036065 ], [ 0.413993, 11.03273 ], [ 0.436064, 11.026022 ], [ 0.444881, 11.023343 ], [ 0.503931, 11.012744 ], [ 0.504234, 11.009413 ], [ 0.50272, 11.004265 ], [ 0.497421, 10.995029 ], [ 0.491364, 10.986853 ], [ 0.494998, 10.984733 ], [ 0.507111, 10.984733 ], [ 0.509836, 10.977768 ], [ 0.509231, 10.952634 ], [ 0.500752, 10.936584 ], [ 0.537696, 10.957782 ], [ 0.550717, 10.967169 ], [ 0.575549, 10.978677 ], [ 0.582211, 10.978979 ], [ 0.590993, 10.975951 ], [ 0.595232, 10.978374 ], [ 0.597107, 10.979117 ], [ 0.611282, 10.984733 ], [ 0.626725, 10.993515 ], [ 0.639141, 10.999571 ], [ 0.650043, 10.99836 ], [ 0.65943, 10.998057 ], [ 0.670938, 10.997452 ], [ 0.684868, 10.997452 ], [ 0.696072, 10.997452 ], [ 0.704551, 10.997754 ], [ 0.714544, 10.99836 ], [ 0.731805, 10.997149 ], [ 0.741495, 10.99624 ], [ 0.755122, 10.997149 ], [ 0.761481, 10.996543 ], [ 0.76996, 10.996846 ], [ 0.787524, 10.997149 ], [ 0.788736, 10.996846 ], [ 0.830222, 10.996543 ], [ 0.848089, 10.997452 ], [ 0.854448, 10.995332 ], [ 0.868075, 10.995332 ], [ 0.891695, 10.996543 ], [ 0.897751, 10.998057 ], [ 0.901083, 10.995938 ], [ 0.912287, 10.996543 ], [ 0.906533, 10.972923 ], [ 0.900174, 10.954148 ], [ 0.899568, 10.944761 ], [ 0.890181, 10.920232 ], [ 0.891089, 10.912964 ], [ 0.898054, 10.893886 ], [ 0.90078, 10.886922 ], [ 0.885033, 10.861484 ], [ 0.883519, 10.856942 ], [ 0.881399, 10.848766 ], [ 0.879582, 10.837562 ], [ 0.877371, 10.825325 ], [ 0.877473, 10.825295 ], [ 0.873688, 10.806368 ], [ 0.86943, 10.797852 ], [ 0.86801, 10.795013 ], [ 0.851923, 10.775613 ], [ 0.845298, 10.765677 ], [ 0.840567, 10.758579 ], [ 0.836781, 10.754794 ], [ 0.829684, 10.738233 ], [ 0.825426, 10.727351 ], [ 0.823533, 10.719307 ], [ 0.819748, 10.71079 ], [ 0.815016, 10.704639 ], [ 0.813597, 10.697069 ], [ 0.81265, 10.691391 ], [ 0.812051, 10.680302 ], [ 0.811704, 10.673884 ], [ 0.811231, 10.663474 ], [ 0.810758, 10.655904 ], [ 0.809811, 10.640289 ], [ 0.809338, 10.625621 ], [ 0.808156, 10.61459 ], [ 0.808608, 10.610225 ], [ 0.80789, 10.604843 ], [ 0.807173, 10.59121 ], [ 0.806455, 10.581164 ], [ 0.80502, 10.573989 ], [ 0.801432, 10.55892 ], [ 0.798562, 10.552103 ], [ 0.791745, 10.535599 ], [ 0.78744, 10.519454 ], [ 0.783494, 10.512638 ], [ 0.782417, 10.502592 ], [ 0.782059, 10.497928 ], [ 0.783135, 10.494699 ], [ 0.782417, 10.483577 ], [ 0.781341, 10.474248 ], [ 0.781172, 10.474239 ], [ 0.781341, 10.47389 ], [ 0.778471, 10.448775 ], [ 0.778471, 10.444111 ], [ 0.777527, 10.443504 ], [ 0.777933, 10.443214 ], [ 0.775421, 10.419535 ], [ 0.774703, 10.412001 ], [ 0.775421, 10.405184 ], [ 0.77578, 10.398367 ], [ 0.775062, 10.392985 ], [ 0.774345, 10.385092 ], [ 0.823497, 10.351008 ], [ 0.839283, 10.33881 ], [ 0.846459, 10.331993 ], [ 0.859734, 10.320871 ], [ 0.871573, 10.311902 ], [ 0.901657, 10.289993 ], [ 0.937589, 10.263825 ], [ 0.953016, 10.251986 ], [ 0.952811, 10.251432 ], [ 0.954366, 10.250612 ], [ 0.993955, 10.217539 ], [ 0.996769, 10.215187 ], [ 0.99999, 10.220018 ], [ 1.001665, 10.218342 ], [ 1.134927, 10.142609 ], [ 1.157397, 10.129829 ], [ 1.310982, 10.042406 ], [ 1.313664, 10.040879 ], [ 1.341565, 10.024984 ], [ 1.364113, 10.012135 ], [ 1.365115, 10.003277 ], [ 1.366149, 10.002263 ], [ 1.366857, 9.974145 ], [ 1.366421, 9.947709 ], [ 1.363914, 9.885785 ], [ 1.366401, 9.823165 ], [ 1.366475, 9.808047 ], [ 1.366478, 9.807327 ], [ 1.365922, 9.807447 ], [ 1.366119, 9.806606 ], [ 1.366754, 9.750815 ], [ 1.366097, 9.739895 ], [ 1.36615, 9.73963 ], [ 1.36535, 9.727217 ], [ 1.363347, 9.697186 ], [ 1.36575, 9.683572 ], [ 1.365685, 9.683547 ], [ 1.36615, 9.682772 ], [ 1.369754, 9.66155 ], [ 1.366551, 9.649938 ], [ 1.366551, 9.611499 ], [ 1.358542, 9.588675 ], [ 1.34301, 9.548898 ], [ 1.342526, 9.545832 ], [ 1.347732, 9.536622 ], [ 1.359343, 9.507793 ], [ 1.358542, 9.490175 ], [ 1.36065, 9.487014 ], [ 1.362235, 9.486221 ], [ 1.365363, 9.485596 ], [ 1.375375, 9.491227 ], [ 1.389767, 9.497172 ], [ 1.394773, 9.479964 ], [ 1.398214, 9.453996 ], [ 1.398208, 9.453981 ], [ 1.398259, 9.453949 ], [ 1.398259, 9.449945 ], [ 1.400261, 9.444339 ], [ 1.400661, 9.434729 ], [ 1.39986, 9.428323 ], [ 1.39986, 9.422317 ], [ 1.401462, 9.416711 ], [ 1.401862, 9.413107 ], [ 1.401862, 9.405499 ], [ 1.401062, 9.399894 ], [ 1.39986, 9.395089 ], [ 1.401462, 9.389083 ], [ 1.402663, 9.381475 ], [ 1.402663, 9.371064 ], [ 1.403064, 9.355048 ], [ 1.407869, 9.335027 ], [ 1.413074, 9.325017 ], [ 1.413, 9.324461 ], [ 1.413042, 9.324488 ], [ 1.418072, 9.312973 ], [ 1.421417, 9.306945 ], [ 1.431143, 9.296549 ], [ 1.436966, 9.293004 ], [ 1.444546, 9.284207 ], [ 1.444623, 9.284278 ], [ 1.450159, 9.278898 ], [ 1.452966, 9.274766 ], [ 1.459905, 9.262057 ], [ 1.462011, 9.254728 ], [ 1.471679, 9.244748 ], [ 1.475421, 9.240771 ], [ 1.478658, 9.238705 ], [ 1.485207, 9.234338 ], [ 1.489885, 9.227633 ], [ 1.495967, 9.22085 ], [ 1.503764, 9.213209 ], [ 1.508598, 9.208374 ], [ 1.525868, 9.190948 ], [ 1.526324, 9.190437 ], [ 1.528614, 9.18975 ], [ 1.536148, 9.184956 ], [ 1.544367, 9.180161 ], [ 1.550874, 9.176736 ], [ 1.553614, 9.175024 ], [ 1.559436, 9.169887 ], [ 1.563546, 9.161667 ], [ 1.567998, 9.153106 ], [ 1.572792, 9.144886 ], [ 1.578957, 9.131872 ], [ 1.583067, 9.12742 ], [ 1.591971, 9.117146 ], [ 1.598136, 9.110981 ], [ 1.604643, 9.099337 ], [ 1.609437, 9.088721 ], [ 1.609542, 9.08815 ], [ 1.617657, 9.071597 ], [ 1.615602, 9.062693 ], [ 1.624506, 9.042144 ], [ 1.626219, 9.025363 ], [ 1.629986, 8.998992 ], [ 1.629177, 8.998374 ], [ 1.628616, 8.995568 ], [ 1.627931, 8.990773 ], [ 1.623821, 8.974677 ], [ 1.625876, 8.972279 ], [ 1.622109, 8.955156 ], [ 1.623479, 8.945567 ], [ 1.625876, 8.921936 ], [ 1.625666, 8.921263 ], [ 1.626561, 8.914401 ], [ 1.626903, 8.907894 ], [ 1.628616, 8.895565 ], [ 1.630328, 8.880154 ], [ 1.632726, 8.860291 ], [ 1.632726, 8.852414 ], [ 1.631698, 8.847619 ], [ 1.631013, 8.839057 ], [ 1.628958, 8.830495 ], [ 1.631355, 8.820906 ], [ 1.631698, 8.816796 ], [ 1.631669, 8.816313 ], [ 1.631869, 8.816625 ], [ 1.632554, 8.811831 ], [ 1.632897, 8.804981 ], [ 1.632897, 8.799844 ], [ 1.633582, 8.796077 ], [ 1.633239, 8.78409 ], [ 1.632554, 8.778953 ], [ 1.632554, 8.750185 ], [ 1.632554, 8.722103 ], [ 1.632212, 8.69539 ], [ 1.631698, 8.679464 ], [ 1.631355, 8.673985 ], [ 1.630328, 8.661313 ], [ 1.629301, 8.654806 ], [ 1.628616, 8.650697 ], [ 1.628616, 8.647614 ], [ 1.630328, 8.635628 ], [ 1.630328, 8.633566 ], [ 1.637504, 8.508925 ], [ 1.641287, 8.503433 ], [ 1.649164, 8.490761 ], [ 1.649507, 8.481172 ], [ 1.650192, 8.478432 ], [ 1.649922, 8.478124 ], [ 1.650547, 8.47829 ], [ 1.646401, 8.469837 ], [ 1.646091, 8.467455 ], [ 1.642877, 8.455003 ], [ 1.640869, 8.43974 ], [ 1.639664, 8.43251 ], [ 1.643279, 8.427288 ], [ 1.645287, 8.424074 ], [ 1.646091, 8.417246 ], [ 1.643681, 8.413229 ], [ 1.637254, 8.410418 ], [ 1.633237, 8.403991 ], [ 1.629622, 8.392343 ], [ 1.62681, 8.379891 ], [ 1.626007, 8.367037 ], [ 1.626007, 8.357799 ], [ 1.625318, 8.351598 ], [ 1.630426, 8.343741 ], [ 1.636852, 8.339724 ], [ 1.638057, 8.327674 ], [ 1.641271, 8.30036 ], [ 1.64114, 8.300001 ], [ 1.641271, 8.299557 ], [ 1.636049, 7.991477 ], [ 1.634844, 7.95613 ], [ 1.634041, 7.920984 ], [ 1.633639, 7.917369 ], [ 1.632717, 7.917295 ], [ 1.634041, 7.903172 ], [ 1.634041, 7.896896 ], [ 1.632158, 7.886227 ], [ 1.63153, 7.852336 ], [ 1.629647, 7.826604 ], [ 1.635296, 7.810286 ], [ 1.635924, 7.796479 ], [ 1.632785, 7.731835 ], [ 1.632158, 7.711124 ], [ 1.630903, 7.676606 ], [ 1.631154, 7.675764 ], [ 1.631475, 7.661304 ], [ 1.636938, 7.641382 ], [ 1.650755, 7.613425 ], [ 1.649148, 7.558798 ], [ 1.64947, 7.548194 ], [ 1.651398, 7.542732 ], [ 1.653004, 7.535662 ], [ 1.659254, 7.521287 ], [ 1.660074, 7.52072 ], [ 1.66875, 7.518149 ], [ 1.669071, 7.515579 ], [ 1.670356, 7.513008 ], [ 1.675498, 7.506581 ], [ 1.677105, 7.501119 ], [ 1.677426, 7.497584 ], [ 1.675498, 7.494371 ], [ 1.65429, 7.494371 ], [ 1.648184, 7.492443 ], [ 1.644007, 7.485695 ], [ 1.642079, 7.468342 ], [ 1.635652, 7.416608 ], [ 1.634919, 7.400688 ], [ 1.635968, 7.391041 ], [ 1.635968, 7.345373 ], [ 1.635968, 7.323962 ], [ 1.63637, 7.262507 ], [ 1.636537, 7.247918 ], [ 1.636771, 7.246842 ], [ 1.637574, 7.205871 ], [ 1.636071, 7.205971 ], [ 1.637615, 7.205803 ], [ 1.637173, 7.197436 ], [ 1.63756, 7.128065 ], [ 1.637574, 7.125537 ], [ 1.637513, 7.125461 ], [ 1.63776, 7.12006 ], [ 1.639399, 7.075919 ], [ 1.639772, 7.067289 ], [ 1.641587, 6.99399 ], [ 1.607445, 6.995597 ], [ 1.598207, 6.99399 ], [ 1.590976, 6.99399 ], [ 1.587361, 6.994793 ], [ 1.587361, 6.997605 ], [ 1.558156, 6.998 ], [ 1.557638, 6.998007 ], [ 1.557616, 6.998024 ], [ 1.557616, 6.995218 ], [ 1.559625, 6.984674 ], [ 1.559123, 6.971118 ], [ 1.567658, 6.960574 ], [ 1.575691, 6.946516 ], [ 1.576688, 6.922085 ], [ 1.582478, 6.915938 ], [ 1.592804, 6.910131 ], [ 1.605186, 6.906047 ], [ 1.605555, 6.89712 ], [ 1.603857, 6.890591 ], [ 1.606626, 6.883388 ], [ 1.596348, 6.8734 ], [ 1.594647, 6.867558 ], [ 1.595689, 6.863784 ], [ 1.601905, 6.852814 ], [ 1.60126, 6.83839 ], [ 1.599561, 6.831861 ], [ 1.603698, 6.827066 ], [ 1.611595, 6.828462 ], [ 1.613312, 6.82881 ], [ 1.61504, 6.825381 ], [ 1.608188, 6.818837 ], [ 1.604071, 6.816765 ], [ 1.59893, 6.81263 ], [ 1.597513, 6.808337 ], [ 1.596887, 6.806443 ], [ 1.598621, 6.800611 ], [ 1.608929, 6.799954 ], [ 1.611339, 6.798244 ], [ 1.61342, 6.791382 ], [ 1.610007, 6.783474 ], [ 1.60865, 6.777633 ], [ 1.608327, 6.770421 ], [ 1.622084, 6.764623 ], [ 1.625876, 6.759826 ], [ 1.624993, 6.759647 ], [ 1.620589, 6.755466 ], [ 1.618129, 6.750789 ], [ 1.620892, 6.745578 ], [ 1.61953, 6.741453 ], [ 1.614044, 6.737866 ], [ 1.608286, 6.733729 ], [ 1.600064, 6.726014 ], [ 1.59292, 6.725994 ], [ 1.591021, 6.717198 ], [ 1.592152, 6.706213 ], [ 1.589689, 6.702909 ], [ 1.584747, 6.701522 ], [ 1.581199, 6.69327 ], [ 1.576526, 6.693806 ], [ 1.573793, 6.688854 ], [ 1.577691, 6.685706 ], [ 1.579248, 6.685496 ], [ 1.590242, 6.684154 ], [ 1.593564, 6.675373 ], [ 1.603755, 6.666337 ], [ 1.611518, 6.641635 ], [ 1.608228, 6.638879 ], [ 1.603014, 6.636941 ], [ 1.603032, 6.630349 ], [ 1.608537, 6.626793 ], [ 1.610191, 6.624875 ], [ 1.610747, 6.622404 ], [ 1.612961, 6.616641 ], [ 1.612428, 6.610871 ], [ 1.616008, 6.607584 ], [ 1.618488, 6.604844 ], [ 1.621795, 6.601282 ], [ 1.627009, 6.603219 ], [ 1.633054, 6.602687 ], [ 1.636632, 6.600499 ], [ 1.641036, 6.583085 ], [ 1.641413, 6.582811 ], [ 1.643616, 6.580839 ], [ 1.650654, 6.57888 ], [ 1.65615, 6.577796 ], [ 1.658997, 6.58154 ], [ 1.662726, 6.584187 ], [ 1.670195, 6.585526 ], [ 1.674157, 6.583119 ], [ 1.675705, 6.579606 ], [ 1.674184, 6.573009 ], [ 1.666408, 6.563429 ], [ 1.6684, 6.55794 ], [ 1.670823, 6.555968 ], [ 1.673899, 6.556196 ], [ 1.683996, 6.560618 ], [ 1.68775, 6.553595 ], [ 1.696321, 6.553398 ], [ 1.696544, 6.552299 ], [ 1.698533, 6.548129 ], [ 1.695689, 6.542847 ], [ 1.701859, 6.53627 ], [ 1.702359, 6.512975 ], [ 1.696865, 6.512961 ], [ 1.694237, 6.509657 ], [ 1.69425, 6.504603 ], [ 1.695579, 6.50043 ], [ 1.703273, 6.499132 ], [ 1.705914, 6.4976 ], [ 1.708767, 6.498926 ], [ 1.712499, 6.500254 ], [ 1.716903, 6.496529 ], [ 1.719543, 6.495437 ], [ 1.721293, 6.498518 ], [ 1.722604, 6.501598 ], [ 1.725899, 6.501826 ], [ 1.727226, 6.498533 ], [ 1.72899, 6.49612 ], [ 1.72878, 6.491944 ], [ 1.73033, 6.487552 ], [ 1.735168, 6.486026 ], [ 1.737597, 6.480977 ], [ 1.733873, 6.476352 ], [ 1.736295, 6.47438 ], [ 1.740689, 6.474831 ], [ 1.744654, 6.470885 ], [ 1.750823, 6.464087 ], [ 1.75303, 6.459697 ], [ 1.75436, 6.455084 ], [ 1.753053, 6.450466 ], [ 1.753945, 6.445193 ], [ 1.757708, 6.433554 ], [ 1.764754, 6.427198 ], [ 1.772667, 6.425898 ], [ 1.776393, 6.429423 ], [ 1.780794, 6.426797 ], [ 1.780587, 6.421302 ], [ 1.777521, 6.417558 ], [ 1.77563, 6.417553 ], [ 1.775856, 6.415782 ], [ 1.775335, 6.412792 ], [ 1.769538, 6.411547 ], [ 1.769216, 6.399239 ], [ 1.774325, 6.394152 ], [ 1.770816, 6.391682 ], [ 1.772425, 6.380258 ], [ 1.779113, 6.376405 ], [ 1.781931, 6.37395 ], [ 1.785118, 6.363936 ], [ 1.789368, 6.34988 ], [ 1.787801, 6.343898 ], [ 1.784295, 6.339846 ], [ 1.782715, 6.339139 ], [ 1.78695, 6.33194 ], [ 1.792405, 6.328788 ], [ 1.795056, 6.322464 ], [ 1.798415, 6.313505 ], [ 1.797903, 6.306822 ], [ 1.789654, 6.302759 ], [ 1.791378, 6.300133 ], [ 1.795649, 6.29363 ], [ 1.801451, 6.292412 ], [ 1.805496, 6.291015 ], [ 1.807527, 6.28636 ], [ 1.80718, 6.284425 ], [ 1.799984, 6.280892 ], [ 1.770285, 6.281878 ], [ 1.769071, 6.275194 ], [ 1.764159, 6.271842 ], [ 1.749225, 6.271279 ], [ 1.736414, 6.264567 ], [ 1.709901, 6.256766 ], [ 1.694615, 6.256729 ], [ 1.689793, 6.252761 ], [ 1.68412, 6.253729 ], [ 1.680652, 6.25432 ], [ 1.668195, 6.247608 ], [ 1.648163, 6.248436 ], [ 1.648039, 6.248396 ], [ 1.629379, 6.242409 ], [ 1.627665, 6.225702 ], [ 1.619419, 6.223301 ], [ 1.60695, 6.21967 ], [ 1.589564, 6.216934 ], [ 1.587633, 6.21663 ], [ 1.587449, 6.216737 ], [ 1.587501, 6.216276 ], [ 1.558345, 6.212763 ], [ 1.542068, 6.204993 ], [ 1.533492, 6.20454 ], [ 1.500483, 6.198868 ], [ 1.468777, 6.188047 ], [ 1.456345, 6.186294 ], [ 1.433627, 6.182365 ], [ 1.433484, 6.182313 ], [ 1.433357, 6.18232 ], [ 1.432585, 6.182234 ], [ 1.430227, 6.181848 ], [ 1.41402, 6.179276 ], [ 1.407975, 6.178333 ], [ 1.406474, 6.177904 ], [ 1.404416, 6.177389 ], [ 1.399143, 6.177046 ], [ 1.396356, 6.176232 ], [ 1.392754, 6.17516 ], [ 1.389286, 6.174155 ], [ 1.387189, 6.173407 ], [ 1.384845, 6.172751 ], [ 1.380373, 6.171316 ], [ 1.376488, 6.170664 ], [ 1.374295, 6.169938 ], [ 1.372969, 6.169532 ], [ 1.371582, 6.168848 ], [ 1.367108, 6.167784 ], [ 1.365536, 6.167131 ], [ 1.362481, 6.166812 ], [ 1.359056, 6.166153 ], [ 1.357082, 6.165405 ], [ 1.35511, 6.164441 ], [ 1.352345, 6.163475 ], [ 1.349682, 6.162602 ], [ 1.347431, 6.16176 ], [ 1.345859, 6.161014 ], [ 1.345119, 6.160703 ], [ 1.342403, 6.160262 ], [ 1.340868, 6.159655 ], [ 1.339181, 6.159204 ], [ 1.337236, 6.158325 ], [ 1.332732, 6.156788 ], [ 1.332111, 6.156582 ], [ 1.330814, 6.156086 ], [ 1.326875, 6.154662 ], [ 1.324919, 6.154108 ], [ 1.323872, 6.153687 ], [ 1.321722, 6.152975 ], [ 1.320703, 6.152452 ], [ 1.319814, 6.151985 ], [ 1.317256, 6.151336 ], [ 1.315397, 6.150601 ], [ 1.314272, 6.150157 ], [ 1.310176, 6.148834 ], [ 1.308851, 6.148459 ], [ 1.307433, 6.147907 ], [ 1.305032, 6.147212 ], [ 1.302392, 6.146256 ], [ 1.299915, 6.145384 ], [ 1.297471, 6.144597 ], [ 1.295006, 6.143791 ], [ 1.29395, 6.143305 ], [ 1.292585, 6.142824 ], [ 1.2909, 6.142496 ], [ 1.289759, 6.142474 ], [ 1.288488, 6.142684 ], [ 1.286856, 6.142372 ], [ 1.284522, 6.14113 ], [ 1.282476, 6.139963 ], [ 1.282272, 6.139841 ], [ 1.280308, 6.139009 ], [ 1.278558, 6.138112 ], [ 1.276927, 6.137605 ], [ 1.275806, 6.137081 ], [ 1.273016, 6.136422 ], [ 1.270671, 6.135672 ], [ 1.269939, 6.135447 ], [ 1.268446, 6.135089 ], [ 1.266176, 6.134274 ], [ 1.264555, 6.133637 ], [ 1.26323, 6.133095 ], [ 1.261423, 6.13255 ], [ 1.258679, 6.131984 ], [ 1.25716, 6.131246 ], [ 1.255623, 6.130247 ], [ 1.253817, 6.129545 ], [ 1.252187, 6.128621 ], [ 1.250048, 6.127629 ], [ 1.249696, 6.127452 ], [ 1.248083, 6.126871 ], [ 1.246532, 6.126332 ], [ 1.244988, 6.126016 ], [ 1.244282, 6.125768 ], [ 1.243552, 6.125538 ], [ 1.241864, 6.125235 ], [ 1.240374, 6.124394 ], [ 1.240142, 6.124254 ], [ 1.239206, 6.123899 ], [ 1.237863, 6.123383 ], [ 1.236556, 6.123026 ], [ 1.234321, 6.123 ], [ 1.232056, 6.122159 ], [ 1.231264, 6.121783 ], [ 1.230292, 6.121158 ], [ 1.228605, 6.120716 ], [ 1.226752, 6.119939 ], [ 1.224121, 6.118946 ], [ 1.22227, 6.117631 ], [ 1.220334, 6.116761 ], [ 1.217407, 6.115721 ], [ 1.215045, 6.114515 ], [ 1.21421, 6.114531 ], [ 1.212544, 6.113616 ], [ 1.209181, 6.112323 ], [ 1.204031, 6.110078 ], [ 1.20370215600002, 6.109968 ], [ 1.200155338000059, 6.10964976300005 ], [ 1.19763209000007, 6.109417699000062 ], [ 1.196370595000076, 6.109325843000022 ], [ 1.19436973400002, 6.109335547000057 ], [ 1.193268358000068, 6.109322970000051 ], [ 1.191769958000066, 6.109305859000074 ], [ 1.191762653000069, 6.112061132000065 ], [ 1.19175658000006, 6.114351505000059 ], [ 1.191751928000031, 6.116106424000066 ], [ 1.191747590000034, 6.117742292000059 ], [ 1.191741992000061, 6.119853970000065 ], [ 1.191736879000075, 6.12178218300005 ], [ 1.191725681000037, 6.126005854000027 ], [ 1.191716061000022, 6.129634192000026 ], [ 1.191702813000063, 6.134630867000055 ], [ 1.19169082600007, 6.139152284000033 ], [ 1.191677262000042, 6.144268089000036 ], [ 1.191668115000027, 6.147717968000052 ], [ 1.191657765000059, 6.151643756000055 ], [ 1.191648961000055, 6.155018806000044 ], [ 1.189630102000024, 6.154998139000043 ], [ 1.187071841000034, 6.154971949000071 ], [ 1.183148585000026, 6.154931733000069 ], [ 1.180055001000028, 6.154900004000069 ], [ 1.177376559000038, 6.15487253200007 ], [ 1.173686952000025, 6.15483469000003 ], [ 1.171182037000051, 6.154808998000021 ], [ 1.165897012000073, 6.156652928000028 ], [ 1.160243175000062, 6.156571267000061 ], [ 1.156009486000073, 6.156510085000036 ], [ 1.151079452000033, 6.155580525000062 ], [ 1.14588999800003, 6.15460205100004 ], [ 1.140861130000076, 6.155269793000059 ], [ 1.138074894000056, 6.155639754000049 ], [ 1.132490537000024, 6.156381255000042 ], [ 1.129209729000024, 6.156816887000048 ], [ 1.124968052000042, 6.157380104000026 ], [ 1.12389879400007, 6.157354299000076 ], [ 1.113848553000025, 6.157111753000038 ], [ 1.10657298600006, 6.156936169000062 ], [ 1.103399359000036, 6.157317910000074 ], [ 1.097267940000052, 6.158055430000047 ], [ 1.091168047000053, 6.158789158000047 ], [ 1.085880995000025, 6.16247415600003 ], [ 1.085507423000024, 6.164889029000051 ], [ 1.084979, 6.168375 ], [ 1.084511, 6.170392 ], [ 1.08475, 6.172836 ], [ 1.081424, 6.180172 ], [ 1.058295, 6.220254 ], [ 1.048658, 6.228801 ], [ 1.04144, 6.23255 ], [ 1.04056, 6.234014 ], [ 1.029751, 6.239372 ], [ 1.025619, 6.243476 ], [ 1.002743, 6.30518 ], [ 1.002435, 6.306653 ], [ 1.00212, 6.306544 ], [ 0.9961, 6.324051 ], [ 0.967692, 6.322868 ], [ 0.965482, 6.323484 ], [ 0.965548, 6.322859 ], [ 0.961259, 6.322843 ], [ 0.929634, 6.322181 ], [ 0.903908, 6.321005 ], [ 0.893121, 6.337052 ], [ 0.869957, 6.364847 ], [ 0.859731, 6.374458 ], [ 0.843061, 6.386724 ], [ 0.835006, 6.389908 ], [ 0.82373, 6.394151 ], [ 0.812465, 6.395712 ], [ 0.799058, 6.396728 ], [ 0.788863, 6.398829 ], [ 0.788361, 6.400573 ], [ 0.786051, 6.404463 ], [ 0.782434, 6.415706 ], [ 0.776092, 6.422268 ], [ 0.7626, 6.43182 ], [ 0.756837, 6.43152 ], [ 0.74856, 6.441094 ], [ 0.741332, 6.461655 ], [ 0.727804, 6.478893 ], [ 0.726953, 6.485205 ], [ 0.724472, 6.48739 ], [ 0.721115, 6.501378 ], [ 0.719716, 6.507138 ], [ 0.71859, 6.513448 ], [ 0.718738, 6.517526 ], [ 0.7183, 6.516742 ], [ 0.713765, 6.519927 ], [ 0.713189, 6.523017 ], [ 0.712954, 6.52526 ], [ 0.713168, 6.527656 ], [ 0.714139, 6.530472 ], [ 0.716624, 6.533379 ], [ 0.720157, 6.536123 ], [ 0.738092, 6.553293 ], [ 0.74002, 6.570323 ], [ 0.73745, 6.577071 ], [ 0.726845, 6.585426 ], [ 0.715599, 6.584783 ], [ 0.702746, 6.580606 ], [ 0.691177, 6.578357 ], [ 0.681216, 6.583819 ], [ 0.688285, 6.592174 ], [ 0.686036, 6.597958 ], [ 0.685993, 6.598714 ], [ 0.685293, 6.598493 ], [ 0.679946, 6.606924 ], [ 0.670897, 6.611243 ], [ 0.658558, 6.606513 ], [ 0.653211, 6.610009 ], [ 0.651566, 6.614328 ], [ 0.646013, 6.620703 ], [ 0.642929, 6.628313 ], [ 0.637787, 6.63222 ], [ 0.635936, 6.640857 ], [ 0.635319, 6.650729 ], [ 0.639227, 6.667181 ], [ 0.639638, 6.674585 ], [ 0.643751, 6.692477 ], [ 0.6419, 6.701937 ], [ 0.644779, 6.712014 ], [ 0.641283, 6.726615 ], [ 0.646219, 6.741011 ], [ 0.643751, 6.745124 ], [ 0.640049, 6.748004 ], [ 0.632646, 6.74862 ], [ 0.628944, 6.74862 ], [ 0.62892, 6.748739 ], [ 0.628872, 6.748674 ], [ 0.623739, 6.753939 ], [ 0.620581, 6.754729 ], [ 0.619001, 6.754466 ], [ 0.607419, 6.753281 ], [ 0.596758, 6.760388 ], [ 0.587676, 6.762758 ], [ 0.576488, 6.76131 ], [ 0.572277, 6.765258 ], [ 0.571224, 6.770128 ], [ 0.57096, 6.771708 ], [ 0.57175, 6.778157 ], [ 0.569776, 6.783422 ], [ 0.567012, 6.786054 ], [ 0.567628, 6.786694 ], [ 0.570189, 6.791695 ], [ 0.566504, 6.799987 ], [ 0.568873, 6.803278 ], [ 0.572427, 6.803541 ], [ 0.577297, 6.801172 ], [ 0.579403, 6.799592 ], [ 0.580719, 6.79775 ], [ 0.581246, 6.798671 ], [ 0.57914, 6.80512 ], [ 0.577823, 6.807621 ], [ 0.568888, 6.8126 ], [ 0.568675, 6.81323 ], [ 0.568659, 6.813191 ], [ 0.568291, 6.813518 ], [ 0.559182, 6.821614 ], [ 0.558972, 6.821614 ], [ 0.555286, 6.825194 ], [ 0.5476, 6.827722 ], [ 0.54423, 6.825826 ], [ 0.539071, 6.82709 ], [ 0.536755, 6.825721 ], [ 0.530121, 6.825826 ], [ 0.528015, 6.842989 ], [ 0.530226, 6.850044 ], [ 0.530617, 6.850301 ], [ 0.531806, 6.854361 ], [ 0.534859, 6.863101 ], [ 0.538749, 6.869908 ], [ 0.538357, 6.870345 ], [ 0.53765, 6.872357 ], [ 0.538985, 6.876023 ], [ 0.541756, 6.879306 ], [ 0.547337, 6.880991 ], [ 0.55153, 6.887128 ], [ 0.557494, 6.901524 ], [ 0.557775, 6.907232 ], [ 0.558111, 6.914069 ], [ 0.555232, 6.922912 ], [ 0.546183, 6.933401 ], [ 0.541453, 6.935663 ], [ 0.537546, 6.936074 ], [ 0.535078, 6.936897 ], [ 0.531787, 6.937925 ], [ 0.526235, 6.93957 ], [ 0.514718, 6.948414 ], [ 0.516569, 6.966717 ], [ 0.519859, 6.968773 ], [ 0.520888, 6.970213 ], [ 0.522738, 6.974326 ], [ 0.530348, 6.978028 ], [ 0.531294, 6.978476 ], [ 0.530965, 6.978645 ], [ 0.5359, 6.981935 ], [ 0.541659, 6.986665 ], [ 0.557494, 6.999827 ], [ 0.558934, 7.000033 ], [ 0.571273, 7.005586 ], [ 0.583201, 7.017102 ], [ 0.585874, 7.020598 ], [ 0.589782, 7.023066 ], [ 0.598831, 7.028413 ], [ 0.59949, 7.030172 ], [ 0.599036, 7.033349 ], [ 0.597391, 7.042192 ], [ 0.59554, 7.058439 ], [ 0.59554, 7.059878 ], [ 0.597186, 7.066048 ], [ 0.601093, 7.070161 ], [ 0.601251, 7.07024 ], [ 0.610455, 7.080395 ], [ 0.613346, 7.08875 ], [ 0.614395, 7.092195 ], [ 0.613119, 7.095172 ], [ 0.61174, 7.09839 ], [ 0.603385, 7.110922 ], [ 0.600172, 7.116706 ], [ 0.598244, 7.121526 ], [ 0.598244, 7.132773 ], [ 0.605956, 7.149482 ], [ 0.617408, 7.165563 ], [ 0.621059, 7.170691 ], [ 0.624593, 7.178724 ], [ 0.624894, 7.179641 ], [ 0.631662, 7.200253 ], [ 0.636161, 7.22821 ], [ 0.639649, 7.249056 ], [ 0.643231, 7.270465 ], [ 0.643231, 7.280105 ], [ 0.643231, 7.281391 ], [ 0.653835, 7.302599 ], [ 0.656084, 7.311596 ], [ 0.657048, 7.31738 ], [ 0.653192, 7.328627 ], [ 0.652228, 7.334732 ], [ 0.650402, 7.347776 ], [ 0.649979, 7.350799 ], [ 0.64548, 7.359957 ], [ 0.646123, 7.366705 ], [ 0.647729, 7.371847 ], [ 0.648616, 7.37559 ], [ 0.648049, 7.375391 ], [ 0.646041, 7.38945 ], [ 0.642828, 7.393065 ], [ 0.642388, 7.393706 ], [ 0.642426, 7.393467 ], [ 0.634794, 7.397483 ], [ 0.628367, 7.4015 ], [ 0.61471, 7.402303 ], [ 0.603865, 7.39668 ], [ 0.596234, 7.392262 ], [ 0.584987, 7.389048 ], [ 0.57856, 7.387441 ], [ 0.570527, 7.387843 ], [ 0.560485, 7.390655 ], [ 0.551649, 7.397885 ], [ 0.545624, 7.398688 ], [ 0.534778, 7.409132 ], [ 0.531967, 7.416362 ], [ 0.53036, 7.418772 ], [ 0.529155, 7.432429 ], [ 0.525138, 7.446487 ], [ 0.519515, 7.451307 ], [ 0.513892, 7.448897 ], [ 0.512686, 7.454922 ], [ 0.502243, 7.463759 ], [ 0.508268, 7.472194 ], [ 0.515498, 7.476612 ], [ 0.517105, 7.483842 ], [ 0.515498, 7.490671 ], [ 0.515616, 7.491344 ], [ 0.515097, 7.491474 ], [ 0.512686, 7.502319 ], [ 0.509875, 7.514771 ], [ 0.510007, 7.515267 ], [ 0.509072, 7.518386 ], [ 0.508268, 7.524411 ], [ 0.513088, 7.545298 ], [ 0.517506, 7.558954 ], [ 0.517506, 7.571406 ], [ 0.517908, 7.587473 ], [ 0.527548, 7.594301 ], [ 0.536787, 7.599925 ], [ 0.545222, 7.600728 ], [ 0.548435, 7.607155 ], [ 0.557673, 7.608761 ], [ 0.572134, 7.614385 ], [ 0.576954, 7.616424 ], [ 0.576954, 7.621213 ], [ 0.575749, 7.626435 ], [ 0.573339, 7.632861 ], [ 0.574142, 7.648527 ], [ 0.578962, 7.671823 ], [ 0.579765, 7.676643 ], [ 0.589807, 7.70717 ], [ 0.597037, 7.707974 ], [ 0.607882, 7.706769 ], [ 0.611096, 7.705564 ], [ 0.615916, 7.701949 ], [ 0.617522, 7.70476 ], [ 0.616317, 7.70958 ], [ 0.61673, 7.711109 ], [ 0.616317, 7.711187 ], [ 0.611497, 7.732877 ], [ 0.608284, 7.744927 ], [ 0.608284, 7.752961 ], [ 0.611899, 7.757781 ], [ 0.614052, 7.760293 ], [ 0.614381, 7.761018 ], [ 0.615846, 7.769077 ], [ 0.61471, 7.772484 ], [ 0.612439, 7.77589 ], [ 0.609411, 7.778919 ], [ 0.609033, 7.786111 ], [ 0.610546, 7.789139 ], [ 0.613575, 7.797845 ], [ 0.613953, 7.814122 ], [ 0.615846, 7.824721 ], [ 0.615468, 7.831913 ], [ 0.615846, 7.836455 ], [ 0.621902, 7.859545 ], [ 0.618174, 7.880421 ], [ 0.618117, 7.880364 ], [ 0.616224, 7.884528 ], [ 0.615846, 7.890584 ], [ 0.616015, 7.890984 ], [ 0.615846, 7.890963 ], [ 0.615089, 7.897776 ], [ 0.611682, 7.906861 ], [ 0.613575, 7.920867 ], [ 0.609411, 7.923516 ], [ 0.597677, 7.975753 ], [ 0.601083, 7.999979 ], [ 0.606761, 8.003386 ], [ 0.607221, 8.003678 ], [ 0.606572, 8.008874 ], [ 0.60203, 8.025529 ], [ 0.59673, 8.038021 ], [ 0.598623, 8.04597 ], [ 0.592188, 8.071331 ], [ 0.591052, 8.089501 ], [ 0.591052, 8.108427 ], [ 0.591201, 8.108718 ], [ 0.591201, 8.113035 ], [ 0.591589, 8.121175 ], [ 0.595465, 8.135516 ], [ 0.602889, 8.140327 ], [ 0.603544, 8.144387 ], [ 0.603165, 8.155364 ], [ 0.603165, 8.161421 ], [ 0.602408, 8.168234 ], [ 0.600894, 8.173912 ], [ 0.59938, 8.178833 ], [ 0.591431, 8.187539 ], [ 0.589917, 8.191703 ], [ 0.589538, 8.196624 ], [ 0.591431, 8.200788 ], [ 0.594459, 8.20533 ], [ 0.60203, 8.209494 ], [ 0.613385, 8.216307 ], [ 0.623606, 8.220471 ], [ 0.623868, 8.22067 ], [ 0.623858, 8.220694 ], [ 0.625796, 8.232129 ], [ 0.630447, 8.237361 ], [ 0.631998, 8.237943 ], [ 0.637812, 8.248215 ], [ 0.641107, 8.257323 ], [ 0.643626, 8.25868 ], [ 0.64388, 8.258455 ], [ 0.645932, 8.259052 ], [ 0.653154, 8.259454 ], [ 0.658576, 8.258766 ], [ 0.665435, 8.259526 ], [ 0.668681, 8.260265 ], [ 0.67553, 8.262823 ], [ 0.676956, 8.26607 ], [ 0.684846, 8.275832 ], [ 0.693127, 8.280558 ], [ 0.696733, 8.281658 ], [ 0.701427, 8.282045 ], [ 0.712997, 8.280312 ], [ 0.72454, 8.283257 ], [ 0.728115, 8.289754 ], [ 0.730207, 8.303081 ], [ 0.730487, 8.317117 ], [ 0.729694, 8.329347 ], [ 0.730131, 8.331329 ], [ 0.730043, 8.331508 ], [ 0.730173, 8.331518 ], [ 0.730203, 8.331655 ], [ 0.728949, 8.333301 ], [ 0.723505, 8.337588 ], [ 0.71986, 8.342965 ], [ 0.721972, 8.352693 ], [ 0.714718, 8.357329 ], [ 0.713601, 8.36308 ], [ 0.714441, 8.364052 ], [ 0.713583, 8.364639 ], [ 0.714084, 8.384159 ], [ 0.708578, 8.387663 ], [ 0.708578, 8.389164 ], [ 0.708078, 8.396172 ], [ 0.702072, 8.398674 ], [ 0.697567, 8.397673 ], [ 0.693563, 8.402678 ], [ 0.685554, 8.409685 ], [ 0.677046, 8.41419 ], [ 0.664533, 8.419696 ], [ 0.658527, 8.430707 ], [ 0.657526, 8.441218 ], [ 0.656142, 8.462439 ], [ 0.655524, 8.46274 ], [ 0.649518, 8.483261 ], [ 0.644513, 8.491269 ], [ 0.628496, 8.500278 ], [ 0.624492, 8.509287 ], [ 0.616985, 8.513291 ], [ 0.617284, 8.513536 ], [ 0.614982, 8.513291 ], [ 0.600467, 8.517796 ], [ 0.585452, 8.5218 ], [ 0.578445, 8.526805 ], [ 0.558424, 8.550329 ], [ 0.548915, 8.554834 ], [ 0.540906, 8.557336 ], [ 0.536903, 8.559338 ], [ 0.537403, 8.564344 ], [ 0.535901, 8.568348 ], [ 0.532898, 8.573853 ], [ 0.527893, 8.573853 ], [ 0.518884, 8.567847 ], [ 0.513378, 8.569349 ], [ 0.509374, 8.575855 ], [ 0.503368, 8.578858 ], [ 0.500865, 8.582863 ], [ 0.497362, 8.591371 ], [ 0.49586, 8.594374 ], [ 0.491356, 8.597878 ], [ 0.484349, 8.599379 ], [ 0.47634, 8.597878 ], [ 0.472837, 8.597878 ], [ 0.468332, 8.603384 ], [ 0.46633, 8.605886 ], [ 0.456236, 8.622405 ], [ 0.449813, 8.632914 ], [ 0.437801, 8.653435 ], [ 0.434298, 8.662945 ], [ 0.427791, 8.671453 ], [ 0.422786, 8.67796 ], [ 0.406269, 8.701484 ], [ 0.394257, 8.715999 ], [ 0.38775, 8.724508 ], [ 0.382244, 8.735519 ], [ 0.378741, 8.743527 ], [ 0.376739, 8.749033 ], [ 0.381243, 8.749533 ], [ 0.384747, 8.752036 ], [ 0.386248, 8.757541 ], [ 0.391253, 8.757541 ], [ 0.395758, 8.760044 ], [ 0.395258, 8.763548 ], [ 0.393255, 8.766551 ], [ 0.38825, 8.771556 ], [ 0.384246, 8.779564 ], [ 0.385748, 8.786571 ], [ 0.391253, 8.791576 ], [ 0.396258, 8.793578 ], [ 0.404267, 8.792577 ], [ 0.408271, 8.792077 ], [ 0.413276, 8.79508 ], [ 0.418782, 8.794079 ], [ 0.423787, 8.789074 ], [ 0.42679, 8.784068 ], [ 0.432296, 8.783568 ], [ 0.434798, 8.784068 ], [ 0.436278, 8.785312 ], [ 0.435799, 8.786571 ], [ 0.437801, 8.790575 ], [ 0.432296, 8.798083 ], [ 0.434798, 8.800085 ], [ 0.437301, 8.801586 ], [ 0.441805, 8.802587 ], [ 0.44681, 8.806592 ], [ 0.451815, 8.809094 ], [ 0.455319, 8.808594 ], [ 0.46583, 8.796081 ], [ 0.467832, 8.796081 ], [ 0.471335, 8.796581 ], [ 0.483848, 8.803588 ], [ 0.491356, 8.807092 ], [ 0.497362, 8.812598 ], [ 0.498864, 8.82461 ], [ 0.502367, 8.841127 ], [ 0.50486, 8.842041 ], [ 0.510867, 8.847693 ], [ 0.517483, 8.854361 ], [ 0.518405, 8.858626 ], [ 0.517422, 8.863351 ], [ 0.519281, 8.869988 ], [ 0.523077, 8.871432 ], [ 0.52689, 8.870511 ], [ 0.528285, 8.875252 ], [ 0.527778, 8.879981 ], [ 0.526798, 8.884233 ], [ 0.520568, 8.890816 ], [ 0.516701, 8.89978 ], [ 0.515689, 8.908764 ], [ 0.516085, 8.920596 ], [ 0.508861, 8.933323 ], [ 0.503591, 8.938492 ], [ 0.497811, 8.948863 ], [ 0.491077, 8.959227 ], [ 0.482385, 8.977621 ], [ 0.472299, 8.9908 ], [ 0.466516, 9.00117 ], [ 0.46074, 9.010593 ], [ 0.455422, 9.022385 ], [ 0.453961, 9.027106 ], [ 0.452949, 9.035616 ], [ 0.452893, 9.043659 ], [ 0.454673, 9.061178 ], [ 0.455545, 9.072539 ], [ 0.457888, 9.07776 ], [ 0.460195, 9.088185 ], [ 0.466327, 9.096271 ], [ 0.470601, 9.097721 ], [ 0.472964, 9.100103 ], [ 0.473223, 9.100412 ], [ 0.472961, 9.100576 ], [ 0.476234, 9.109115 ], [ 0.468863, 9.141711 ], [ 0.47073, 9.146929 ], [ 0.484491, 9.153649 ], [ 0.487826, 9.153199 ], [ 0.500142, 9.162274 ], [ 0.514701, 9.191238 ], [ 0.526513, 9.204567 ], [ 0.525532, 9.208819 ], [ 0.515449, 9.220579 ], [ 0.502897, 9.244623 ], [ 0.505165, 9.260726 ], [ 0.508439, 9.269266 ], [ 0.515516, 9.278778 ], [ 0.534875, 9.303044 ], [ 0.544829, 9.31021 ], [ 0.548097, 9.319696 ], [ 0.543211, 9.33717 ], [ 0.543658, 9.341431 ], [ 0.545533, 9.345703 ], [ 0.553109, 9.35238 ], [ 0.556401, 9.358554 ], [ 0.558267, 9.364244 ], [ 0.560573, 9.375143 ], [ 0.563871, 9.383691 ], [ 0.563362, 9.385099 ], [ 0.562333, 9.395975 ], [ 0.562277, 9.404019 ], [ 0.556493, 9.413442 ], [ 0.550248, 9.420497 ], [ 0.547833, 9.425211 ], [ 0.539223, 9.429188 ], [ 0.538786, 9.428502 ], [ 0.529247, 9.431827 ], [ 0.521861, 9.441223 ], [ 0.518187, 9.443135 ], [ 0.512818, 9.443339 ], [ 0.507696, 9.443061 ], [ 0.502824, 9.442057 ], [ 0.499659, 9.441066 ], [ 0.501013, 9.456337 ], [ 0.502939, 9.459985 ], [ 0.494334, 9.468887 ], [ 0.494299, 9.468989 ], [ 0.49427, 9.468489 ], [ 0.488448, 9.475338 ], [ 0.484338, 9.47842 ], [ 0.478516, 9.47979 ], [ 0.474064, 9.483215 ], [ 0.468242, 9.484927 ], [ 0.460365, 9.486297 ], [ 0.453515, 9.492119 ], [ 0.447693, 9.493832 ], [ 0.445981, 9.493489 ], [ 0.433652, 9.491434 ], [ 0.42372, 9.496229 ], [ 0.417213, 9.495886 ], [ 0.407281, 9.491092 ], [ 0.403172, 9.490749 ], [ 0.396665, 9.489037 ], [ 0.386733, 9.487667 ], [ 0.385705, 9.48527 ], [ 0.381253, 9.489037 ], [ 0.3655, 9.491434 ], [ 0.353856, 9.491434 ], [ 0.340842, 9.482872 ], [ 0.341184, 9.479105 ], [ 0.344951, 9.473626 ], [ 0.344266, 9.468146 ], [ 0.340156, 9.464379 ], [ 0.336389, 9.45205 ], [ 0.33228, 9.446913 ], [ 0.331252, 9.4452 ], [ 0.321321, 9.441091 ], [ 0.313444, 9.440748 ], [ 0.278511, 9.423967 ], [ 0.272347, 9.422255 ], [ 0.270634, 9.423282 ], [ 0.259675, 9.423282 ], [ 0.253511, 9.429789 ], [ 0.245291, 9.429789 ], [ 0.243579, 9.431501 ], [ 0.244949, 9.434584 ], [ 0.243579, 9.438693 ], [ 0.22714, 9.455132 ], [ 0.224401, 9.471228 ], [ 0.22577, 9.478078 ], [ 0.230223, 9.480133 ], [ 0.235017, 9.480475 ], [ 0.238442, 9.479448 ], [ 0.243922, 9.476023 ], [ 0.247689, 9.473968 ], [ 0.255908, 9.474311 ], [ 0.260018, 9.473283 ], [ 0.262758, 9.472256 ], [ 0.267552, 9.474996 ], [ 0.271662, 9.480475 ], [ 0.276114, 9.483215 ], [ 0.285361, 9.484585 ], [ 0.289813, 9.485612 ], [ 0.29358, 9.490407 ], [ 0.300087, 9.493489 ], [ 0.302485, 9.495886 ], [ 0.304882, 9.497941 ], [ 0.305567, 9.503078 ], [ 0.303169, 9.506846 ], [ 0.299745, 9.508215 ], [ 0.287758, 9.51712 ], [ 0.281593, 9.518147 ], [ 0.264127, 9.515065 ], [ 0.260018, 9.515407 ], [ 0.244949, 9.51575 ], [ 0.23673, 9.520202 ], [ 0.233305, 9.525339 ], [ 0.232962, 9.528421 ], [ 0.23125, 9.535613 ], [ 0.22988, 9.541778 ], [ 0.230223, 9.546915 ], [ 0.23399, 9.552052 ], [ 0.235017, 9.567121 ], [ 0.238099, 9.570546 ], [ 0.245976, 9.570203 ], [ 0.256936, 9.562669 ], [ 0.258305, 9.563354 ], [ 0.2631, 9.563354 ], [ 0.282964, 9.573285 ], [ 0.2881, 9.572601 ], [ 0.291183, 9.572943 ], [ 0.297347, 9.572258 ], [ 0.302827, 9.572601 ], [ 0.309676, 9.57397 ], [ 0.318581, 9.574655 ], [ 0.324745, 9.574655 ], [ 0.351458, 9.568491 ], [ 0.36002, 9.571573 ], [ 0.362417, 9.571916 ], [ 0.371322, 9.577738 ], [ 0.376116, 9.58493 ], [ 0.377144, 9.589039 ], [ 0.371664, 9.596574 ], [ 0.367897, 9.60582 ], [ 0.368012, 9.606128 ], [ 0.366955, 9.606167 ], [ 0.365617, 9.611518 ], [ 0.360266, 9.619545 ], [ 0.359597, 9.622889 ], [ 0.359597, 9.630247 ], [ 0.361603, 9.635598 ], [ 0.365617, 9.643625 ], [ 0.365617, 9.650314 ], [ 0.366178, 9.651436 ], [ 0.361944, 9.662124 ], [ 0.357341, 9.664096 ], [ 0.353834, 9.66848 ], [ 0.347258, 9.67133 ], [ 0.346162, 9.684261 ], [ 0.346382, 9.6847 ], [ 0.346351, 9.684806 ], [ 0.345834, 9.686563 ], [ 0.343861, 9.701029 ], [ 0.338381, 9.712207 ], [ 0.33334, 9.717468 ], [ 0.327422, 9.717906 ], [ 0.322819, 9.717906 ], [ 0.320847, 9.718125 ], [ 0.316902, 9.720317 ], [ 0.314709, 9.724481 ], [ 0.31997, 9.736317 ], [ 0.324354, 9.753414 ], [ 0.321066, 9.765249 ], [ 0.323477, 9.768318 ], [ 0.328737, 9.768756 ], [ 0.33071, 9.773359 ], [ 0.326326, 9.785633 ], [ 0.329833, 9.794401 ], [ 0.335751, 9.800757 ], [ 0.338381, 9.811936 ], [ 0.34934, 9.827498 ], [ 0.35219, 9.840429 ], [ 0.352574, 9.84091 ], [ 0.3523, 9.840977 ], [ 0.348464, 9.869361 ], [ 0.346272, 9.883608 ], [ 0.348902, 9.910568 ], [ 0.351532, 9.917582 ], [ 0.357231, 9.9235 ], [ 0.359861, 9.925034 ], [ 0.363587, 9.925911 ], [ 0.374547, 9.927664 ], [ 0.380245, 9.932486 ], [ 0.382656, 9.937089 ], [ 0.381678, 9.940785 ], [ 0.381177, 9.942677 ], [ 0.380684, 9.944541 ], [ 0.376259, 9.949318 ], [ 0.373142, 9.952683 ], [ 0.372527, 9.953347 ], [ 0.365888, 9.960514 ], [ 0.364999, 9.961474 ], [ 0.361396, 9.965364 ], [ 0.353505, 9.9772 ], [ 0.35219, 9.986186 ], [ 0.354422, 9.995392 ], [ 0.3545, 9.995713 ], [ 0.35745, 10.007885 ], [ 0.357012, 10.017529 ], [ 0.352848, 10.02542 ], [ 0.352848, 10.026735 ], [ 0.353286, 10.028708 ], [ 0.35745, 10.0309 ], [ 0.358766, 10.03068 ], [ 0.362711, 10.030461 ], [ 0.374108, 10.024543 ], [ 0.390985, 10.023666 ], [ 0.400191, 10.016653 ], [ 0.407858, 10.02219 ], [ 0.408082, 10.022351 ], [ 0.40829, 10.022525 ], [ 0.40875, 10.024521 ], [ 0.40875, 10.028467 ], [ 0.409827, 10.032055 ], [ 0.411262, 10.039589 ], [ 0.41485, 10.052505 ], [ 0.413415, 10.06004 ], [ 0.410185, 10.06004 ], [ 0.409109, 10.061116 ], [ 0.403369, 10.066498 ], [ 0.396911, 10.071521 ], [ 0.385789, 10.076902 ], [ 0.384712, 10.077261 ], [ 0.377537, 10.07762 ], [ 0.370361, 10.079055 ], [ 0.363186, 10.079772 ], [ 0.358521, 10.080849 ], [ 0.353857, 10.082643 ], [ 0.349552, 10.087307 ], [ 0.349194, 10.091612 ], [ 0.3474, 10.095559 ], [ 0.350628, 10.103811 ], [ 0.356369, 10.123902 ], [ 0.356914, 10.125488 ], [ 0.356873, 10.126335 ], [ 0.356553, 10.135625 ], [ 0.357835, 10.139148 ], [ 0.348865, 10.160931 ], [ 0.350147, 10.169259 ], [ 0.348865, 10.184315 ], [ 0.351108, 10.194245 ], [ 0.352389, 10.197448 ], [ 0.353991, 10.207058 ], [ 0.358155, 10.216668 ], [ 0.358155, 10.222754 ], [ 0.3585, 10.222897 ], [ 0.35906, 10.225974 ], [ 0.35906, 10.237096 ], [ 0.358701, 10.242837 ], [ 0.359419, 10.253241 ], [ 0.36193, 10.257906 ], [ 0.373411, 10.263646 ], [ 0.379151, 10.271898 ], [ 0.37894, 10.271958 ], [ 0.374129, 10.273333 ], [ 0.369823, 10.28015 ], [ 0.371976, 10.282661 ], [ 0.37664, 10.287684 ], [ 0.379869, 10.291272 ], [ 0.393144, 10.301318 ], [ 0.392067, 10.304905 ], [ 0.384533, 10.308493 ], [ 0.38238, 10.308493 ], [ 0.378075, 10.308493 ], [ 0.369823, 10.307417 ], [ 0.365877, 10.306341 ], [ 0.36193, 10.306699 ], [ 0.356548, 10.307417 ], [ 0.353319, 10.307417 ], [ 0.351167, 10.307058 ], [ 0.343991, 10.305264 ], [ 0.342197, 10.305264 ], [ 0.339327, 10.305623 ], [ 0.336098, 10.305623 ], [ 0.332151, 10.305264 ], [ 0.327487, 10.305264 ], [ 0.318877, 10.305264 ], [ 0.317442, 10.308852 ], [ 0.3178, 10.309569 ], [ 0.320312, 10.312799 ], [ 0.331434, 10.318898 ], [ 0.33251, 10.323921 ], [ 0.332151, 10.328944 ], [ 0.325335, 10.335043 ], [ 0.322465, 10.335043 ], [ 0.317083, 10.332531 ], [ 0.314571, 10.333608 ], [ 0.312419, 10.340066 ], [ 0.310983, 10.353699 ], [ 0.306319, 10.363386 ], [ 0.304884, 10.364104 ], [ 0.30022, 10.367691 ], [ 0.289457, 10.372356 ], [ 0.288381, 10.377737 ], [ 0.289139, 10.378183 ], [ 0.292148, 10.383298 ], [ 0.298965, 10.39155 ], [ 0.2943, 10.402672 ], [ 0.286766, 10.407695 ], [ 0.281743, 10.415588 ], [ 0.273132, 10.416665 ], [ 0.269545, 10.415229 ], [ 0.266316, 10.410207 ], [ 0.265239, 10.408413 ], [ 0.259858, 10.405184 ], [ 0.249094, 10.405901 ], [ 0.24156, 10.40626 ], [ 0.235102, 10.406978 ], [ 0.22972, 10.40913 ], [ 0.227568, 10.410207 ], [ 0.218348, 10.417299 ], [ 0.217415, 10.417299 ], [ 0.213314, 10.417299 ], [ 0.210475, 10.414776 ], [ 0.208583, 10.413514 ], [ 0.20259, 10.411621 ], [ 0.205113, 10.402474 ], [ 0.203852, 10.398374 ], [ 0.19912, 10.398374 ], [ 0.195966, 10.399005 ], [ 0.192812, 10.396797 ], [ 0.189027, 10.399635 ], [ 0.183349, 10.412568 ], [ 0.183349, 10.412761 ], [ 0.182334, 10.413047 ], [ 0.175454, 10.416377 ], [ 0.169524, 10.422864 ], [ 0.166022, 10.431309 ], [ 0.167656, 10.440042 ], [ 0.165167, 10.444621 ], [ 0.154806, 10.453974 ], [ 0.153303, 10.457836 ], [ 0.153662, 10.472127 ], [ 0.149145, 10.484438 ], [ 0.147895, 10.487333 ], [ 0.141302, 10.51246 ], [ 0.141531, 10.514157 ], [ 0.131586, 10.531019 ], [ 0.118785, 10.539137 ], [ 0.116091, 10.539355 ], [ 0.109822, 10.542445 ], [ 0.109973, 10.542934 ], [ 0.107568, 10.542748 ], [ 0.102162, 10.54512 ], [ 0.094304, 10.547954 ], [ 0.088658, 10.54984 ], [ 0.081051, 10.551949 ], [ 0.073195, 10.55454 ], [ 0.071727, 10.554526 ], [ 0.06358, 10.561958 ], [ 0.059115, 10.568212 ], [ 0.056372, 10.573514 ], [ 0.054638, 10.575677 ], [ 0.054959, 10.575746 ], [ 0.048407, 10.587485 ], [ 0.037652, 10.594017 ], [ 0.033881, 10.596308 ], [ 0.011547, 10.602634 ], [ 0.011647, 10.60304 ], [ 0.011055, 10.602872 ], [ 0.000708, 10.609796 ], [ -0.003716, 10.61169 ], [ -0.012323, 10.615724 ], [ -0.020927, 10.619516 ], [ -0.02633, 10.621401 ], [ -0.029759, 10.62161 ], [ -0.032701, 10.622066 ], [ -0.04279, 10.627538 ], [ -0.04893, 10.629657 ], [ -0.054334, 10.631542 ], [ -0.063978, 10.641375 ], [ -0.068238, 10.651261 ], [ -0.071176, 10.675687 ], [ -0.087175, 10.708459 ], [ -0.087976, 10.714988 ], [ -0.084585, 10.718653 ], [ -0.074354, 10.723839 ], [ -0.07586, 10.727456 ], [ -0.076128, 10.727648 ], [ -0.073995, 10.735029 ], [ -0.077604, 10.75225 ], [ -0.073176, 10.759794 ], [ -0.072919, 10.759887 ], [ -0.073239, 10.760556 ], [ -0.075552, 10.765163 ], [ -0.073483, 10.769665 ], [ -0.067585, 10.768976 ], [ -0.062122, 10.781427 ], [ -0.058982, 10.784595 ], [ -0.053396, 10.784949 ], [ -0.048461, 10.789926 ], [ -0.045539, 10.799813 ], [ -0.034288, 10.80769 ], [ -0.0282, 10.818205 ], [ -0.027621, 10.82075 ], [ -0.026459, 10.825392 ], [ -0.030649, 10.836403 ], [ -0.032853, 10.845194 ], [ -0.033961, 10.850261 ], [ -0.032008, 10.866262 ], [ -0.031744, 10.870148 ], [ -0.031242, 10.872767 ], [ -0.02343, 10.892261 ], [ -0.021074, 10.898409 ], [ -0.019155, 10.902908 ], [ -0.015285, 10.908772 ], [ -0.014906, 10.909034 ], [ -0.014995, 10.909389 ], [ -0.014071, 10.910649 ], [ -0.015414, 10.928283 ], [ -0.015499, 10.93097 ], [ -0.01575, 10.932414 ], [ -0.013802, 10.943835 ], [ -0.013708, 10.943916 ], [ -0.013724, 10.943942 ], [ -0.011674, 10.956448 ], [ -0.007368, 10.959523 ], [ 0.006572, 10.961573 ], [ 0.006862, 10.961534 ], [ 0.017849, 10.972348 ], [ 0.021785, 10.974152 ], [ 0.026705, 10.974316 ], [ 0.029821, 10.977596 ], [ 0.032117, 10.984485 ], [ 0.030313, 10.988913 ], [ 0.029493, 10.993177 ], [ 0.029621, 10.993189 ], [ 0.027033, 11.005806 ], [ 0.025393, 11.021715 ], [ 0.025065, 11.027783 ], [ 0.024737, 11.035491 ], [ 0.024573, 11.042544 ], [ 0.024737, 11.046644 ], [ 0.024245, 11.054024 ], [ 0.024089, 11.055053 ], [ 0.022669, 11.055586 ], [ 0.020813, 11.059916 ], [ 0.016483, 11.074763 ], [ 0.012771, 11.086516 ], [ 0.007822, 11.097651 ], [ -0.000553, 11.103235 ], [ -0.005056, 11.105256 ], [ -0.016016, 11.109182 ], [ -0.02583, 11.108037 ], [ -0.054782, 11.099858 ], [ -0.061816, 11.092661 ], [ -0.067492, 11.088526 ], [ -0.070158, 11.088081 ], [ -0.075065, 11.088245 ], [ -0.079482, 11.089063 ], [ -0.084225, 11.090044 ], [ -0.087987, 11.091026 ], [ -0.095021, 11.092988 ], [ -0.100092, 11.09397 ], [ -0.100951, 11.094148 ], [ -0.104835, 11.094951 ], [ -0.109742, 11.096587 ], [ -0.110703, 11.097152 ], [ -0.112523, 11.098223 ], [ -0.118739, 11.100186 ], [ -0.120538, 11.102639 ], [ -0.122665, 11.104275 ], [ -0.124791, 11.104929 ], [ -0.129698, 11.105256 ], [ -0.132479, 11.10542 ], [ -0.135751, 11.106074 ], [ -0.137713, 11.105256 ], [ -0.13984, 11.104275 ], [ -0.142293, 11.106565 ], [ -0.142457, 11.109673 ], [ -0.141803, 11.111963 ], [ -0.142293, 11.116379 ], [ -0.141966, 11.11916 ], [ -0.138858, 11.123576 ], [ -0.134933, 11.127175 ], [ -0.133624, 11.129792 ], [ -0.132806, 11.136008 ], [ -0.131712, 11.13804 ], [ -0.125457, 11.136849 ], [ -0.115321, 11.135025 ], [ -0.110051, 11.133606 ], [ -0.101727, 11.131428 ], [ -0.093511, 11.129291 ] ] ] } }
]
}
